<?xml version="1.0" encoding="UTF-8"?>
<gpx creator="StravaGPX" version="1.1" xmlns="http://www.topografix.com/GPX/1/1" xmlns:xsi="http://www.w3.org/2001/XMLSchema-instance" xsi:schemaLocation="http://www.topografix.com/GPX/1/1 http://www.topografix.com/GPX/1/1/gpx.xsd">
 <metadata>
  <name>10KM - Lyon Urbain Trail 2025</name>
  <author>
   <name>Extra Sports</name>
   <link href="https://www.strava.com/athletes/11120461"/>
  </author>
  <copyright author="OpenStreetMap contributors">
   <year>2020</year>
   <license>https://www.openstreetmap.org/copyright</license>
  </copyright>
  <link href="https://www.strava.com/routes/3336983452160610372"/>
 </metadata>
 <trk>
  <name>10KM - Lyon Urbain Trail 2025</name>
  <link href="https://www.strava.com/routes/3336983452160610372"/>
  <type>trail_running</type>
  <trkseg>
   <trkpt lat="45.76191" lon="4.82613">
    <ele>180.87</ele>
   </trkpt>
   <trkpt lat="45.761970000000005" lon="4.826160000000001">
    <ele>181.38</ele>
   </trkpt>
   <trkpt lat="45.76203" lon="4.826020000000001">
    <ele>181.38</ele>
   </trkpt>
   <trkpt lat="45.762040000000006" lon="4.82594">
    <ele>184.4</ele>
   </trkpt>
   <trkpt lat="45.76202000000001" lon="4.82585">
    <ele>184.4</ele>
   </trkpt>
   <trkpt lat="45.761860000000006" lon="4.82563">
    <ele>187.31</ele>
   </trkpt>
   <trkpt lat="45.76158" lon="4.82535">
    <ele>189.82000000000002</ele>
   </trkpt>
   <trkpt lat="45.76118" lon="4.825080000000001">
    <ele>199.5</ele>
   </trkpt>
   <trkpt lat="45.76073" lon="4.8249">
    <ele>205.37000000000003</ele>
   </trkpt>
   <trkpt lat="45.76012" lon="4.8246">
    <ele>214.14000000000001</ele>
   </trkpt>
   <trkpt lat="45.75983" lon="4.824400000000001">
    <ele>220.46</ele>
   </trkpt>
   <trkpt lat="45.75932" lon="4.82418">
    <ele>226.12</ele>
   </trkpt>
   <trkpt lat="45.75909" lon="4.82406">
    <ele>228.55000000000004</ele>
   </trkpt>
   <trkpt lat="45.758720000000004" lon="4.823740000000001">
    <ele>233.39000000000001</ele>
   </trkpt>
   <trkpt lat="45.758660000000006" lon="4.823670000000001">
    <ele>233.39000000000001</ele>
   </trkpt>
   <trkpt lat="45.75856" lon="4.823460000000001">
    <ele>235.20000000000002</ele>
   </trkpt>
   <trkpt lat="45.758570000000006" lon="4.82347">
    <ele>235.20000000000002</ele>
   </trkpt>
   <trkpt lat="45.75840000184442" lon="4.822819998025644">
    <ele>238.43000000000004</ele>
   </trkpt>
   <trkpt lat="45.758230000000005" lon="4.822170000000001">
    <ele>241.62000000000003</ele>
   </trkpt>
   <trkpt lat="45.75817000000001" lon="4.8220600000000005">
    <ele>241.78000000000003</ele>
   </trkpt>
   <trkpt lat="45.75822" lon="4.82195">
    <ele>242.54000000000002</ele>
   </trkpt>
   <trkpt lat="45.75826000000001" lon="4.82193">
    <ele>242.92000000000002</ele>
   </trkpt>
   <trkpt lat="45.75831" lon="4.82195">
    <ele>242.92000000000002</ele>
   </trkpt>
   <trkpt lat="45.75835000000001" lon="4.822">
    <ele>243.39000000000001</ele>
   </trkpt>
   <trkpt lat="45.75838" lon="4.822100000000001">
    <ele>243.68</ele>
   </trkpt>
   <trkpt lat="45.75869" lon="4.82221">
    <ele>248.43</ele>
   </trkpt>
   <trkpt lat="45.75876" lon="4.822240000000001">
    <ele>249.65</ele>
   </trkpt>
   <trkpt lat="45.75894" lon="4.82228">
    <ele>254.04000000000005</ele>
   </trkpt>
   <trkpt lat="45.759060000000005" lon="4.82151">
    <ele>257.74</ele>
   </trkpt>
   <trkpt lat="45.75907" lon="4.821420000000001">
    <ele>258.19</ele>
   </trkpt>
   <trkpt lat="45.75911000000001" lon="4.821350000000001">
    <ele>258.19</ele>
   </trkpt>
   <trkpt lat="45.75918" lon="4.82017">
    <ele>264.87</ele>
   </trkpt>
   <trkpt lat="45.759220000000006" lon="4.820010000000001">
    <ele>264.87</ele>
   </trkpt>
   <trkpt lat="45.76005000000001" lon="4.8203700000000005">
    <ele>266.41</ele>
   </trkpt>
   <trkpt lat="45.75999" lon="4.820620000000001">
    <ele>266.71</ele>
   </trkpt>
   <trkpt lat="45.7599" lon="4.82059">
    <ele>266.96000000000004</ele>
   </trkpt>
   <trkpt lat="45.75986" lon="4.8211">
    <ele>267.12</ele>
   </trkpt>
   <trkpt lat="45.759690000000006" lon="4.82164">
    <ele>263.27</ele>
   </trkpt>
   <trkpt lat="45.759620000000005" lon="4.82171">
    <ele>263.27</ele>
   </trkpt>
   <trkpt lat="45.759780000000006" lon="4.82239">
    <ele>267.93</ele>
   </trkpt>
   <trkpt lat="45.75983" lon="4.8224800000000005">
    <ele>268.24</ele>
   </trkpt>
   <trkpt lat="45.759930000000004" lon="4.82254">
    <ele>268.8</ele>
   </trkpt>
   <trkpt lat="45.760270000000006" lon="4.822590000000001">
    <ele>272.33</ele>
   </trkpt>
   <trkpt lat="45.760290000000005" lon="4.82282">
    <ele>273.07000000000005</ele>
   </trkpt>
   <trkpt lat="45.76037" lon="4.8230900000000005">
    <ele>272.8</ele>
   </trkpt>
   <trkpt lat="45.760690000000004" lon="4.82355">
    <ele>266.66</ele>
   </trkpt>
   <trkpt lat="45.76095" lon="4.82364">
    <ele>264.1</ele>
   </trkpt>
   <trkpt lat="45.761070000000004" lon="4.823650000000001">
    <ele>263.73</ele>
   </trkpt>
   <trkpt lat="45.761190000000006" lon="4.823600000000001">
    <ele>263.59000000000003</ele>
   </trkpt>
   <trkpt lat="45.76122" lon="4.82364">
    <ele>263.59000000000003</ele>
   </trkpt>
   <trkpt lat="45.761720000000004" lon="4.823600000000001">
    <ele>261.43</ele>
   </trkpt>
   <trkpt lat="45.762240000000006" lon="4.82364">
    <ele>259.61</ele>
   </trkpt>
   <trkpt lat="45.76279" lon="4.823790000000001">
    <ele>265.29</ele>
   </trkpt>
   <trkpt lat="45.762800000000006" lon="4.82371">
    <ele>265.3</ele>
   </trkpt>
   <trkpt lat="45.76256" lon="4.82355">
    <ele>268.94</ele>
   </trkpt>
   <trkpt lat="45.76258000000001" lon="4.8233500000000005">
    <ele>275.26</ele>
   </trkpt>
   <trkpt lat="45.762910000000005" lon="4.8234">
    <ele>280.21000000000004</ele>
   </trkpt>
   <trkpt lat="45.76292" lon="4.82333">
    <ele>280.28000000000003</ele>
   </trkpt>
   <trkpt lat="45.762480000000004" lon="4.823040000000001">
    <ele>290.65000000000003</ele>
   </trkpt>
   <trkpt lat="45.76243" lon="4.822970000000001">
    <ele>290.65000000000003</ele>
   </trkpt>
   <trkpt lat="45.76243" lon="4.82291">
    <ele>291.44000000000005</ele>
   </trkpt>
   <trkpt lat="45.762600000000006" lon="4.82293">
    <ele>295.50000000000006</ele>
   </trkpt>
   <trkpt lat="45.76267000000001" lon="4.822100000000001">
    <ele>295.43</ele>
   </trkpt>
   <trkpt lat="45.76268" lon="4.822100000000001">
    <ele>295.43</ele>
   </trkpt>
   <trkpt lat="45.763180000000006" lon="4.82219">
    <ele>294.09000000000003</ele>
   </trkpt>
   <trkpt lat="45.763720000000006" lon="4.822240000000001">
    <ele>291.53000000000003</ele>
   </trkpt>
   <trkpt lat="45.76375" lon="4.8222700000000005">
    <ele>291.53000000000003</ele>
   </trkpt>
   <trkpt lat="45.763830000000006" lon="4.822690000000001">
    <ele>290.03000000000003</ele>
   </trkpt>
   <trkpt lat="45.764100000000006" lon="4.82261">
    <ele>287.22</ele>
   </trkpt>
   <trkpt lat="45.764430000000004" lon="4.8227400000000005">
    <ele>280.93</ele>
   </trkpt>
   <trkpt lat="45.76467" lon="4.82293">
    <ele>270.05</ele>
   </trkpt>
   <trkpt lat="45.7653" lon="4.823720000000001">
    <ele>246.38000000000002</ele>
   </trkpt>
   <trkpt lat="45.76577" lon="4.8241700000000005">
    <ele>228.64000000000001</ele>
   </trkpt>
   <trkpt lat="45.76603" lon="4.82451">
    <ele>221.36</ele>
   </trkpt>
   <trkpt lat="45.76615" lon="4.82455">
    <ele>217.13000000000002</ele>
   </trkpt>
   <trkpt lat="45.76619" lon="4.824050000000001">
    <ele>217.08</ele>
   </trkpt>
   <trkpt lat="45.76619" lon="4.82404">
    <ele>217.08</ele>
   </trkpt>
   <trkpt lat="45.76612" lon="4.82376">
    <ele>217.92000000000002</ele>
   </trkpt>
   <trkpt lat="45.76628" lon="4.82289">
    <ele>219.47000000000003</ele>
   </trkpt>
   <trkpt lat="45.76628" lon="4.822360000000001">
    <ele>219.47000000000003</ele>
   </trkpt>
   <trkpt lat="45.76634000000001" lon="4.82178">
    <ele>220.89000000000001</ele>
   </trkpt>
   <trkpt lat="45.76634000000001" lon="4.821630000000001">
    <ele>220.89000000000001</ele>
   </trkpt>
   <trkpt lat="45.76632" lon="4.82157">
    <ele>221.14000000000001</ele>
   </trkpt>
   <trkpt lat="45.76619" lon="4.82136">
    <ele>221.34</ele>
   </trkpt>
   <trkpt lat="45.766180000000006" lon="4.821350000000001">
    <ele>221.34</ele>
   </trkpt>
   <trkpt lat="45.766070000000006" lon="4.82127">
    <ele>221.34</ele>
   </trkpt>
   <trkpt lat="45.765800000000006" lon="4.82122">
    <ele>221.36</ele>
   </trkpt>
   <trkpt lat="45.765660000000004" lon="4.821160000000001">
    <ele>221.11</ele>
   </trkpt>
   <trkpt lat="45.76554" lon="4.82106">
    <ele>220.38000000000002</ele>
   </trkpt>
   <trkpt lat="45.76502000000001" lon="4.820250000000001">
    <ele>212.53000000000003</ele>
   </trkpt>
   <trkpt lat="45.76498" lon="4.820150000000001">
    <ele>212.53000000000003</ele>
   </trkpt>
   <trkpt lat="45.764920000000004" lon="4.820180000000001">
    <ele>213.35</ele>
   </trkpt>
   <trkpt lat="45.764790000000005" lon="4.8200400000000005">
    <ele>214.91000000000003</ele>
   </trkpt>
   <trkpt lat="45.764660000000006" lon="4.8196900000000005">
    <ele>219.06</ele>
   </trkpt>
   <trkpt lat="45.76437000000001" lon="4.819920000000001">
    <ele>232.25</ele>
   </trkpt>
   <trkpt lat="45.76411" lon="4.81998">
    <ele>242.51000000000002</ele>
   </trkpt>
   <trkpt lat="45.76408000000001" lon="4.82029">
    <ele>244.73000000000002</ele>
   </trkpt>
   <trkpt lat="45.76389" lon="4.82043">
    <ele>251.53000000000003</ele>
   </trkpt>
   <trkpt lat="45.76386" lon="4.82061">
    <ele>254.21000000000004</ele>
   </trkpt>
   <trkpt lat="45.76395" lon="4.821070000000001">
    <ele>257.93000000000006</ele>
   </trkpt>
   <trkpt lat="45.76384" lon="4.82104">
    <ele>260.32</ele>
   </trkpt>
   <trkpt lat="45.76377" lon="4.82068">
    <ele>257.55</ele>
   </trkpt>
   <trkpt lat="45.76366" lon="4.82057">
    <ele>260.19000000000005</ele>
   </trkpt>
   <trkpt lat="45.76362" lon="4.82026">
    <ele>258.48</ele>
   </trkpt>
   <trkpt lat="45.763540000000006" lon="4.819870000000001">
    <ele>259.44</ele>
   </trkpt>
   <trkpt lat="45.76366" lon="4.81925">
    <ele>255.5</ele>
   </trkpt>
   <trkpt lat="45.763780002633595" lon="4.818475001577882">
    <ele>254.8</ele>
   </trkpt>
   <trkpt lat="45.76390000000001" lon="4.8177">
    <ele>255.64000000000001</ele>
   </trkpt>
   <trkpt lat="45.764010000000006" lon="4.81719">
    <ele>255.21000000000004</ele>
   </trkpt>
   <trkpt lat="45.76408000000001" lon="4.81707">
    <ele>254.58</ele>
   </trkpt>
   <trkpt lat="45.76422" lon="4.81709">
    <ele>249.91000000000003</ele>
   </trkpt>
   <trkpt lat="45.76428000000001" lon="4.81721">
    <ele>247.25000000000003</ele>
   </trkpt>
   <trkpt lat="45.764230000000005" lon="4.81731">
    <ele>247.46</ele>
   </trkpt>
   <trkpt lat="45.76424" lon="4.81791">
    <ele>242.55</ele>
   </trkpt>
   <trkpt lat="45.76437000000001" lon="4.8184700000000005">
    <ele>233.95000000000002</ele>
   </trkpt>
   <trkpt lat="45.76449" lon="4.81824">
    <ele>230.8</ele>
   </trkpt>
   <trkpt lat="45.76449" lon="4.81803">
    <ele>232.60000000000002</ele>
   </trkpt>
   <trkpt lat="45.764570000000006" lon="4.817640000000001">
    <ele>233.36</ele>
   </trkpt>
   <trkpt lat="45.764860000000006" lon="4.81778">
    <ele>221.73000000000002</ele>
   </trkpt>
   <trkpt lat="45.764950000000006" lon="4.81799">
    <ele>216.58</ele>
   </trkpt>
   <trkpt lat="45.76521" lon="4.817760000000001">
    <ele>216.51</ele>
   </trkpt>
   <trkpt lat="45.76527" lon="4.8177900000000005">
    <ele>216.51</ele>
   </trkpt>
   <trkpt lat="45.76541" lon="4.817430000000001">
    <ele>215.82</ele>
   </trkpt>
   <trkpt lat="45.765600000000006" lon="4.8171100000000004">
    <ele>216.85000000000002</ele>
   </trkpt>
   <trkpt lat="45.76554" lon="4.81704">
    <ele>217.57000000000002</ele>
   </trkpt>
   <trkpt lat="45.765370000000004" lon="4.81733">
    <ele>219.46</ele>
   </trkpt>
   <trkpt lat="45.76534" lon="4.817290000000001">
    <ele>219.46</ele>
   </trkpt>
   <trkpt lat="45.7655" lon="4.817">
    <ele>221.06</ele>
   </trkpt>
   <trkpt lat="45.76527" lon="4.81681">
    <ele>222.75000000000003</ele>
   </trkpt>
   <trkpt lat="45.76522000000001" lon="4.8169">
    <ele>223.78</ele>
   </trkpt>
   <trkpt lat="45.765130000000006" lon="4.81676">
    <ele>226.35000000000002</ele>
   </trkpt>
   <trkpt lat="45.765040000000006" lon="4.816680000000001">
    <ele>229.5</ele>
   </trkpt>
   <trkpt lat="45.76484000000001" lon="4.816450000000001">
    <ele>235.5</ele>
   </trkpt>
   <trkpt lat="45.76438" lon="4.8160300000000005">
    <ele>246.01</ele>
   </trkpt>
   <trkpt lat="45.76413" lon="4.815860000000001">
    <ele>258.17</ele>
   </trkpt>
   <trkpt lat="45.763980000000004" lon="4.81583">
    <ele>264.01</ele>
   </trkpt>
   <trkpt lat="45.76390000000001" lon="4.8157700000000006">
    <ele>266.56</ele>
   </trkpt>
   <trkpt lat="45.763830000000006" lon="4.815650000000001">
    <ele>271.12</ele>
   </trkpt>
   <trkpt lat="45.7638" lon="4.815510000000001">
    <ele>271.12</ele>
   </trkpt>
   <trkpt lat="45.76379" lon="4.81536">
    <ele>273.44</ele>
   </trkpt>
   <trkpt lat="45.76371" lon="4.815">
    <ele>281.86</ele>
   </trkpt>
   <trkpt lat="45.763510000000004" lon="4.81519">
    <ele>282.94</ele>
   </trkpt>
   <trkpt lat="45.76342" lon="4.81521">
    <ele>283.39000000000004</ele>
   </trkpt>
   <trkpt lat="45.763220000000004" lon="4.814970000000001">
    <ele>285.55</ele>
   </trkpt>
   <trkpt lat="45.763130000000004" lon="4.814690000000001">
    <ele>287.90999999999997</ele>
   </trkpt>
   <trkpt lat="45.76301" lon="4.81416">
    <ele>290.54</ele>
   </trkpt>
   <trkpt lat="45.76292" lon="4.813470000000001">
    <ele>290.50000000000006</ele>
   </trkpt>
   <trkpt lat="45.76294" lon="4.81346">
    <ele>290.50000000000006</ele>
   </trkpt>
   <trkpt lat="45.762890000000006" lon="4.813140000000001">
    <ele>289.90000000000003</ele>
   </trkpt>
   <trkpt lat="45.762910000000005" lon="4.813090000000001">
    <ele>289.90000000000003</ele>
   </trkpt>
   <trkpt lat="45.7629" lon="4.813090000000001">
    <ele>289.90000000000003</ele>
   </trkpt>
   <trkpt lat="45.762930000000004" lon="4.813090000000001">
    <ele>289.90000000000003</ele>
   </trkpt>
   <trkpt lat="45.76308" lon="4.8131200000000005">
    <ele>289.09000000000003</ele>
   </trkpt>
   <trkpt lat="45.76308" lon="4.81308">
    <ele>289.05</ele>
   </trkpt>
   <trkpt lat="45.76371" lon="4.81325">
    <ele>284.29</ele>
   </trkpt>
   <trkpt lat="45.763920000000006" lon="4.812930000000001">
    <ele>281.87</ele>
   </trkpt>
   <trkpt lat="45.764190000000006" lon="4.81273">
    <ele>278.06</ele>
   </trkpt>
   <trkpt lat="45.764700000000005" lon="4.8120400000000005">
    <ele>273.17</ele>
   </trkpt>
   <trkpt lat="45.76483" lon="4.811710000000001">
    <ele>271.77</ele>
   </trkpt>
   <trkpt lat="45.765190000000004" lon="4.8106800000000005">
    <ele>265.73</ele>
   </trkpt>
   <trkpt lat="45.76592" lon="4.809970000000001">
    <ele>259.18</ele>
   </trkpt>
   <trkpt lat="45.76672000000001" lon="4.80947">
    <ele>251.29000000000002</ele>
   </trkpt>
   <trkpt lat="45.76684" lon="4.80942">
    <ele>251.29000000000002</ele>
   </trkpt>
   <trkpt lat="45.767030000000005" lon="4.809410000000001">
    <ele>249.3</ele>
   </trkpt>
   <trkpt lat="45.767320000000005" lon="4.80919">
    <ele>249.96</ele>
   </trkpt>
   <trkpt lat="45.76746000000001" lon="4.80911">
    <ele>251.35000000000002</ele>
   </trkpt>
   <trkpt lat="45.767480000000006" lon="4.80904">
    <ele>252.13000000000002</ele>
   </trkpt>
   <trkpt lat="45.76747" lon="4.8089900000000005">
    <ele>252.13000000000002</ele>
   </trkpt>
   <trkpt lat="45.76751" lon="4.8089">
    <ele>251.52</ele>
   </trkpt>
   <trkpt lat="45.76756" lon="4.808890000000001">
    <ele>250.52</ele>
   </trkpt>
   <trkpt lat="45.76765" lon="4.808890000000001">
    <ele>249.41000000000003</ele>
   </trkpt>
   <trkpt lat="45.76771" lon="4.80893">
    <ele>246.79</ele>
   </trkpt>
   <trkpt lat="45.768260000000005" lon="4.80895">
    <ele>239.61</ele>
   </trkpt>
   <trkpt lat="45.76891500002543" lon="4.809009999296315">
    <ele>232.79000000000002</ele>
   </trkpt>
   <trkpt lat="45.76957" lon="4.80907">
    <ele>227.46</ele>
   </trkpt>
   <trkpt lat="45.76968" lon="4.809150000000001">
    <ele>225.17000000000002</ele>
   </trkpt>
   <trkpt lat="45.769740000000006" lon="4.809030000000001">
    <ele>221.68</ele>
   </trkpt>
   <trkpt lat="45.770030000000006" lon="4.80905">
    <ele>217.46</ele>
   </trkpt>
   <trkpt lat="45.770210000000006" lon="4.809030000000001">
    <ele>214.46</ele>
   </trkpt>
   <trkpt lat="45.770450000000004" lon="4.8089200000000005">
    <ele>208.05</ele>
   </trkpt>
   <trkpt lat="45.77074" lon="4.80893">
    <ele>199.95000000000002</ele>
   </trkpt>
   <trkpt lat="45.771040000000006" lon="4.808800000000001">
    <ele>193.26000000000002</ele>
   </trkpt>
   <trkpt lat="45.771080000000005" lon="4.80883">
    <ele>193.05</ele>
   </trkpt>
   <trkpt lat="45.77105" lon="4.8089900000000005">
    <ele>192.86</ele>
   </trkpt>
   <trkpt lat="45.771080000000005" lon="4.80912">
    <ele>193.03</ele>
   </trkpt>
   <trkpt lat="45.77116" lon="4.80923">
    <ele>193.57000000000002</ele>
   </trkpt>
   <trkpt lat="45.77176" lon="4.80937">
    <ele>196.69</ele>
   </trkpt>
   <trkpt lat="45.772130000000004" lon="4.809270000000001">
    <ele>199.26000000000002</ele>
   </trkpt>
   <trkpt lat="45.77219" lon="4.8093200000000005">
    <ele>201.25</ele>
   </trkpt>
   <trkpt lat="45.772200000000005" lon="4.80933">
    <ele>201.25</ele>
   </trkpt>
   <trkpt lat="45.772220000000004" lon="4.80938">
    <ele>201.25</ele>
   </trkpt>
   <trkpt lat="45.772220000000004" lon="4.80945">
    <ele>204.72</ele>
   </trkpt>
   <trkpt lat="45.77219" lon="4.8095300000000005">
    <ele>205.75</ele>
   </trkpt>
   <trkpt lat="45.77207000000001" lon="4.80968">
    <ele>208.18</ele>
   </trkpt>
   <trkpt lat="45.77128000008274" lon="4.809534997944516">
    <ele>214.04</ele>
   </trkpt>
   <trkpt lat="45.77049" lon="4.8093900000000005">
    <ele>218.63000000000002</ele>
   </trkpt>
   <trkpt lat="45.77" lon="4.80914">
    <ele>221.59</ele>
   </trkpt>
   <trkpt lat="45.76990000000001" lon="4.80919">
    <ele>222.53</ele>
   </trkpt>
   <trkpt lat="45.769870000000004" lon="4.80926">
    <ele>222.53</ele>
   </trkpt>
   <trkpt lat="45.769870000000004" lon="4.8093900000000005">
    <ele>223.52</ele>
   </trkpt>
   <trkpt lat="45.77004" lon="4.80973">
    <ele>225.84</ele>
   </trkpt>
   <trkpt lat="45.770050000000005" lon="4.8098600000000005">
    <ele>225.84</ele>
   </trkpt>
   <trkpt lat="45.770010000000006" lon="4.8099300000000005">
    <ele>225.84</ele>
   </trkpt>
   <trkpt lat="45.769940000000005" lon="4.80999">
    <ele>226.87</ele>
   </trkpt>
   <trkpt lat="45.769560000000006" lon="4.81005">
    <ele>229.18</ele>
   </trkpt>
   <trkpt lat="45.769360000000006" lon="4.81005">
    <ele>230.73000000000002</ele>
   </trkpt>
   <trkpt lat="45.769290000000005" lon="4.81001">
    <ele>231.32000000000002</ele>
   </trkpt>
   <trkpt lat="45.76923" lon="4.81019">
    <ele>231.11</ele>
   </trkpt>
   <trkpt lat="45.769130000000004" lon="4.81027">
    <ele>230.53</ele>
   </trkpt>
   <trkpt lat="45.769000000000005" lon="4.81029">
    <ele>229.96</ele>
   </trkpt>
   <trkpt lat="45.768930000000005" lon="4.8102800000000006">
    <ele>228.98000000000002</ele>
   </trkpt>
   <trkpt lat="45.768710000000006" lon="4.810160000000001">
    <ele>227.59</ele>
   </trkpt>
   <trkpt lat="45.768510000000006" lon="4.8101400000000005">
    <ele>225.56</ele>
   </trkpt>
   <trkpt lat="45.76834" lon="4.8102">
    <ele>225.56</ele>
   </trkpt>
   <trkpt lat="45.767915000250056" lon="4.810435001785432">
    <ele>221.86</ele>
   </trkpt>
   <trkpt lat="45.76749" lon="4.81067">
    <ele>217.66000000000003</ele>
   </trkpt>
   <trkpt lat="45.7674" lon="4.8107500000000005">
    <ele>216.82000000000002</ele>
   </trkpt>
   <trkpt lat="45.766890000000004" lon="4.811260000000001">
    <ele>209.91</ele>
   </trkpt>
   <trkpt lat="45.76679" lon="4.811400000000001">
    <ele>209.91</ele>
   </trkpt>
   <trkpt lat="45.76675" lon="4.811520000000001">
    <ele>209.49</ele>
   </trkpt>
   <trkpt lat="45.76675" lon="4.81153">
    <ele>209.49</ele>
   </trkpt>
   <trkpt lat="45.766760000000005" lon="4.81179">
    <ele>207.64000000000001</ele>
   </trkpt>
   <trkpt lat="45.76681000000001" lon="4.811920000000001">
    <ele>207.64000000000001</ele>
   </trkpt>
   <trkpt lat="45.76695" lon="4.8120400000000005">
    <ele>205.44</ele>
   </trkpt>
   <trkpt lat="45.76706" lon="4.8120400000000005">
    <ele>205.44</ele>
   </trkpt>
   <trkpt lat="45.76711" lon="4.812010000000001">
    <ele>203.51000000000002</ele>
   </trkpt>
   <trkpt lat="45.76715" lon="4.811940000000001">
    <ele>203.51000000000002</ele>
   </trkpt>
   <trkpt lat="45.76719000000001" lon="4.811780000000001">
    <ele>202.78</ele>
   </trkpt>
   <trkpt lat="45.767210000000006" lon="4.811520000000001">
    <ele>201.01000000000002</ele>
   </trkpt>
   <trkpt lat="45.76727" lon="4.81139">
    <ele>199.85000000000002</ele>
   </trkpt>
   <trkpt lat="45.76731" lon="4.81135">
    <ele>199.85000000000002</ele>
   </trkpt>
   <trkpt lat="45.76776500028858" lon="4.8111800013259645">
    <ele>194.73000000000002</ele>
   </trkpt>
   <trkpt lat="45.76822000000001" lon="4.8110100000000005">
    <ele>191.87</ele>
   </trkpt>
   <trkpt lat="45.768280000000004" lon="4.8110100000000005">
    <ele>190.85999999999999</ele>
   </trkpt>
   <trkpt lat="45.76831000000001" lon="4.811030000000001">
    <ele>190.85999999999999</ele>
   </trkpt>
   <trkpt lat="45.76832" lon="4.81104">
    <ele>190.85999999999999</ele>
   </trkpt>
   <trkpt lat="45.76836" lon="4.81116">
    <ele>189.91000000000003</ele>
   </trkpt>
   <trkpt lat="45.768350000000005" lon="4.81123">
    <ele>189.91000000000003</ele>
   </trkpt>
   <trkpt lat="45.76827" lon="4.81137">
    <ele>188.09</ele>
   </trkpt>
   <trkpt lat="45.768060000000006" lon="4.81155">
    <ele>186.87</ele>
   </trkpt>
   <trkpt lat="45.76753" lon="4.8119000000000005">
    <ele>181.66000000000003</ele>
   </trkpt>
   <trkpt lat="45.767410000000005" lon="4.81203">
    <ele>180.13</ele>
   </trkpt>
   <trkpt lat="45.76735" lon="4.81231">
    <ele>178.50000000000003</ele>
   </trkpt>
   <trkpt lat="45.76735" lon="4.812390000000001">
    <ele>178.50000000000003</ele>
   </trkpt>
   <trkpt lat="45.76744" lon="4.8126500000000005">
    <ele>176.39000000000001</ele>
   </trkpt>
   <trkpt lat="45.76787" lon="4.8131200000000005">
    <ele>171.73000000000002</ele>
   </trkpt>
   <trkpt lat="45.768130000000006" lon="4.8129100000000005">
    <ele>170.93000000000004</ele>
   </trkpt>
   <trkpt lat="45.76818" lon="4.8129100000000005">
    <ele>170.69</ele>
   </trkpt>
   <trkpt lat="45.76823" lon="4.81294">
    <ele>170.69</ele>
   </trkpt>
   <trkpt lat="45.768350000000005" lon="4.812860000000001">
    <ele>170.69</ele>
   </trkpt>
   <trkpt lat="45.768530000000005" lon="4.81278">
    <ele>170.58</ele>
   </trkpt>
   <trkpt lat="45.76872" lon="4.8127200000000006">
    <ele>170.58</ele>
   </trkpt>
   <trkpt lat="45.768660000000004" lon="4.8119700000000005">
    <ele>183.25000000000003</ele>
   </trkpt>
   <trkpt lat="45.768950000000004" lon="4.81175">
    <ele>183.7</ele>
   </trkpt>
   <trkpt lat="45.76897" lon="4.811610000000001">
    <ele>186.51000000000002</ele>
   </trkpt>
   <trkpt lat="45.769110000000005" lon="4.81151">
    <ele>187.69000000000003</ele>
   </trkpt>
   <trkpt lat="45.76916000000001" lon="4.811710000000001">
    <ele>183.60000000000002</ele>
   </trkpt>
   <trkpt lat="45.76939" lon="4.81168">
    <ele>182.97000000000003</ele>
   </trkpt>
   <trkpt lat="45.769470000000005" lon="4.8127200000000006">
    <ele>158.72</ele>
   </trkpt>
   <trkpt lat="45.76968" lon="4.81268">
    <ele>172.21</ele>
   </trkpt>
   <trkpt lat="45.769740000000006" lon="4.8127200000000006">
    <ele>172.21</ele>
   </trkpt>
   <trkpt lat="45.769890000000004" lon="4.81268">
    <ele>172.46</ele>
   </trkpt>
   <trkpt lat="45.76993" lon="4.812690000000001">
    <ele>172.46</ele>
   </trkpt>
   <trkpt lat="45.770010000000006" lon="4.812810000000001">
    <ele>173.11</ele>
   </trkpt>
   <trkpt lat="45.770160000000004" lon="4.813770000000001">
    <ele>174.27</ele>
   </trkpt>
   <trkpt lat="45.770160000000004" lon="4.81404">
    <ele>173.62000000000003</ele>
   </trkpt>
   <trkpt lat="45.770140000000005" lon="4.81409">
    <ele>173.33</ele>
   </trkpt>
   <trkpt lat="45.770050000000005" lon="4.814240000000001">
    <ele>172.46</ele>
   </trkpt>
   <trkpt lat="45.769510000000004" lon="4.8145500000000006">
    <ele>171.55</ele>
   </trkpt>
   <trkpt lat="45.769470000000005" lon="4.8144">
    <ele>170.32000000000002</ele>
   </trkpt>
   <trkpt lat="45.76892" lon="4.81473">
    <ele>165.64000000000001</ele>
   </trkpt>
   <trkpt lat="45.76888" lon="4.8146700000000004">
    <ele>165.54000000000002</ele>
   </trkpt>
   <trkpt lat="45.76865" lon="4.814850000000001">
    <ele>165.55</ele>
   </trkpt>
   <trkpt lat="45.768510000000006" lon="4.81498">
    <ele>165.52</ele>
   </trkpt>
   <trkpt lat="45.76823" lon="4.81538">
    <ele>165.48000000000002</ele>
   </trkpt>
   <trkpt lat="45.76796" lon="4.81595">
    <ele>165.5</ele>
   </trkpt>
   <trkpt lat="45.7677800020044" lon="4.816630002241418">
    <ele>165.49</ele>
   </trkpt>
   <trkpt lat="45.7676" lon="4.81731">
    <ele>165.49</ele>
   </trkpt>
   <trkpt lat="45.76751" lon="4.81787">
    <ele>165.42000000000002</ele>
   </trkpt>
   <trkpt lat="45.767540000000004" lon="4.81792">
    <ele>165.42000000000002</ele>
   </trkpt>
   <trkpt lat="45.767480000000006" lon="4.818370000000001">
    <ele>167.26000000000002</ele>
   </trkpt>
   <trkpt lat="45.767480000000006" lon="4.81852">
    <ele>167.56</ele>
   </trkpt>
   <trkpt lat="45.767480000000006" lon="4.81853">
    <ele>167.59</ele>
   </trkpt>
   <trkpt lat="45.767610000000005" lon="4.81853">
    <ele>170.11</ele>
   </trkpt>
   <trkpt lat="45.76765" lon="4.81902">
    <ele>170.22</ele>
   </trkpt>
   <trkpt lat="45.76821" lon="4.818980000000001">
    <ele>172.99</ele>
   </trkpt>
   <trkpt lat="45.76829" lon="4.81899">
    <ele>175.77</ele>
   </trkpt>
   <trkpt lat="45.7683" lon="4.818960000000001">
    <ele>175.77</ele>
   </trkpt>
   <trkpt lat="45.76845" lon="4.81899">
    <ele>184.66000000000003</ele>
   </trkpt>
   <trkpt lat="45.768460000000005" lon="4.818960000000001">
    <ele>184.66000000000003</ele>
   </trkpt>
   <trkpt lat="45.768480000000004" lon="4.81897">
    <ele>184.66000000000003</ele>
   </trkpt>
   <trkpt lat="45.76845" lon="4.81953">
    <ele>197.4</ele>
   </trkpt>
   <trkpt lat="45.768530000000005" lon="4.8195500000000004">
    <ele>199.01000000000002</ele>
   </trkpt>
   <trkpt lat="45.76859" lon="4.819450000000001">
    <ele>200.74000000000004</ele>
   </trkpt>
   <trkpt lat="45.76879" lon="4.81935">
    <ele>212.89000000000001</ele>
   </trkpt>
   <trkpt lat="45.76881" lon="4.81934">
    <ele>213.63000000000002</ele>
   </trkpt>
   <trkpt lat="45.768820000000005" lon="4.8194300000000005">
    <ele>213.59000000000003</ele>
   </trkpt>
   <trkpt lat="45.76869000000001" lon="4.81949">
    <ele>212.35</ele>
   </trkpt>
   <trkpt lat="45.768820000000005" lon="4.8203700000000005">
    <ele>212.14000000000001</ele>
   </trkpt>
   <trkpt lat="45.768820000000005" lon="4.82057">
    <ele>212.08</ele>
   </trkpt>
   <trkpt lat="45.768890000000006" lon="4.82089">
    <ele>212.19000000000003</ele>
   </trkpt>
   <trkpt lat="45.768890000000006" lon="4.821020000000001">
    <ele>212.19000000000003</ele>
   </trkpt>
   <trkpt lat="45.76883" lon="4.8212600000000005">
    <ele>211.97000000000003</ele>
   </trkpt>
   <trkpt lat="45.768860000000004" lon="4.821420000000001">
    <ele>211.99</ele>
   </trkpt>
   <trkpt lat="45.76879" lon="4.8215200000000005">
    <ele>211.99</ele>
   </trkpt>
   <trkpt lat="45.76877" lon="4.82158">
    <ele>212.08</ele>
   </trkpt>
   <trkpt lat="45.76879" lon="4.82165">
    <ele>212.08</ele>
   </trkpt>
   <trkpt lat="45.76885" lon="4.82171">
    <ele>212.08</ele>
   </trkpt>
   <trkpt lat="45.76896000000001" lon="4.821770000000001">
    <ele>212.13</ele>
   </trkpt>
   <trkpt lat="45.769020000000005" lon="4.821820000000001">
    <ele>212.13</ele>
   </trkpt>
   <trkpt lat="45.769110000000005" lon="4.82207">
    <ele>212.46</ele>
   </trkpt>
   <trkpt lat="45.769240004145225" lon="4.823044997718906">
    <ele>211.43</ele>
   </trkpt>
   <trkpt lat="45.76937" lon="4.82402">
    <ele>209.75000000000003</ele>
   </trkpt>
   <trkpt lat="45.76943000000001" lon="4.82401">
    <ele>209.8</ele>
   </trkpt>
   <trkpt lat="45.769450000000006" lon="4.82416">
    <ele>209.52</ele>
   </trkpt>
   <trkpt lat="45.769470000000005" lon="4.82443">
    <ele>207.99</ele>
   </trkpt>
   <trkpt lat="45.769420000000004" lon="4.82516">
    <ele>205.17000000000002</ele>
   </trkpt>
   <trkpt lat="45.769490000000005" lon="4.82517">
    <ele>205.26000000000002</ele>
   </trkpt>
   <trkpt lat="45.76948" lon="4.82524">
    <ele>205.32000000000002</ele>
   </trkpt>
   <trkpt lat="45.76953" lon="4.8252500000000005">
    <ele>205.33</ele>
   </trkpt>
   <trkpt lat="45.76957" lon="4.8253">
    <ele>205.38</ele>
   </trkpt>
   <trkpt lat="45.76959" lon="4.8257200000000005">
    <ele>206.59000000000003</ele>
   </trkpt>
   <trkpt lat="45.76959" lon="4.82573">
    <ele>206.63</ele>
   </trkpt>
   <trkpt lat="45.770010000000006" lon="4.825710000000001">
    <ele>209.8</ele>
   </trkpt>
   <trkpt lat="45.7704" lon="4.8257200000000005">
    <ele>217.93</ele>
   </trkpt>
   <trkpt lat="45.77038" lon="4.8265400000000005">
    <ele>214.18</ele>
   </trkpt>
   <trkpt lat="45.77092500011808" lon="4.82655499985665">
    <ele>218.61</ele>
   </trkpt>
   <trkpt lat="45.77147" lon="4.82657">
    <ele>222.76000000000002</ele>
   </trkpt>
   <trkpt lat="45.77174" lon="4.82737">
    <ele>229.46</ele>
   </trkpt>
   <trkpt lat="45.77163" lon="4.82768">
    <ele>219.24</ele>
   </trkpt>
   <trkpt lat="45.77163" lon="4.827730000000001">
    <ele>219.24</ele>
   </trkpt>
   <trkpt lat="45.771510000000006" lon="4.8280400000000006">
    <ele>215.83</ele>
   </trkpt>
   <trkpt lat="45.77138" lon="4.828200000000001">
    <ele>213.63000000000002</ele>
   </trkpt>
   <trkpt lat="45.77109" lon="4.8284400000000005">
    <ele>210.13</ele>
   </trkpt>
   <trkpt lat="45.771100000000004" lon="4.828480000000001">
    <ele>209.75000000000003</ele>
   </trkpt>
   <trkpt lat="45.77098" lon="4.828600000000001">
    <ele>208.89000000000001</ele>
   </trkpt>
   <trkpt lat="45.771010000000004" lon="4.8287">
    <ele>208.78000000000003</ele>
   </trkpt>
   <trkpt lat="45.77093000000001" lon="4.828810000000001">
    <ele>208.52</ele>
   </trkpt>
   <trkpt lat="45.77076" lon="4.82918">
    <ele>208.04000000000002</ele>
   </trkpt>
   <trkpt lat="45.77062" lon="4.82953">
    <ele>206.59000000000003</ele>
   </trkpt>
   <trkpt lat="45.770570000000006" lon="4.82974">
    <ele>205.23000000000002</ele>
   </trkpt>
   <trkpt lat="45.77056" lon="4.829750000000001">
    <ele>205.23000000000002</ele>
   </trkpt>
   <trkpt lat="45.77037000000001" lon="4.83">
    <ele>201.25</ele>
   </trkpt>
   <trkpt lat="45.77028000000001" lon="4.83">
    <ele>200.69</ele>
   </trkpt>
   <trkpt lat="45.770230000000005" lon="4.830030000000001">
    <ele>199.96000000000004</ele>
   </trkpt>
   <trkpt lat="45.770210000000006" lon="4.830170000000001">
    <ele>197.57000000000002</ele>
   </trkpt>
   <trkpt lat="45.770140000000005" lon="4.83018">
    <ele>197.57000000000002</ele>
   </trkpt>
   <trkpt lat="45.77008000000001" lon="4.8302700000000005">
    <ele>195.68</ele>
   </trkpt>
   <trkpt lat="45.769980000000004" lon="4.8303">
    <ele>194.46</ele>
   </trkpt>
   <trkpt lat="45.769980000000004" lon="4.830290000000001">
    <ele>194.46</ele>
   </trkpt>
   <trkpt lat="45.769690000000004" lon="4.830290000000001">
    <ele>188.07000000000002</ele>
   </trkpt>
   <trkpt lat="45.7697" lon="4.830380000000001">
    <ele>187.76000000000002</ele>
   </trkpt>
   <trkpt lat="45.76916000000001" lon="4.830380000000001">
    <ele>181.82</ele>
   </trkpt>
   <trkpt lat="45.76916000000001" lon="4.8303400000000005">
    <ele>181.82</ele>
   </trkpt>
   <trkpt lat="45.7691" lon="4.8303400000000005">
    <ele>181.70000000000002</ele>
   </trkpt>
   <trkpt lat="45.7691" lon="4.830380000000001">
    <ele>181.48</ele>
   </trkpt>
   <trkpt lat="45.768820000000005" lon="4.830380000000001">
    <ele>180.73</ele>
   </trkpt>
   <trkpt lat="45.76877" lon="4.830360000000001">
    <ele>180.57</ele>
   </trkpt>
   <trkpt lat="45.76878000000001" lon="4.83016">
    <ele>180.41000000000003</ele>
   </trkpt>
   <trkpt lat="45.76877" lon="4.82958">
    <ele>178.87</ele>
   </trkpt>
   <trkpt lat="45.76865" lon="4.8291">
    <ele>178.17000000000002</ele>
   </trkpt>
   <trkpt lat="45.768660000000004" lon="4.82903">
    <ele>178.05</ele>
   </trkpt>
   <trkpt lat="45.7685" lon="4.82845">
    <ele>176.38</ele>
   </trkpt>
   <trkpt lat="45.768190000000004" lon="4.8283700000000005">
    <ele>174.29</ele>
   </trkpt>
   <trkpt lat="45.768150000000006" lon="4.82829">
    <ele>174.17000000000002</ele>
   </trkpt>
   <trkpt lat="45.76791" lon="4.82819">
    <ele>170.58</ele>
   </trkpt>
   <trkpt lat="45.76784000000001" lon="4.828130000000001">
    <ele>170.79000000000002</ele>
   </trkpt>
   <trkpt lat="45.767520000000005" lon="4.828720000000001">
    <ele>166.23000000000002</ele>
   </trkpt>
   <trkpt lat="45.76747" lon="4.82873">
    <ele>166.23000000000002</ele>
   </trkpt>
   <trkpt lat="45.767320000000005" lon="4.82901">
    <ele>166.38</ele>
   </trkpt>
   <trkpt lat="45.767300000000006" lon="4.8291">
    <ele>166.65</ele>
   </trkpt>
   <trkpt lat="45.76708000000001" lon="4.8295">
    <ele>169.16</ele>
   </trkpt>
   <trkpt lat="45.76682" lon="4.8298700000000006">
    <ele>170.29000000000002</ele>
   </trkpt>
   <trkpt lat="45.766740000000006" lon="4.82993">
    <ele>169.82000000000002</ele>
   </trkpt>
   <trkpt lat="45.76634000000001" lon="4.82883">
    <ele>173.08</ele>
   </trkpt>
   <trkpt lat="45.76633" lon="4.82878">
    <ele>172.89000000000001</ele>
   </trkpt>
   <trkpt lat="45.76639" lon="4.8287">
    <ele>172.78</ele>
   </trkpt>
   <trkpt lat="45.7663" lon="4.82857">
    <ele>173.64000000000001</ele>
   </trkpt>
   <trkpt lat="45.766180000000006" lon="4.828060000000001">
    <ele>175.43</ele>
   </trkpt>
   <trkpt lat="45.76612" lon="4.82767">
    <ele>177.53000000000003</ele>
   </trkpt>
   <trkpt lat="45.76605000000001" lon="4.827520000000001">
    <ele>183.33</ele>
   </trkpt>
   <trkpt lat="45.76596000000001" lon="4.827400000000001">
    <ele>179.33</ele>
   </trkpt>
   <trkpt lat="45.765930000000004" lon="4.8274300000000006">
    <ele>179.33</ele>
   </trkpt>
   <trkpt lat="45.76588" lon="4.8272900000000005">
    <ele>180.45000000000002</ele>
   </trkpt>
   <trkpt lat="45.76586" lon="4.8273">
    <ele>180.46</ele>
   </trkpt>
   <trkpt lat="45.765840000000004" lon="4.82725">
    <ele>180.77</ele>
   </trkpt>
   <trkpt lat="45.76554" lon="4.82728">
    <ele>181.34</ele>
   </trkpt>
   <trkpt lat="45.76532" lon="4.82734">
    <ele>180.81000000000003</ele>
   </trkpt>
   <trkpt lat="45.76514" lon="4.8273600000000005">
    <ele>180.49</ele>
   </trkpt>
   <trkpt lat="45.7646" lon="4.827380000000001">
    <ele>179.66</ele>
   </trkpt>
   <trkpt lat="45.764610000000005" lon="4.827710000000001">
    <ele>178.04</ele>
   </trkpt>
   <trkpt lat="45.76413" lon="4.82774">
    <ele>178.16</ele>
   </trkpt>
   <trkpt lat="45.76390000000001" lon="4.827660000000001">
    <ele>178.42000000000002</ele>
   </trkpt>
   <trkpt lat="45.76389" lon="4.8272900000000005">
    <ele>183.8</ele>
   </trkpt>
   <trkpt lat="45.763960000000004" lon="4.82728">
    <ele>185.18</ele>
   </trkpt>
   <trkpt lat="45.76390000000001" lon="4.82714">
    <ele>189.49</ele>
   </trkpt>
   <trkpt lat="45.763690000000004" lon="4.82695">
    <ele>196.8</ele>
   </trkpt>
   <trkpt lat="45.76375" lon="4.8262">
    <ele>208.51000000000002</ele>
   </trkpt>
   <trkpt lat="45.763470000000005" lon="4.82608">
    <ele>210.44</ele>
   </trkpt>
   <trkpt lat="45.76294" lon="4.82551">
    <ele>220.00000000000003</ele>
   </trkpt>
   <trkpt lat="45.762910000000005" lon="4.82554">
    <ele>220.48000000000002</ele>
   </trkpt>
   <trkpt lat="45.76288" lon="4.82552">
    <ele>220.60000000000002</ele>
   </trkpt>
   <trkpt lat="45.76272" lon="4.825360000000001">
    <ele>220.73000000000002</ele>
   </trkpt>
   <trkpt lat="45.76272" lon="4.82535">
    <ele>220.74</ele>
   </trkpt>
   <trkpt lat="45.76240000000001" lon="4.825830000000001">
    <ele>200.55</ele>
   </trkpt>
   <trkpt lat="45.76225" lon="4.825970000000001">
    <ele>191.16000000000003</ele>
   </trkpt>
   <trkpt lat="45.76211000000001" lon="4.82617">
    <ele>186.29000000000002</ele>
   </trkpt>
   <trkpt lat="45.762060000000005" lon="4.82627">
    <ele>181.93</ele>
   </trkpt>
   <trkpt lat="45.761970000000005" lon="4.826160000000001">
    <ele>181.38</ele>
   </trkpt>
   <trkpt lat="45.76178" lon="4.82664">
    <ele>177.85</ele>
   </trkpt>
   <trkpt lat="45.76159000241034" lon="4.827375002294168">
    <ele>175.24</ele>
   </trkpt>
   <trkpt lat="45.7614" lon="4.828110000000001">
    <ele>172.73000000000002</ele>
   </trkpt>
   <trkpt lat="45.7614" lon="4.828180000000001">
    <ele>172.73000000000002</ele>
   </trkpt>
   <trkpt lat="45.761230000000005" lon="4.8281">
    <ele>173.27</ele>
   </trkpt>
   <trkpt lat="45.761190000000006" lon="4.82805">
    <ele>173.27</ele>
   </trkpt>
   <trkpt lat="45.761010000000006" lon="4.8280400000000006">
    <ele>173.1</ele>
   </trkpt>
   <trkpt lat="45.76098" lon="4.828060000000001">
    <ele>173.05</ele>
   </trkpt>
   <trkpt lat="45.760720000000006" lon="4.82805">
    <ele>173.08</ele>
   </trkpt>
   <trkpt lat="45.760760000000005" lon="4.827990000000001">
    <ele>173.08</ele>
   </trkpt>
   <trkpt lat="45.76088" lon="4.8279000000000005">
    <ele>173.3</ele>
   </trkpt>
   <trkpt lat="45.76093" lon="4.82774">
    <ele>173.46</ele>
   </trkpt>
   <trkpt lat="45.761010000000006" lon="4.82779">
    <ele>173.74</ele>
   </trkpt>
   <trkpt lat="45.761050000000004" lon="4.82765">
    <ele>174.11</ele>
   </trkpt>
   <trkpt lat="45.76108000000001" lon="4.82767">
    <ele>174.11</ele>
   </trkpt>
   <trkpt lat="45.76111" lon="4.82753">
    <ele>174.65000000000003</ele>
   </trkpt>
   <trkpt lat="45.76099000000001" lon="4.82746">
    <ele>175.08</ele>
   </trkpt>
   <trkpt lat="45.761100000000006" lon="4.82702">
    <ele>176.61</ele>
   </trkpt>
   <trkpt lat="45.76104" lon="4.826960000000001">
    <ele>176.61</ele>
   </trkpt>
   <trkpt lat="45.76086" lon="4.82685">
    <ele>176.37000000000003</ele>
   </trkpt>
  </trkseg>
 </trk>
</gpx>
