<?xml version="1.0" encoding="UTF-8"?>
<gpx creator="StravaGPX" version="1.1" xmlns="http://www.topografix.com/GPX/1/1" xmlns:xsi="http://www.w3.org/2001/XMLSchema-instance" xsi:schemaLocation="http://www.topografix.com/GPX/1/1 http://www.topografix.com/GPX/1/1/gpx.xsd">
 <metadata>
  <name>15KM - Lyon Urban Trail 2025</name>
  <author>
   <name>Extra Sports</name>
   <link href="https://www.strava.com/athletes/11120461"/>
  </author>
  <copyright author="OpenStreetMap contributors">
   <year>2020</year>
   <license>https://www.openstreetmap.org/copyright</license>
  </copyright>
  <link href="https://www.strava.com/routes/3336984950102469700"/>
 </metadata>
 <trk>
  <name>15KM - Lyon Urban Trail 2025</name>
  <link href="https://www.strava.com/routes/3336984950102469700"/>
  <type>trail_running</type>
  <trkseg>
   <trkpt lat="45.76191" lon="4.82613">
    <ele>180.85</ele>
   </trkpt>
   <trkpt lat="45.761970000000005" lon="4.826160000000001">
    <ele>181.38</ele>
   </trkpt>
   <trkpt lat="45.76203" lon="4.826020000000001">
    <ele>181.38</ele>
   </trkpt>
   <trkpt lat="45.762040000000006" lon="4.82594">
    <ele>184.4</ele>
   </trkpt>
   <trkpt lat="45.76202000000001" lon="4.82585">
    <ele>184.4</ele>
   </trkpt>
   <trkpt lat="45.761860000000006" lon="4.82563">
    <ele>187.31</ele>
   </trkpt>
   <trkpt lat="45.76158" lon="4.82535">
    <ele>189.82000000000002</ele>
   </trkpt>
   <trkpt lat="45.76118" lon="4.825080000000001">
    <ele>199.5</ele>
   </trkpt>
   <trkpt lat="45.76073" lon="4.8249">
    <ele>205.37000000000003</ele>
   </trkpt>
   <trkpt lat="45.76012" lon="4.8246">
    <ele>214.14000000000001</ele>
   </trkpt>
   <trkpt lat="45.75983" lon="4.824400000000001">
    <ele>220.46</ele>
   </trkpt>
   <trkpt lat="45.75932" lon="4.82418">
    <ele>226.12</ele>
   </trkpt>
   <trkpt lat="45.75909" lon="4.82406">
    <ele>228.55000000000004</ele>
   </trkpt>
   <trkpt lat="45.758720000000004" lon="4.823740000000001">
    <ele>233.39000000000001</ele>
   </trkpt>
   <trkpt lat="45.758660000000006" lon="4.823670000000001">
    <ele>233.39000000000001</ele>
   </trkpt>
   <trkpt lat="45.75856" lon="4.823460000000001">
    <ele>235.20000000000002</ele>
   </trkpt>
   <trkpt lat="45.758570000000006" lon="4.82347">
    <ele>235.20000000000002</ele>
   </trkpt>
   <trkpt lat="45.75840000184442" lon="4.822819998025644">
    <ele>238.43000000000004</ele>
   </trkpt>
   <trkpt lat="45.758230000000005" lon="4.822170000000001">
    <ele>241.62000000000003</ele>
   </trkpt>
   <trkpt lat="45.75817000000001" lon="4.8220600000000005">
    <ele>241.78000000000003</ele>
   </trkpt>
   <trkpt lat="45.75822" lon="4.82195">
    <ele>242.54000000000002</ele>
   </trkpt>
   <trkpt lat="45.75826000000001" lon="4.82193">
    <ele>242.92000000000002</ele>
   </trkpt>
   <trkpt lat="45.75831" lon="4.82195">
    <ele>242.92000000000002</ele>
   </trkpt>
   <trkpt lat="45.75835000000001" lon="4.822">
    <ele>243.39000000000001</ele>
   </trkpt>
   <trkpt lat="45.75838" lon="4.822100000000001">
    <ele>243.68</ele>
   </trkpt>
   <trkpt lat="45.75869" lon="4.82221">
    <ele>248.43</ele>
   </trkpt>
   <trkpt lat="45.75876" lon="4.822240000000001">
    <ele>249.65</ele>
   </trkpt>
   <trkpt lat="45.75894" lon="4.82228">
    <ele>254.04000000000005</ele>
   </trkpt>
   <trkpt lat="45.759060000000005" lon="4.82151">
    <ele>257.74</ele>
   </trkpt>
   <trkpt lat="45.75907" lon="4.821420000000001">
    <ele>258.19</ele>
   </trkpt>
   <trkpt lat="45.75911000000001" lon="4.821350000000001">
    <ele>258.19</ele>
   </trkpt>
   <trkpt lat="45.75918" lon="4.82017">
    <ele>264.87</ele>
   </trkpt>
   <trkpt lat="45.759220000000006" lon="4.820010000000001">
    <ele>264.87</ele>
   </trkpt>
   <trkpt lat="45.76005000000001" lon="4.8203700000000005">
    <ele>266.41</ele>
   </trkpt>
   <trkpt lat="45.75999" lon="4.820620000000001">
    <ele>266.71</ele>
   </trkpt>
   <trkpt lat="45.7599" lon="4.82059">
    <ele>266.96000000000004</ele>
   </trkpt>
   <trkpt lat="45.75986" lon="4.8211">
    <ele>267.12</ele>
   </trkpt>
   <trkpt lat="45.759690000000006" lon="4.82164">
    <ele>263.27</ele>
   </trkpt>
   <trkpt lat="45.759620000000005" lon="4.82171">
    <ele>263.27</ele>
   </trkpt>
   <trkpt lat="45.759780000000006" lon="4.82239">
    <ele>267.93</ele>
   </trkpt>
   <trkpt lat="45.75983" lon="4.8224800000000005">
    <ele>268.24</ele>
   </trkpt>
   <trkpt lat="45.759930000000004" lon="4.82254">
    <ele>268.8</ele>
   </trkpt>
   <trkpt lat="45.760270000000006" lon="4.822590000000001">
    <ele>272.33</ele>
   </trkpt>
   <trkpt lat="45.760290000000005" lon="4.82282">
    <ele>273.07000000000005</ele>
   </trkpt>
   <trkpt lat="45.76037" lon="4.8230900000000005">
    <ele>272.8</ele>
   </trkpt>
   <trkpt lat="45.760690000000004" lon="4.82355">
    <ele>266.66</ele>
   </trkpt>
   <trkpt lat="45.76095" lon="4.82364">
    <ele>264.1</ele>
   </trkpt>
   <trkpt lat="45.761070000000004" lon="4.823650000000001">
    <ele>263.73</ele>
   </trkpt>
   <trkpt lat="45.761190000000006" lon="4.823600000000001">
    <ele>263.59000000000003</ele>
   </trkpt>
   <trkpt lat="45.76122" lon="4.82364">
    <ele>263.59000000000003</ele>
   </trkpt>
   <trkpt lat="45.761720000000004" lon="4.823600000000001">
    <ele>261.43</ele>
   </trkpt>
   <trkpt lat="45.762240000000006" lon="4.82364">
    <ele>259.61</ele>
   </trkpt>
   <trkpt lat="45.76279" lon="4.823790000000001">
    <ele>265.29</ele>
   </trkpt>
   <trkpt lat="45.762800000000006" lon="4.82371">
    <ele>265.3</ele>
   </trkpt>
   <trkpt lat="45.76256" lon="4.82355">
    <ele>268.94</ele>
   </trkpt>
   <trkpt lat="45.76258000000001" lon="4.8233500000000005">
    <ele>275.26</ele>
   </trkpt>
   <trkpt lat="45.762910000000005" lon="4.8234">
    <ele>280.21000000000004</ele>
   </trkpt>
   <trkpt lat="45.76292" lon="4.82333">
    <ele>280.28000000000003</ele>
   </trkpt>
   <trkpt lat="45.762480000000004" lon="4.823040000000001">
    <ele>290.65000000000003</ele>
   </trkpt>
   <trkpt lat="45.76243" lon="4.822970000000001">
    <ele>290.65000000000003</ele>
   </trkpt>
   <trkpt lat="45.76243" lon="4.82291">
    <ele>291.44000000000005</ele>
   </trkpt>
   <trkpt lat="45.762600000000006" lon="4.82293">
    <ele>295.50000000000006</ele>
   </trkpt>
   <trkpt lat="45.76267000000001" lon="4.822100000000001">
    <ele>295.43</ele>
   </trkpt>
   <trkpt lat="45.76268" lon="4.822100000000001">
    <ele>295.43</ele>
   </trkpt>
   <trkpt lat="45.763180000000006" lon="4.82219">
    <ele>294.09000000000003</ele>
   </trkpt>
   <trkpt lat="45.763720000000006" lon="4.822240000000001">
    <ele>291.53000000000003</ele>
   </trkpt>
   <trkpt lat="45.76375" lon="4.8222700000000005">
    <ele>291.53000000000003</ele>
   </trkpt>
   <trkpt lat="45.763830000000006" lon="4.822690000000001">
    <ele>290.03000000000003</ele>
   </trkpt>
   <trkpt lat="45.764100000000006" lon="4.82261">
    <ele>287.22</ele>
   </trkpt>
   <trkpt lat="45.764430000000004" lon="4.8227400000000005">
    <ele>280.93</ele>
   </trkpt>
   <trkpt lat="45.76467" lon="4.82293">
    <ele>270.05</ele>
   </trkpt>
   <trkpt lat="45.7653" lon="4.823720000000001">
    <ele>246.38000000000002</ele>
   </trkpt>
   <trkpt lat="45.76577" lon="4.8241700000000005">
    <ele>228.64000000000001</ele>
   </trkpt>
   <trkpt lat="45.76603" lon="4.82451">
    <ele>221.36</ele>
   </trkpt>
   <trkpt lat="45.76615" lon="4.82455">
    <ele>217.13000000000002</ele>
   </trkpt>
   <trkpt lat="45.76619" lon="4.824050000000001">
    <ele>217.08</ele>
   </trkpt>
   <trkpt lat="45.76619" lon="4.82404">
    <ele>217.08</ele>
   </trkpt>
   <trkpt lat="45.76612" lon="4.82376">
    <ele>217.92000000000002</ele>
   </trkpt>
   <trkpt lat="45.76628" lon="4.82289">
    <ele>219.47000000000003</ele>
   </trkpt>
   <trkpt lat="45.76628" lon="4.822360000000001">
    <ele>219.47000000000003</ele>
   </trkpt>
   <trkpt lat="45.76634000000001" lon="4.82178">
    <ele>220.89000000000001</ele>
   </trkpt>
   <trkpt lat="45.76634000000001" lon="4.821630000000001">
    <ele>220.89000000000001</ele>
   </trkpt>
   <trkpt lat="45.76632" lon="4.82157">
    <ele>221.14000000000001</ele>
   </trkpt>
   <trkpt lat="45.76619" lon="4.82136">
    <ele>221.34</ele>
   </trkpt>
   <trkpt lat="45.766180000000006" lon="4.821350000000001">
    <ele>221.34</ele>
   </trkpt>
   <trkpt lat="45.766070000000006" lon="4.82127">
    <ele>221.34</ele>
   </trkpt>
   <trkpt lat="45.765800000000006" lon="4.82122">
    <ele>221.36</ele>
   </trkpt>
   <trkpt lat="45.765660000000004" lon="4.821160000000001">
    <ele>221.11</ele>
   </trkpt>
   <trkpt lat="45.76554" lon="4.82106">
    <ele>220.38000000000002</ele>
   </trkpt>
   <trkpt lat="45.76502000000001" lon="4.820250000000001">
    <ele>212.53000000000003</ele>
   </trkpt>
   <trkpt lat="45.76498" lon="4.820150000000001">
    <ele>212.53000000000003</ele>
   </trkpt>
   <trkpt lat="45.764920000000004" lon="4.820180000000001">
    <ele>213.35</ele>
   </trkpt>
   <trkpt lat="45.764790000000005" lon="4.8200400000000005">
    <ele>214.91000000000003</ele>
   </trkpt>
   <trkpt lat="45.76464000000001" lon="4.81965">
    <ele>219.52</ele>
   </trkpt>
   <trkpt lat="45.76415" lon="4.82002">
    <ele>240.49</ele>
   </trkpt>
   <trkpt lat="45.764070000000004" lon="4.82029">
    <ele>244.73000000000002</ele>
   </trkpt>
   <trkpt lat="45.76389" lon="4.82045">
    <ele>251.53000000000003</ele>
   </trkpt>
   <trkpt lat="45.763940000000005" lon="4.820830000000001">
    <ele>253.8</ele>
   </trkpt>
   <trkpt lat="45.763940000000005" lon="4.821090000000001">
    <ele>257.93000000000006</ele>
   </trkpt>
   <trkpt lat="45.763830000000006" lon="4.82101">
    <ele>260.57</ele>
   </trkpt>
   <trkpt lat="45.763830000000006" lon="4.82078">
    <ele>257.40000000000003</ele>
   </trkpt>
   <trkpt lat="45.763690000000004" lon="4.820550000000001">
    <ele>258.78000000000003</ele>
   </trkpt>
   <trkpt lat="45.763540000000006" lon="4.8198300000000005">
    <ele>259.27</ele>
   </trkpt>
   <trkpt lat="45.76361000000001" lon="4.81958">
    <ele>256.02000000000004</ele>
   </trkpt>
   <trkpt lat="45.76370000000001" lon="4.81907">
    <ele>254.42000000000002</ele>
   </trkpt>
   <trkpt lat="45.763830000000006" lon="4.818250000000001">
    <ele>254.06</ele>
   </trkpt>
   <trkpt lat="45.76390000000001" lon="4.81768">
    <ele>255.64000000000001</ele>
   </trkpt>
   <trkpt lat="45.764" lon="4.81721">
    <ele>254.96</ele>
   </trkpt>
   <trkpt lat="45.764070000000004" lon="4.81707">
    <ele>254.26999999999998</ele>
   </trkpt>
   <trkpt lat="45.764190000000006" lon="4.81705">
    <ele>251.16</ele>
   </trkpt>
   <trkpt lat="45.76428000000001" lon="4.81719">
    <ele>247.58</ele>
   </trkpt>
   <trkpt lat="45.764230000000005" lon="4.81731">
    <ele>247.46</ele>
   </trkpt>
   <trkpt lat="45.764210000000006" lon="4.81747">
    <ele>247.06000000000003</ele>
   </trkpt>
   <trkpt lat="45.76424" lon="4.81785">
    <ele>242.90000000000003</ele>
   </trkpt>
   <trkpt lat="45.76437000000001" lon="4.81845">
    <ele>233.96000000000004</ele>
   </trkpt>
   <trkpt lat="45.76447" lon="4.81827">
    <ele>230.8</ele>
   </trkpt>
   <trkpt lat="45.76456" lon="4.817620000000001">
    <ele>233.77</ele>
   </trkpt>
   <trkpt lat="45.76491" lon="4.8178">
    <ele>220.36</ele>
   </trkpt>
   <trkpt lat="45.76498" lon="4.817970000000001">
    <ele>216.02</ele>
   </trkpt>
   <trkpt lat="45.76521" lon="4.817760000000001">
    <ele>216.51</ele>
   </trkpt>
   <trkpt lat="45.76527" lon="4.8177900000000005">
    <ele>216.51</ele>
   </trkpt>
   <trkpt lat="45.76541" lon="4.817430000000001">
    <ele>215.82</ele>
   </trkpt>
   <trkpt lat="45.765600000000006" lon="4.8171100000000004">
    <ele>216.85000000000002</ele>
   </trkpt>
   <trkpt lat="45.76554" lon="4.81704">
    <ele>217.57000000000002</ele>
   </trkpt>
   <trkpt lat="45.765370000000004" lon="4.81733">
    <ele>219.46</ele>
   </trkpt>
   <trkpt lat="45.76534" lon="4.817290000000001">
    <ele>219.46</ele>
   </trkpt>
   <trkpt lat="45.7655" lon="4.817">
    <ele>221.06</ele>
   </trkpt>
   <trkpt lat="45.76527" lon="4.81681">
    <ele>222.75000000000003</ele>
   </trkpt>
   <trkpt lat="45.76522000000001" lon="4.8169">
    <ele>223.78</ele>
   </trkpt>
   <trkpt lat="45.765130000000006" lon="4.81676">
    <ele>226.35000000000002</ele>
   </trkpt>
   <trkpt lat="45.765040000000006" lon="4.816680000000001">
    <ele>229.5</ele>
   </trkpt>
   <trkpt lat="45.76484000000001" lon="4.816450000000001">
    <ele>235.5</ele>
   </trkpt>
   <trkpt lat="45.76438" lon="4.8160300000000005">
    <ele>246.01</ele>
   </trkpt>
   <trkpt lat="45.76413" lon="4.815860000000001">
    <ele>258.17</ele>
   </trkpt>
   <trkpt lat="45.763980000000004" lon="4.81583">
    <ele>264.01</ele>
   </trkpt>
   <trkpt lat="45.76390000000001" lon="4.8157700000000006">
    <ele>266.56</ele>
   </trkpt>
   <trkpt lat="45.763830000000006" lon="4.815650000000001">
    <ele>271.12</ele>
   </trkpt>
   <trkpt lat="45.7638" lon="4.815510000000001">
    <ele>271.12</ele>
   </trkpt>
   <trkpt lat="45.76379" lon="4.81536">
    <ele>273.44</ele>
   </trkpt>
   <trkpt lat="45.76371" lon="4.815">
    <ele>281.86</ele>
   </trkpt>
   <trkpt lat="45.763510000000004" lon="4.81519">
    <ele>282.94</ele>
   </trkpt>
   <trkpt lat="45.76342" lon="4.81521">
    <ele>283.39000000000004</ele>
   </trkpt>
   <trkpt lat="45.763220000000004" lon="4.814970000000001">
    <ele>285.55</ele>
   </trkpt>
   <trkpt lat="45.763130000000004" lon="4.814690000000001">
    <ele>287.90999999999997</ele>
   </trkpt>
   <trkpt lat="45.76301" lon="4.81416">
    <ele>290.54</ele>
   </trkpt>
   <trkpt lat="45.76292" lon="4.813470000000001">
    <ele>290.50000000000006</ele>
   </trkpt>
   <trkpt lat="45.76294" lon="4.81346">
    <ele>290.50000000000006</ele>
   </trkpt>
   <trkpt lat="45.762890000000006" lon="4.813140000000001">
    <ele>289.90000000000003</ele>
   </trkpt>
   <trkpt lat="45.762910000000005" lon="4.813090000000001">
    <ele>289.90000000000003</ele>
   </trkpt>
   <trkpt lat="45.7629" lon="4.813090000000001">
    <ele>289.90000000000003</ele>
   </trkpt>
   <trkpt lat="45.762930000000004" lon="4.813090000000001">
    <ele>289.90000000000003</ele>
   </trkpt>
   <trkpt lat="45.76308" lon="4.8131200000000005">
    <ele>289.09000000000003</ele>
   </trkpt>
   <trkpt lat="45.76308" lon="4.81308">
    <ele>289.05</ele>
   </trkpt>
   <trkpt lat="45.76371" lon="4.81325">
    <ele>284.29</ele>
   </trkpt>
   <trkpt lat="45.763920000000006" lon="4.812930000000001">
    <ele>281.87</ele>
   </trkpt>
   <trkpt lat="45.764190000000006" lon="4.81273">
    <ele>278.06</ele>
   </trkpt>
   <trkpt lat="45.764700000000005" lon="4.8120400000000005">
    <ele>273.17</ele>
   </trkpt>
   <trkpt lat="45.76483" lon="4.811710000000001">
    <ele>271.77</ele>
   </trkpt>
   <trkpt lat="45.765190000000004" lon="4.8106800000000005">
    <ele>265.73</ele>
   </trkpt>
   <trkpt lat="45.76592" lon="4.809970000000001">
    <ele>259.18</ele>
   </trkpt>
   <trkpt lat="45.76672000000001" lon="4.80947">
    <ele>251.29000000000002</ele>
   </trkpt>
   <trkpt lat="45.76684" lon="4.80942">
    <ele>251.29000000000002</ele>
   </trkpt>
   <trkpt lat="45.767030000000005" lon="4.809410000000001">
    <ele>249.3</ele>
   </trkpt>
   <trkpt lat="45.767320000000005" lon="4.80919">
    <ele>249.96</ele>
   </trkpt>
   <trkpt lat="45.76746000000001" lon="4.80911">
    <ele>251.35000000000002</ele>
   </trkpt>
   <trkpt lat="45.767480000000006" lon="4.80904">
    <ele>252.13000000000002</ele>
   </trkpt>
   <trkpt lat="45.76747" lon="4.8089900000000005">
    <ele>252.13000000000002</ele>
   </trkpt>
   <trkpt lat="45.76751" lon="4.8089">
    <ele>251.52</ele>
   </trkpt>
   <trkpt lat="45.76756" lon="4.808890000000001">
    <ele>250.52</ele>
   </trkpt>
   <trkpt lat="45.76765" lon="4.808890000000001">
    <ele>249.41000000000003</ele>
   </trkpt>
   <trkpt lat="45.76771" lon="4.80893">
    <ele>246.79</ele>
   </trkpt>
   <trkpt lat="45.768260000000005" lon="4.80895">
    <ele>239.61</ele>
   </trkpt>
   <trkpt lat="45.76891500002543" lon="4.809009999296315">
    <ele>232.79000000000002</ele>
   </trkpt>
   <trkpt lat="45.76957" lon="4.80907">
    <ele>227.46</ele>
   </trkpt>
   <trkpt lat="45.76968" lon="4.809150000000001">
    <ele>225.17000000000002</ele>
   </trkpt>
   <trkpt lat="45.769740000000006" lon="4.809030000000001">
    <ele>221.68</ele>
   </trkpt>
   <trkpt lat="45.770030000000006" lon="4.80905">
    <ele>217.46</ele>
   </trkpt>
   <trkpt lat="45.770210000000006" lon="4.809030000000001">
    <ele>214.46</ele>
   </trkpt>
   <trkpt lat="45.770450000000004" lon="4.8089200000000005">
    <ele>208.05</ele>
   </trkpt>
   <trkpt lat="45.77074" lon="4.80893">
    <ele>199.95000000000002</ele>
   </trkpt>
   <trkpt lat="45.771040000000006" lon="4.808800000000001">
    <ele>193.26000000000002</ele>
   </trkpt>
   <trkpt lat="45.771080000000005" lon="4.80883">
    <ele>193.05</ele>
   </trkpt>
   <trkpt lat="45.77105" lon="4.8089900000000005">
    <ele>192.86</ele>
   </trkpt>
   <trkpt lat="45.771080000000005" lon="4.80912">
    <ele>193.03</ele>
   </trkpt>
   <trkpt lat="45.77116" lon="4.80923">
    <ele>193.57000000000002</ele>
   </trkpt>
   <trkpt lat="45.77176" lon="4.80937">
    <ele>196.69</ele>
   </trkpt>
   <trkpt lat="45.772130000000004" lon="4.809270000000001">
    <ele>199.26000000000002</ele>
   </trkpt>
   <trkpt lat="45.77219" lon="4.8093200000000005">
    <ele>201.25</ele>
   </trkpt>
   <trkpt lat="45.772200000000005" lon="4.80933">
    <ele>201.25</ele>
   </trkpt>
   <trkpt lat="45.772220000000004" lon="4.80938">
    <ele>201.25</ele>
   </trkpt>
   <trkpt lat="45.772220000000004" lon="4.80945">
    <ele>204.72</ele>
   </trkpt>
   <trkpt lat="45.77219" lon="4.8095300000000005">
    <ele>205.75</ele>
   </trkpt>
   <trkpt lat="45.77207000000001" lon="4.80968">
    <ele>208.18</ele>
   </trkpt>
   <trkpt lat="45.77128000008274" lon="4.809534997944516">
    <ele>214.04</ele>
   </trkpt>
   <trkpt lat="45.77049" lon="4.8093900000000005">
    <ele>218.63000000000002</ele>
   </trkpt>
   <trkpt lat="45.77" lon="4.80914">
    <ele>221.59</ele>
   </trkpt>
   <trkpt lat="45.76990000000001" lon="4.80919">
    <ele>222.53</ele>
   </trkpt>
   <trkpt lat="45.769870000000004" lon="4.80926">
    <ele>222.53</ele>
   </trkpt>
   <trkpt lat="45.769870000000004" lon="4.8093900000000005">
    <ele>223.52</ele>
   </trkpt>
   <trkpt lat="45.77004" lon="4.80973">
    <ele>225.84</ele>
   </trkpt>
   <trkpt lat="45.770050000000005" lon="4.8098600000000005">
    <ele>225.84</ele>
   </trkpt>
   <trkpt lat="45.770010000000006" lon="4.8099300000000005">
    <ele>225.84</ele>
   </trkpt>
   <trkpt lat="45.769940000000005" lon="4.80999">
    <ele>226.87</ele>
   </trkpt>
   <trkpt lat="45.769560000000006" lon="4.81005">
    <ele>229.18</ele>
   </trkpt>
   <trkpt lat="45.769360000000006" lon="4.81005">
    <ele>230.73000000000002</ele>
   </trkpt>
   <trkpt lat="45.769290000000005" lon="4.81001">
    <ele>231.32000000000002</ele>
   </trkpt>
   <trkpt lat="45.76923" lon="4.81019">
    <ele>231.11</ele>
   </trkpt>
   <trkpt lat="45.769130000000004" lon="4.81027">
    <ele>230.53</ele>
   </trkpt>
   <trkpt lat="45.769000000000005" lon="4.81029">
    <ele>229.96</ele>
   </trkpt>
   <trkpt lat="45.768930000000005" lon="4.8102800000000006">
    <ele>228.98000000000002</ele>
   </trkpt>
   <trkpt lat="45.768710000000006" lon="4.810160000000001">
    <ele>227.59</ele>
   </trkpt>
   <trkpt lat="45.768510000000006" lon="4.8101400000000005">
    <ele>225.56</ele>
   </trkpt>
   <trkpt lat="45.76834" lon="4.8102">
    <ele>225.56</ele>
   </trkpt>
   <trkpt lat="45.767915000250056" lon="4.810435001785432">
    <ele>221.86</ele>
   </trkpt>
   <trkpt lat="45.76749" lon="4.81067">
    <ele>217.66000000000003</ele>
   </trkpt>
   <trkpt lat="45.7674" lon="4.8107500000000005">
    <ele>216.82000000000002</ele>
   </trkpt>
   <trkpt lat="45.766890000000004" lon="4.811260000000001">
    <ele>209.91</ele>
   </trkpt>
   <trkpt lat="45.76679" lon="4.811400000000001">
    <ele>209.91</ele>
   </trkpt>
   <trkpt lat="45.76675" lon="4.81153">
    <ele>209.91</ele>
   </trkpt>
   <trkpt lat="45.76675" lon="4.811780000000001">
    <ele>207.93</ele>
   </trkpt>
   <trkpt lat="45.766760000000005" lon="4.81179">
    <ele>207.93</ele>
   </trkpt>
   <trkpt lat="45.76681000000001" lon="4.811920000000001">
    <ele>207.93</ele>
   </trkpt>
   <trkpt lat="45.76695" lon="4.8120400000000005">
    <ele>205.44</ele>
   </trkpt>
   <trkpt lat="45.76706" lon="4.8120400000000005">
    <ele>205.44</ele>
   </trkpt>
   <trkpt lat="45.76711" lon="4.812010000000001">
    <ele>203.51000000000002</ele>
   </trkpt>
   <trkpt lat="45.76715" lon="4.811940000000001">
    <ele>203.51000000000002</ele>
   </trkpt>
   <trkpt lat="45.76719000000001" lon="4.811780000000001">
    <ele>202.78</ele>
   </trkpt>
   <trkpt lat="45.767210000000006" lon="4.811520000000001">
    <ele>201.01000000000002</ele>
   </trkpt>
   <trkpt lat="45.76727" lon="4.81139">
    <ele>199.85000000000002</ele>
   </trkpt>
   <trkpt lat="45.76731" lon="4.81135">
    <ele>199.85000000000002</ele>
   </trkpt>
   <trkpt lat="45.76776500028858" lon="4.8111800013259645">
    <ele>194.73000000000002</ele>
   </trkpt>
   <trkpt lat="45.76822000000001" lon="4.8110100000000005">
    <ele>191.87</ele>
   </trkpt>
   <trkpt lat="45.768280000000004" lon="4.8110100000000005">
    <ele>190.85999999999999</ele>
   </trkpt>
   <trkpt lat="45.76831000000001" lon="4.811030000000001">
    <ele>190.85999999999999</ele>
   </trkpt>
   <trkpt lat="45.76832" lon="4.81104">
    <ele>190.85999999999999</ele>
   </trkpt>
   <trkpt lat="45.76836" lon="4.81116">
    <ele>189.91000000000003</ele>
   </trkpt>
   <trkpt lat="45.768350000000005" lon="4.81123">
    <ele>189.91000000000003</ele>
   </trkpt>
   <trkpt lat="45.76827" lon="4.81137">
    <ele>188.09</ele>
   </trkpt>
   <trkpt lat="45.768060000000006" lon="4.81155">
    <ele>186.87</ele>
   </trkpt>
   <trkpt lat="45.76753" lon="4.8119000000000005">
    <ele>181.66000000000003</ele>
   </trkpt>
   <trkpt lat="45.767410000000005" lon="4.81203">
    <ele>180.13</ele>
   </trkpt>
   <trkpt lat="45.76735" lon="4.81231">
    <ele>178.50000000000003</ele>
   </trkpt>
   <trkpt lat="45.76735" lon="4.812390000000001">
    <ele>178.50000000000003</ele>
   </trkpt>
   <trkpt lat="45.76744" lon="4.8126500000000005">
    <ele>176.39000000000001</ele>
   </trkpt>
   <trkpt lat="45.76787" lon="4.8131200000000005">
    <ele>171.73000000000002</ele>
   </trkpt>
   <trkpt lat="45.768130000000006" lon="4.8129100000000005">
    <ele>170.93000000000004</ele>
   </trkpt>
   <trkpt lat="45.76818" lon="4.8129100000000005">
    <ele>170.69</ele>
   </trkpt>
   <trkpt lat="45.76823" lon="4.81294">
    <ele>170.69</ele>
   </trkpt>
   <trkpt lat="45.768350000000005" lon="4.812860000000001">
    <ele>170.69</ele>
   </trkpt>
   <trkpt lat="45.768530000000005" lon="4.81278">
    <ele>170.58</ele>
   </trkpt>
   <trkpt lat="45.76872" lon="4.8127200000000006">
    <ele>170.58</ele>
   </trkpt>
   <trkpt lat="45.768660000000004" lon="4.8119700000000005">
    <ele>183.25000000000003</ele>
   </trkpt>
   <trkpt lat="45.768950000000004" lon="4.811730000000001">
    <ele>183.7</ele>
   </trkpt>
   <trkpt lat="45.768980000000006" lon="4.8116">
    <ele>186.51000000000002</ele>
   </trkpt>
   <trkpt lat="45.76905000000001" lon="4.81146">
    <ele>188.86</ele>
   </trkpt>
   <trkpt lat="45.76915" lon="4.81148">
    <ele>188.49</ele>
   </trkpt>
   <trkpt lat="45.76919" lon="4.81167">
    <ele>183.48</ele>
   </trkpt>
   <trkpt lat="45.76941" lon="4.81168">
    <ele>182.89000000000001</ele>
   </trkpt>
   <trkpt lat="45.769490000000005" lon="4.8125800000000005">
    <ele>161.02</ele>
   </trkpt>
   <trkpt lat="45.769980000000004" lon="4.81247">
    <ele>172.14000000000001</ele>
   </trkpt>
   <trkpt lat="45.76999000000001" lon="4.81271">
    <ele>172.78</ele>
   </trkpt>
   <trkpt lat="45.770160000000004" lon="4.813770000000001">
    <ele>174.27</ele>
   </trkpt>
   <trkpt lat="45.770160000000004" lon="4.81404">
    <ele>173.62000000000003</ele>
   </trkpt>
   <trkpt lat="45.770050000000005" lon="4.814240000000001">
    <ele>172.46</ele>
   </trkpt>
   <trkpt lat="45.769510000000004" lon="4.8145500000000006">
    <ele>171.55</ele>
   </trkpt>
   <trkpt lat="45.769470000000005" lon="4.8144">
    <ele>170.32000000000002</ele>
   </trkpt>
   <trkpt lat="45.76892" lon="4.81473">
    <ele>165.64000000000001</ele>
   </trkpt>
   <trkpt lat="45.76888" lon="4.8146700000000004">
    <ele>165.54000000000002</ele>
   </trkpt>
   <trkpt lat="45.76865" lon="4.814850000000001">
    <ele>165.55</ele>
   </trkpt>
   <trkpt lat="45.768510000000006" lon="4.81498">
    <ele>165.52</ele>
   </trkpt>
   <trkpt lat="45.76823" lon="4.81538">
    <ele>165.48000000000002</ele>
   </trkpt>
   <trkpt lat="45.76796" lon="4.81595">
    <ele>165.5</ele>
   </trkpt>
   <trkpt lat="45.7677800020044" lon="4.816630002241418">
    <ele>165.49</ele>
   </trkpt>
   <trkpt lat="45.7676" lon="4.81731">
    <ele>165.49</ele>
   </trkpt>
   <trkpt lat="45.76751" lon="4.81787">
    <ele>165.42000000000002</ele>
   </trkpt>
   <trkpt lat="45.767540000000004" lon="4.81792">
    <ele>165.42000000000002</ele>
   </trkpt>
   <trkpt lat="45.767480000000006" lon="4.818370000000001">
    <ele>167.26000000000002</ele>
   </trkpt>
   <trkpt lat="45.767480000000006" lon="4.81853">
    <ele>167.59</ele>
   </trkpt>
   <trkpt lat="45.767610000000005" lon="4.81853">
    <ele>170.11</ele>
   </trkpt>
   <trkpt lat="45.76765" lon="4.81902">
    <ele>170.22</ele>
   </trkpt>
   <trkpt lat="45.76821" lon="4.818980000000001">
    <ele>172.99</ele>
   </trkpt>
   <trkpt lat="45.76829" lon="4.81899">
    <ele>175.77</ele>
   </trkpt>
   <trkpt lat="45.7683" lon="4.818960000000001">
    <ele>175.77</ele>
   </trkpt>
   <trkpt lat="45.76845" lon="4.81899">
    <ele>184.66000000000003</ele>
   </trkpt>
   <trkpt lat="45.768460000000005" lon="4.818960000000001">
    <ele>184.66000000000003</ele>
   </trkpt>
   <trkpt lat="45.768480000000004" lon="4.81897">
    <ele>184.66000000000003</ele>
   </trkpt>
   <trkpt lat="45.76845" lon="4.81953">
    <ele>197.4</ele>
   </trkpt>
   <trkpt lat="45.768530000000005" lon="4.8195500000000004">
    <ele>199.01000000000002</ele>
   </trkpt>
   <trkpt lat="45.76859" lon="4.819450000000001">
    <ele>200.74000000000004</ele>
   </trkpt>
   <trkpt lat="45.76879" lon="4.81935">
    <ele>212.89000000000001</ele>
   </trkpt>
   <trkpt lat="45.76881" lon="4.81934">
    <ele>213.63000000000002</ele>
   </trkpt>
   <trkpt lat="45.76879" lon="4.81916">
    <ele>213.86</ele>
   </trkpt>
   <trkpt lat="45.76887000000001" lon="4.818650000000001">
    <ele>214.68</ele>
   </trkpt>
   <trkpt lat="45.76894" lon="4.81867">
    <ele>214.68</ele>
   </trkpt>
   <trkpt lat="45.769055002438314" lon="4.817915001871719">
    <ele>214.54</ele>
   </trkpt>
   <trkpt lat="45.76917" lon="4.81716">
    <ele>214.13000000000002</ele>
   </trkpt>
   <trkpt lat="45.76921" lon="4.817080000000001">
    <ele>214.13000000000002</ele>
   </trkpt>
   <trkpt lat="45.76925000000001" lon="4.817030000000001">
    <ele>214.13000000000002</ele>
   </trkpt>
   <trkpt lat="45.76923" lon="4.81697">
    <ele>214.13000000000002</ele>
   </trkpt>
   <trkpt lat="45.76924" lon="4.81688">
    <ele>213.1</ele>
   </trkpt>
   <trkpt lat="45.76928" lon="4.816800000000001">
    <ele>213.1</ele>
   </trkpt>
   <trkpt lat="45.76984" lon="4.816280000000001">
    <ele>207.1</ele>
   </trkpt>
   <trkpt lat="45.76979" lon="4.816140000000001">
    <ele>205.15000000000003</ele>
   </trkpt>
   <trkpt lat="45.76988" lon="4.81608">
    <ele>204.13</ele>
   </trkpt>
   <trkpt lat="45.769920000000006" lon="4.81595">
    <ele>203.8</ele>
   </trkpt>
   <trkpt lat="45.769920000000006" lon="4.8158">
    <ele>203.62000000000003</ele>
   </trkpt>
   <trkpt lat="45.76995" lon="4.81569">
    <ele>203.5</ele>
   </trkpt>
   <trkpt lat="45.77008000000001" lon="4.815510000000001">
    <ele>202.57000000000002</ele>
   </trkpt>
   <trkpt lat="45.77035" lon="4.8153500000000005">
    <ele>197.84</ele>
   </trkpt>
   <trkpt lat="45.770450000000004" lon="4.81571">
    <ele>207.07</ele>
   </trkpt>
   <trkpt lat="45.77098" lon="4.81569">
    <ele>211.96</ele>
   </trkpt>
   <trkpt lat="45.770990000000005" lon="4.815460000000001">
    <ele>207.68</ele>
   </trkpt>
   <trkpt lat="45.77084000000001" lon="4.81533">
    <ele>203.61</ele>
   </trkpt>
   <trkpt lat="45.770990000000005" lon="4.81531">
    <ele>203.70000000000002</ele>
   </trkpt>
   <trkpt lat="45.77111000000001" lon="4.81578">
    <ele>214.75000000000003</ele>
   </trkpt>
   <trkpt lat="45.771100000000004" lon="4.8159600000000005">
    <ele>218.51000000000002</ele>
   </trkpt>
   <trkpt lat="45.770720000000004" lon="4.8158900000000004">
    <ele>210.25000000000003</ele>
   </trkpt>
   <trkpt lat="45.77011" lon="4.8160300000000005">
    <ele>206.15000000000003</ele>
   </trkpt>
   <trkpt lat="45.770160000000004" lon="4.81602">
    <ele>206.32</ele>
   </trkpt>
   <trkpt lat="45.77017" lon="4.81606">
    <ele>206.59000000000003</ele>
   </trkpt>
   <trkpt lat="45.77009" lon="4.81611">
    <ele>207.78000000000003</ele>
   </trkpt>
   <trkpt lat="45.769705000372845" lon="4.816475002716853">
    <ele>210.34000000000003</ele>
   </trkpt>
   <trkpt lat="45.76932" lon="4.81684">
    <ele>214.67000000000002</ele>
   </trkpt>
   <trkpt lat="45.76935" lon="4.81693">
    <ele>215.08</ele>
   </trkpt>
   <trkpt lat="45.7697" lon="4.81688">
    <ele>217.15</ele>
   </trkpt>
   <trkpt lat="45.7697" lon="4.81695">
    <ele>217.53000000000003</ele>
   </trkpt>
   <trkpt lat="45.76925000000001" lon="4.817030000000001">
    <ele>214.13000000000002</ele>
   </trkpt>
   <trkpt lat="45.76921" lon="4.817080000000001">
    <ele>214.13000000000002</ele>
   </trkpt>
   <trkpt lat="45.76917" lon="4.81716">
    <ele>214.25000000000003</ele>
   </trkpt>
   <trkpt lat="45.769055002534294" lon="4.817915001241519">
    <ele>214.54</ele>
   </trkpt>
   <trkpt lat="45.76894" lon="4.81867">
    <ele>214.68</ele>
   </trkpt>
   <trkpt lat="45.76887000000001" lon="4.818650000000001">
    <ele>214.68</ele>
   </trkpt>
   <trkpt lat="45.76879" lon="4.819170000000001">
    <ele>213.93</ele>
   </trkpt>
   <trkpt lat="45.76879" lon="4.81916">
    <ele>213.93</ele>
   </trkpt>
   <trkpt lat="45.76891000357177" lon="4.820064998048419">
    <ele>213.49</ele>
   </trkpt>
   <trkpt lat="45.76903" lon="4.82097">
    <ele>213.36</ele>
   </trkpt>
   <trkpt lat="45.768890000000006" lon="4.821020000000001">
    <ele>212.19000000000003</ele>
   </trkpt>
   <trkpt lat="45.76883" lon="4.8212600000000005">
    <ele>211.97000000000003</ele>
   </trkpt>
   <trkpt lat="45.768860000000004" lon="4.821420000000001">
    <ele>211.99</ele>
   </trkpt>
   <trkpt lat="45.76879" lon="4.8215200000000005">
    <ele>211.99</ele>
   </trkpt>
   <trkpt lat="45.76877" lon="4.82158">
    <ele>212.08</ele>
   </trkpt>
   <trkpt lat="45.76879" lon="4.82165">
    <ele>212.08</ele>
   </trkpt>
   <trkpt lat="45.76885" lon="4.82171">
    <ele>212.08</ele>
   </trkpt>
   <trkpt lat="45.76896000000001" lon="4.821770000000001">
    <ele>212.13</ele>
   </trkpt>
   <trkpt lat="45.769020000000005" lon="4.821820000000001">
    <ele>212.13</ele>
   </trkpt>
   <trkpt lat="45.769110000000005" lon="4.82207">
    <ele>212.46</ele>
   </trkpt>
   <trkpt lat="45.769240004145225" lon="4.823044997718906">
    <ele>211.43</ele>
   </trkpt>
   <trkpt lat="45.76937" lon="4.82402">
    <ele>209.75000000000003</ele>
   </trkpt>
   <trkpt lat="45.76943000000001" lon="4.82401">
    <ele>209.8</ele>
   </trkpt>
   <trkpt lat="45.769450000000006" lon="4.82416">
    <ele>209.52</ele>
   </trkpt>
   <trkpt lat="45.769470000000005" lon="4.82443">
    <ele>207.99</ele>
   </trkpt>
   <trkpt lat="45.769420000000004" lon="4.82516">
    <ele>205.17000000000002</ele>
   </trkpt>
   <trkpt lat="45.769490000000005" lon="4.82517">
    <ele>205.32000000000002</ele>
   </trkpt>
   <trkpt lat="45.76948" lon="4.82524">
    <ele>205.32000000000002</ele>
   </trkpt>
   <trkpt lat="45.76953" lon="4.8252500000000005">
    <ele>205.33</ele>
   </trkpt>
   <trkpt lat="45.76957" lon="4.8253">
    <ele>205.38</ele>
   </trkpt>
   <trkpt lat="45.76959" lon="4.8257200000000005">
    <ele>206.59000000000003</ele>
   </trkpt>
   <trkpt lat="45.76959" lon="4.82573">
    <ele>206.63</ele>
   </trkpt>
   <trkpt lat="45.770010000000006" lon="4.825710000000001">
    <ele>209.8</ele>
   </trkpt>
   <trkpt lat="45.7704" lon="4.8257200000000005">
    <ele>217.93</ele>
   </trkpt>
   <trkpt lat="45.77038" lon="4.8265400000000005">
    <ele>214.18</ele>
   </trkpt>
   <trkpt lat="45.77092000006606" lon="4.82655499985658">
    <ele>218.61</ele>
   </trkpt>
   <trkpt lat="45.771460000000005" lon="4.82657">
    <ele>222.66000000000003</ele>
   </trkpt>
   <trkpt lat="45.77176" lon="4.827400000000001">
    <ele>230.06</ele>
   </trkpt>
   <trkpt lat="45.771510000000006" lon="4.8280400000000006">
    <ele>215.83</ele>
   </trkpt>
   <trkpt lat="45.77138" lon="4.828200000000001">
    <ele>213.63000000000002</ele>
   </trkpt>
   <trkpt lat="45.77109" lon="4.8284400000000005">
    <ele>210.13</ele>
   </trkpt>
   <trkpt lat="45.771100000000004" lon="4.828480000000001">
    <ele>209.75000000000003</ele>
   </trkpt>
   <trkpt lat="45.77098" lon="4.828600000000001">
    <ele>208.89000000000001</ele>
   </trkpt>
   <trkpt lat="45.771010000000004" lon="4.8287">
    <ele>208.78000000000003</ele>
   </trkpt>
   <trkpt lat="45.77093000000001" lon="4.828810000000001">
    <ele>208.52</ele>
   </trkpt>
   <trkpt lat="45.77076" lon="4.82918">
    <ele>208.04000000000002</ele>
   </trkpt>
   <trkpt lat="45.77062" lon="4.82953">
    <ele>206.59000000000003</ele>
   </trkpt>
   <trkpt lat="45.770570000000006" lon="4.829750000000001">
    <ele>205.20000000000002</ele>
   </trkpt>
   <trkpt lat="45.77037000000001" lon="4.83">
    <ele>201.25</ele>
   </trkpt>
   <trkpt lat="45.77028000000001" lon="4.83">
    <ele>200.42000000000002</ele>
   </trkpt>
   <trkpt lat="45.770230000000005" lon="4.830030000000001">
    <ele>199.96000000000004</ele>
   </trkpt>
   <trkpt lat="45.770210000000006" lon="4.830170000000001">
    <ele>197.57000000000002</ele>
   </trkpt>
   <trkpt lat="45.770140000000005" lon="4.83018">
    <ele>197.57000000000002</ele>
   </trkpt>
   <trkpt lat="45.77008000000001" lon="4.8302700000000005">
    <ele>195.68</ele>
   </trkpt>
   <trkpt lat="45.769980000000004" lon="4.8303">
    <ele>194.46</ele>
   </trkpt>
   <trkpt lat="45.770010000000006" lon="4.83046">
    <ele>194.47</ele>
   </trkpt>
   <trkpt lat="45.76964" lon="4.83046">
    <ele>187.31</ele>
   </trkpt>
   <trkpt lat="45.76964" lon="4.83108">
    <ele>186.61</ele>
   </trkpt>
   <trkpt lat="45.769940000000005" lon="4.83093">
    <ele>199.02</ele>
   </trkpt>
   <trkpt lat="45.76995" lon="4.83093">
    <ele>192.09</ele>
   </trkpt>
   <trkpt lat="45.77060666671119" lon="4.830936666510134">
    <ele>199.02</ele>
   </trkpt>
   <trkpt lat="45.77126333342198" lon="4.830943333177246">
    <ele>235.05</ele>
   </trkpt>
   <trkpt lat="45.77192" lon="4.8309500000000005">
    <ele>235.05</ele>
   </trkpt>
   <trkpt lat="45.77263000009839" lon="4.8309649998110995">
    <ele>237.32000000000002</ele>
   </trkpt>
   <trkpt lat="45.773340000000005" lon="4.83098">
    <ele>250.57000000000002</ele>
   </trkpt>
   <trkpt lat="45.773804999951345" lon="4.830920000508586">
    <ele>257.77</ele>
   </trkpt>
   <trkpt lat="45.77427" lon="4.83086">
    <ele>255.76000000000005</ele>
   </trkpt>
   <trkpt lat="45.77432001384676" lon="4.832119997674855">
    <ele>255.3</ele>
   </trkpt>
   <trkpt lat="45.77437001384416" lon="4.833379997609391">
    <ele>251.66</ele>
   </trkpt>
   <trkpt lat="45.774420000000006" lon="4.83464">
    <ele>251.66</ele>
   </trkpt>
   <trkpt lat="45.774420000000006" lon="4.8346800000000005">
    <ele>253.03000000000003</ele>
   </trkpt>
   <trkpt lat="45.774480000000004" lon="4.83476">
    <ele>252.86</ele>
   </trkpt>
   <trkpt lat="45.774480000000004" lon="4.83481">
    <ele>252.74</ele>
   </trkpt>
   <trkpt lat="45.774280000000005" lon="4.83568">
    <ele>243.26000000000002</ele>
   </trkpt>
   <trkpt lat="45.7742" lon="4.8356900000000005">
    <ele>242.19</ele>
   </trkpt>
   <trkpt lat="45.774170000000005" lon="4.83577">
    <ele>241.58</ele>
   </trkpt>
   <trkpt lat="45.774170000000005" lon="4.83579">
    <ele>241.45000000000002</ele>
   </trkpt>
   <trkpt lat="45.77422000000001" lon="4.835800000000001">
    <ele>241.53000000000003</ele>
   </trkpt>
   <trkpt lat="45.77414" lon="4.836180000000001">
    <ele>235.14000000000001</ele>
   </trkpt>
   <trkpt lat="45.774390000000004" lon="4.83642">
    <ele>235.27</ele>
   </trkpt>
   <trkpt lat="45.77443" lon="4.83626">
    <ele>236.21000000000004</ele>
   </trkpt>
   <trkpt lat="45.774680000000004" lon="4.83631">
    <ele>238.23000000000002</ele>
   </trkpt>
   <trkpt lat="45.77467" lon="4.83635">
    <ele>238.23000000000002</ele>
   </trkpt>
   <trkpt lat="45.774770000000004" lon="4.8363700000000005">
    <ele>234.77</ele>
   </trkpt>
   <trkpt lat="45.774750000000004" lon="4.83666">
    <ele>227.87</ele>
   </trkpt>
   <trkpt lat="45.774680000000004" lon="4.836950000000001">
    <ele>222.67000000000002</ele>
   </trkpt>
   <trkpt lat="45.774460000000005" lon="4.83725">
    <ele>214.23</ele>
   </trkpt>
   <trkpt lat="45.774370000000005" lon="4.83722">
    <ele>211.8</ele>
   </trkpt>
   <trkpt lat="45.77427" lon="4.83724">
    <ele>209.26000000000002</ele>
   </trkpt>
   <trkpt lat="45.7742" lon="4.83731">
    <ele>202.78</ele>
   </trkpt>
   <trkpt lat="45.774330000000006" lon="4.837420000000001">
    <ele>202.78</ele>
   </trkpt>
   <trkpt lat="45.77432" lon="4.8374500000000005">
    <ele>197.76000000000002</ele>
   </trkpt>
   <trkpt lat="45.77418" lon="4.83741">
    <ele>196.43</ele>
   </trkpt>
   <trkpt lat="45.77416" lon="4.8375">
    <ele>195.03</ele>
   </trkpt>
   <trkpt lat="45.774240000000006" lon="4.83758">
    <ele>188.84</ele>
   </trkpt>
   <trkpt lat="45.774210000000004" lon="4.8376600000000005">
    <ele>188.84</ele>
   </trkpt>
   <trkpt lat="45.77416" lon="4.83764">
    <ele>185.43</ele>
   </trkpt>
   <trkpt lat="45.774150000000006" lon="4.8376600000000005">
    <ele>185.43</ele>
   </trkpt>
   <trkpt lat="45.77411" lon="4.83764">
    <ele>184.48</ele>
   </trkpt>
   <trkpt lat="45.77409" lon="4.83765">
    <ele>183.61</ele>
   </trkpt>
   <trkpt lat="45.773900000000005" lon="4.838220000000001">
    <ele>177.67000000000002</ele>
   </trkpt>
   <trkpt lat="45.77362" lon="4.83785">
    <ele>176.76000000000002</ele>
   </trkpt>
   <trkpt lat="45.772890000000004" lon="4.83734">
    <ele>193.01000000000002</ele>
   </trkpt>
   <trkpt lat="45.772890000000004" lon="4.837300000000001">
    <ele>193.01000000000002</ele>
   </trkpt>
   <trkpt lat="45.772780000000004" lon="4.8368400000000005">
    <ele>198.08</ele>
   </trkpt>
   <trkpt lat="45.772580000000005" lon="4.836810000000001">
    <ele>173.92000000000002</ele>
   </trkpt>
   <trkpt lat="45.7725" lon="4.83697">
    <ele>175.69</ele>
   </trkpt>
   <trkpt lat="45.772470000000006" lon="4.83699">
    <ele>175.69</ele>
   </trkpt>
   <trkpt lat="45.77243000000001" lon="4.8369800000000005">
    <ele>175.99</ele>
   </trkpt>
   <trkpt lat="45.772400000000005" lon="4.837020000000001">
    <ele>176.23000000000002</ele>
   </trkpt>
   <trkpt lat="45.772310000000004" lon="4.83696">
    <ele>176.39000000000001</ele>
   </trkpt>
   <trkpt lat="45.772110000000005" lon="4.83692">
    <ele>177.13</ele>
   </trkpt>
   <trkpt lat="45.7721" lon="4.83692">
    <ele>177.14000000000001</ele>
   </trkpt>
   <trkpt lat="45.772180000000006" lon="4.836600000000001">
    <ele>183.08</ele>
   </trkpt>
   <trkpt lat="45.772130000000004" lon="4.836480000000001">
    <ele>188.05</ele>
   </trkpt>
   <trkpt lat="45.77215" lon="4.83635">
    <ele>189.15</ele>
   </trkpt>
   <trkpt lat="45.77219" lon="4.8363000000000005">
    <ele>190.19000000000003</ele>
   </trkpt>
   <trkpt lat="45.77226" lon="4.83629">
    <ele>191.92000000000002</ele>
   </trkpt>
   <trkpt lat="45.772380000000005" lon="4.836340000000001">
    <ele>193.94000000000003</ele>
   </trkpt>
   <trkpt lat="45.77239" lon="4.8363000000000005">
    <ele>193.94000000000003</ele>
   </trkpt>
   <trkpt lat="45.77246" lon="4.836340000000001">
    <ele>196.65</ele>
   </trkpt>
   <trkpt lat="45.772470000000006" lon="4.83631">
    <ele>197.22</ele>
   </trkpt>
   <trkpt lat="45.77239" lon="4.836270000000001">
    <ele>201.55</ele>
   </trkpt>
   <trkpt lat="45.772400000000005" lon="4.83624">
    <ele>201.55</ele>
   </trkpt>
   <trkpt lat="45.77248" lon="4.83628">
    <ele>204.34</ele>
   </trkpt>
   <trkpt lat="45.772490000000005" lon="4.836250000000001">
    <ele>204.34</ele>
   </trkpt>
   <trkpt lat="45.77241" lon="4.83621">
    <ele>206.96</ele>
   </trkpt>
   <trkpt lat="45.77241" lon="4.836180000000001">
    <ele>206.96</ele>
   </trkpt>
   <trkpt lat="45.772490000000005" lon="4.83621">
    <ele>209.31000000000003</ele>
   </trkpt>
   <trkpt lat="45.77252000000001" lon="4.836130000000001">
    <ele>209.82</ele>
   </trkpt>
   <trkpt lat="45.772560000000006" lon="4.836150000000001">
    <ele>210.17000000000002</ele>
   </trkpt>
   <trkpt lat="45.77257" lon="4.836110000000001">
    <ele>210.17000000000002</ele>
   </trkpt>
   <trkpt lat="45.77309" lon="4.836410000000001">
    <ele>209.43</ele>
   </trkpt>
   <trkpt lat="45.773350001375334" lon="4.835845002671074">
    <ele>224.31</ele>
   </trkpt>
   <trkpt lat="45.773610000000005" lon="4.83528">
    <ele>240.05</ele>
   </trkpt>
   <trkpt lat="45.77313" lon="4.83485">
    <ele>235.89000000000001</ele>
   </trkpt>
   <trkpt lat="45.773030000000006" lon="4.83471">
    <ele>235.08</ele>
   </trkpt>
   <trkpt lat="45.772920000000006" lon="4.834720000000001">
    <ele>232.91</ele>
   </trkpt>
   <trkpt lat="45.77272000000001" lon="4.834840000000001">
    <ele>229.06</ele>
   </trkpt>
   <trkpt lat="45.772670000000005" lon="4.83488">
    <ele>228.80000000000004</ele>
   </trkpt>
   <trkpt lat="45.77239" lon="4.83504">
    <ele>224.21</ele>
   </trkpt>
   <trkpt lat="45.772310000000004" lon="4.83502">
    <ele>222.28</ele>
   </trkpt>
   <trkpt lat="45.77197" lon="4.835260000000001">
    <ele>216.11</ele>
   </trkpt>
   <trkpt lat="45.77161" lon="4.835660000000001">
    <ele>211.28000000000003</ele>
   </trkpt>
   <trkpt lat="45.77159" lon="4.8356">
    <ele>211.13</ele>
   </trkpt>
   <trkpt lat="45.771550000000005" lon="4.83513">
    <ele>212.74</ele>
   </trkpt>
   <trkpt lat="45.77111000000001" lon="4.83523">
    <ele>211.36</ele>
   </trkpt>
   <trkpt lat="45.77102000000001" lon="4.834300000000001">
    <ele>214.84000000000003</ele>
   </trkpt>
   <trkpt lat="45.770990000000005" lon="4.83427">
    <ele>214.87</ele>
   </trkpt>
   <trkpt lat="45.770970000000005" lon="4.834300000000001">
    <ele>214.87</ele>
   </trkpt>
   <trkpt lat="45.770880000000005" lon="4.83431">
    <ele>214.38000000000002</ele>
   </trkpt>
   <trkpt lat="45.770880000000005" lon="4.8342600000000004">
    <ele>214.38000000000002</ele>
   </trkpt>
   <trkpt lat="45.77069" lon="4.834300000000001">
    <ele>212.95000000000002</ele>
   </trkpt>
   <trkpt lat="45.77064" lon="4.83436">
    <ele>212.57</ele>
   </trkpt>
   <trkpt lat="45.770590000000006" lon="4.834370000000001">
    <ele>212.57</ele>
   </trkpt>
   <trkpt lat="45.770570000000006" lon="4.83412">
    <ele>206.49</ele>
   </trkpt>
   <trkpt lat="45.77047" lon="4.8341400000000005">
    <ele>205.68000000000004</ele>
   </trkpt>
   <trkpt lat="45.770430000000005" lon="4.833880000000001">
    <ele>205.24</ele>
   </trkpt>
   <trkpt lat="45.76990000000001" lon="4.83406">
    <ele>192.04000000000002</ele>
   </trkpt>
   <trkpt lat="45.770010000000006" lon="4.834820000000001">
    <ele>191.35999999999999</ele>
   </trkpt>
   <trkpt lat="45.769200000000005" lon="4.83518">
    <ele>188.12</ele>
   </trkpt>
   <trkpt lat="45.76921" lon="4.8352">
    <ele>188.12</ele>
   </trkpt>
   <trkpt lat="45.76917" lon="4.8352200000000005">
    <ele>187.85000000000002</ele>
   </trkpt>
   <trkpt lat="45.76917" lon="4.8352900000000005">
    <ele>187.85000000000002</ele>
   </trkpt>
   <trkpt lat="45.76953" lon="4.83577">
    <ele>188.87</ele>
   </trkpt>
   <trkpt lat="45.76952000000001" lon="4.835800000000001">
    <ele>188.71</ele>
   </trkpt>
   <trkpt lat="45.76955" lon="4.83584">
    <ele>187.9</ele>
   </trkpt>
   <trkpt lat="45.769540000000006" lon="4.83591">
    <ele>187.9</ele>
   </trkpt>
   <trkpt lat="45.769380000000005" lon="4.836110000000001">
    <ele>187.26000000000002</ele>
   </trkpt>
   <trkpt lat="45.769580000000005" lon="4.8365100000000005">
    <ele>186.85000000000002</ele>
   </trkpt>
   <trkpt lat="45.769380000000005" lon="4.836690000000001">
    <ele>183.86</ele>
   </trkpt>
   <trkpt lat="45.76964" lon="4.837260000000001">
    <ele>179.55</ele>
   </trkpt>
   <trkpt lat="45.76948" lon="4.83734">
    <ele>178.99</ele>
   </trkpt>
   <trkpt lat="45.76914000000001" lon="4.83741">
    <ele>178.13</ele>
   </trkpt>
   <trkpt lat="45.7686149998425" lon="4.837420000097132">
    <ele>177.01</ele>
   </trkpt>
   <trkpt lat="45.76809" lon="4.83743">
    <ele>177.01</ele>
   </trkpt>
   <trkpt lat="45.76805" lon="4.83696">
    <ele>175.14000000000001</ele>
   </trkpt>
   <trkpt lat="45.76764000000001" lon="4.837070000000001">
    <ele>172.81</ele>
   </trkpt>
   <trkpt lat="45.767540000000004" lon="4.83626">
    <ele>173.24</ele>
   </trkpt>
   <trkpt lat="45.767480000000006" lon="4.836010000000001">
    <ele>173.68</ele>
   </trkpt>
   <trkpt lat="45.76765" lon="4.835920000000001">
    <ele>182.49</ele>
   </trkpt>
   <trkpt lat="45.76774" lon="4.835780000000001">
    <ele>182.76</ele>
   </trkpt>
   <trkpt lat="45.76767" lon="4.83474">
    <ele>185.53000000000003</ele>
   </trkpt>
   <trkpt lat="45.76758" lon="4.834250000000001">
    <ele>184.75000000000003</ele>
   </trkpt>
   <trkpt lat="45.76784000000001" lon="4.834180000000001">
    <ele>187.23</ele>
   </trkpt>
   <trkpt lat="45.768240000000006" lon="4.834210000000001">
    <ele>177.73000000000002</ele>
   </trkpt>
   <trkpt lat="45.76818" lon="4.8333200000000005">
    <ele>177.9</ele>
   </trkpt>
   <trkpt lat="45.768150000000006" lon="4.8327100000000005">
    <ele>178.67000000000002</ele>
   </trkpt>
   <trkpt lat="45.76878000000001" lon="4.83265">
    <ele>186.8</ele>
   </trkpt>
   <trkpt lat="45.768730000000005" lon="4.832420000000001">
    <ele>187.7</ele>
   </trkpt>
   <trkpt lat="45.769000000000005" lon="4.83232">
    <ele>187.51000000000002</ele>
   </trkpt>
   <trkpt lat="45.76885" lon="4.831600000000001">
    <ele>183.51</ele>
   </trkpt>
   <trkpt lat="45.76881" lon="4.830620000000001">
    <ele>181.32</ele>
   </trkpt>
   <trkpt lat="45.76877" lon="4.830380000000001">
    <ele>180.57</ele>
   </trkpt>
   <trkpt lat="45.76878000000001" lon="4.83016">
    <ele>180.41000000000003</ele>
   </trkpt>
   <trkpt lat="45.76877" lon="4.82958">
    <ele>178.87</ele>
   </trkpt>
   <trkpt lat="45.76865" lon="4.8291">
    <ele>178.17000000000002</ele>
   </trkpt>
   <trkpt lat="45.768660000000004" lon="4.82903">
    <ele>178.05</ele>
   </trkpt>
   <trkpt lat="45.7685" lon="4.82845">
    <ele>176.38</ele>
   </trkpt>
   <trkpt lat="45.768190000000004" lon="4.8283700000000005">
    <ele>174.29</ele>
   </trkpt>
   <trkpt lat="45.768150000000006" lon="4.82829">
    <ele>174.17000000000002</ele>
   </trkpt>
   <trkpt lat="45.76791" lon="4.82819">
    <ele>170.58</ele>
   </trkpt>
   <trkpt lat="45.76784000000001" lon="4.828130000000001">
    <ele>170.79000000000002</ele>
   </trkpt>
   <trkpt lat="45.767520000000005" lon="4.828720000000001">
    <ele>166.87</ele>
   </trkpt>
   <trkpt lat="45.76747" lon="4.82873">
    <ele>166.23000000000002</ele>
   </trkpt>
   <trkpt lat="45.767320000000005" lon="4.82901">
    <ele>166.38</ele>
   </trkpt>
   <trkpt lat="45.767300000000006" lon="4.8291">
    <ele>166.65</ele>
   </trkpt>
   <trkpt lat="45.76708000000001" lon="4.8295">
    <ele>169.16</ele>
   </trkpt>
   <trkpt lat="45.76682" lon="4.8298700000000006">
    <ele>170.29000000000002</ele>
   </trkpt>
   <trkpt lat="45.766740000000006" lon="4.82993">
    <ele>169.82000000000002</ele>
   </trkpt>
   <trkpt lat="45.76634000000001" lon="4.82883">
    <ele>173.08</ele>
   </trkpt>
   <trkpt lat="45.76633" lon="4.82878">
    <ele>172.89000000000001</ele>
   </trkpt>
   <trkpt lat="45.76639" lon="4.8287">
    <ele>172.78</ele>
   </trkpt>
   <trkpt lat="45.7663" lon="4.82857">
    <ele>173.64000000000001</ele>
   </trkpt>
   <trkpt lat="45.766180000000006" lon="4.828060000000001">
    <ele>175.43</ele>
   </trkpt>
   <trkpt lat="45.766110000000005" lon="4.82763">
    <ele>177.63</ele>
   </trkpt>
   <trkpt lat="45.765980000000006" lon="4.82768">
    <ele>178.11</ele>
   </trkpt>
   <trkpt lat="45.765840000000004" lon="4.82725">
    <ele>180.77</ele>
   </trkpt>
   <trkpt lat="45.76554" lon="4.82728">
    <ele>181.34</ele>
   </trkpt>
   <trkpt lat="45.76532" lon="4.82734">
    <ele>180.81000000000003</ele>
   </trkpt>
   <trkpt lat="45.76514" lon="4.8273600000000005">
    <ele>180.49</ele>
   </trkpt>
   <trkpt lat="45.7646" lon="4.827380000000001">
    <ele>179.66</ele>
   </trkpt>
   <trkpt lat="45.764610000000005" lon="4.827710000000001">
    <ele>178.04</ele>
   </trkpt>
   <trkpt lat="45.76413" lon="4.82774">
    <ele>178.16</ele>
   </trkpt>
   <trkpt lat="45.76390000000001" lon="4.827660000000001">
    <ele>178.42000000000002</ele>
   </trkpt>
   <trkpt lat="45.76389" lon="4.8272900000000005">
    <ele>183.8</ele>
   </trkpt>
   <trkpt lat="45.763960000000004" lon="4.82728">
    <ele>185.18</ele>
   </trkpt>
   <trkpt lat="45.76390000000001" lon="4.82714">
    <ele>189.49</ele>
   </trkpt>
   <trkpt lat="45.763690000000004" lon="4.82695">
    <ele>196.8</ele>
   </trkpt>
   <trkpt lat="45.76375" lon="4.8262">
    <ele>208.51000000000002</ele>
   </trkpt>
   <trkpt lat="45.763470000000005" lon="4.82608">
    <ele>210.44</ele>
   </trkpt>
   <trkpt lat="45.76294" lon="4.82551">
    <ele>220.00000000000003</ele>
   </trkpt>
   <trkpt lat="45.762910000000005" lon="4.82554">
    <ele>220.60000000000002</ele>
   </trkpt>
   <trkpt lat="45.76288" lon="4.82552">
    <ele>220.60000000000002</ele>
   </trkpt>
   <trkpt lat="45.76272" lon="4.825360000000001">
    <ele>220.73000000000002</ele>
   </trkpt>
   <trkpt lat="45.76272" lon="4.82535">
    <ele>220.74</ele>
   </trkpt>
   <trkpt lat="45.76240000000001" lon="4.825830000000001">
    <ele>200.55</ele>
   </trkpt>
   <trkpt lat="45.76225" lon="4.825970000000001">
    <ele>191.16000000000003</ele>
   </trkpt>
   <trkpt lat="45.76211000000001" lon="4.82617">
    <ele>186.29000000000002</ele>
   </trkpt>
   <trkpt lat="45.762060000000005" lon="4.82627">
    <ele>181.93</ele>
   </trkpt>
   <trkpt lat="45.761970000000005" lon="4.826160000000001">
    <ele>181.38</ele>
   </trkpt>
   <trkpt lat="45.76178" lon="4.82664">
    <ele>177.85</ele>
   </trkpt>
   <trkpt lat="45.76159000241034" lon="4.827375002294168">
    <ele>175.24</ele>
   </trkpt>
   <trkpt lat="45.7614" lon="4.828110000000001">
    <ele>172.73000000000002</ele>
   </trkpt>
   <trkpt lat="45.7614" lon="4.828180000000001">
    <ele>172.73000000000002</ele>
   </trkpt>
   <trkpt lat="45.761230000000005" lon="4.8281">
    <ele>173.27</ele>
   </trkpt>
   <trkpt lat="45.761190000000006" lon="4.82805">
    <ele>173.27</ele>
   </trkpt>
   <trkpt lat="45.761010000000006" lon="4.8280400000000006">
    <ele>173.1</ele>
   </trkpt>
   <trkpt lat="45.76098" lon="4.828060000000001">
    <ele>173.05</ele>
   </trkpt>
   <trkpt lat="45.760720000000006" lon="4.82805">
    <ele>173.08</ele>
   </trkpt>
   <trkpt lat="45.760760000000005" lon="4.827990000000001">
    <ele>173.08</ele>
   </trkpt>
   <trkpt lat="45.76088" lon="4.8279000000000005">
    <ele>173.3</ele>
   </trkpt>
   <trkpt lat="45.76093" lon="4.82774">
    <ele>173.46</ele>
   </trkpt>
   <trkpt lat="45.761010000000006" lon="4.82779">
    <ele>173.74</ele>
   </trkpt>
   <trkpt lat="45.761050000000004" lon="4.82765">
    <ele>174.11</ele>
   </trkpt>
   <trkpt lat="45.76108000000001" lon="4.82767">
    <ele>174.11</ele>
   </trkpt>
   <trkpt lat="45.76111" lon="4.82753">
    <ele>174.65000000000003</ele>
   </trkpt>
   <trkpt lat="45.76099000000001" lon="4.82746">
    <ele>175.08</ele>
   </trkpt>
   <trkpt lat="45.761100000000006" lon="4.82702">
    <ele>176.61</ele>
   </trkpt>
   <trkpt lat="45.76104" lon="4.826960000000001">
    <ele>176.61</ele>
   </trkpt>
   <trkpt lat="45.76090000000001" lon="4.82688">
    <ele>176.42000000000002</ele>
   </trkpt>
  </trkseg>
 </trk>
</gpx>
