<?xml version="1.0" encoding="UTF-8"?>
<gpx creator="StravaGPX" version="1.1" xmlns="http://www.topografix.com/GPX/1/1" xmlns:xsi="http://www.w3.org/2001/XMLSchema-instance" xsi:schemaLocation="http://www.topografix.com/GPX/1/1 http://www.topografix.com/GPX/1/1/gpx.xsd">
 <metadata>
  <name>25KM - Lyon Urban Trail </name>
  <author>
   <name>Extra Sports</name>
   <link href="https://www.strava.com/athletes/11120461"/>
  </author>
  <copyright author="OpenStreetMap contributors">
   <year>2020</year>
   <license>https://www.openstreetmap.org/copyright</license>
  </copyright>
  <link href="https://www.strava.com/routes/3337341061551344854"/>
 </metadata>
 <trk>
  <name>25KM - Lyon Urban Trail </name>
  <link href="https://www.strava.com/routes/3337341061551344854"/>
  <type>trail_running</type>
  <trkseg>
   <trkpt lat="45.761860000000006" lon="4.826110000000001">
    <ele>180.52</ele>
   </trkpt>
   <trkpt lat="45.761970000000005" lon="4.826160000000001">
    <ele>181.38</ele>
   </trkpt>
   <trkpt lat="45.76203" lon="4.826020000000001">
    <ele>181.38</ele>
   </trkpt>
   <trkpt lat="45.762040000000006" lon="4.82594">
    <ele>184.4</ele>
   </trkpt>
   <trkpt lat="45.76202000000001" lon="4.82585">
    <ele>184.4</ele>
   </trkpt>
   <trkpt lat="45.761860000000006" lon="4.82563">
    <ele>187.31</ele>
   </trkpt>
   <trkpt lat="45.76158" lon="4.82535">
    <ele>189.82000000000002</ele>
   </trkpt>
   <trkpt lat="45.76118" lon="4.825080000000001">
    <ele>199.5</ele>
   </trkpt>
   <trkpt lat="45.76073" lon="4.8249">
    <ele>205.37000000000003</ele>
   </trkpt>
   <trkpt lat="45.76012" lon="4.8246">
    <ele>214.14000000000001</ele>
   </trkpt>
   <trkpt lat="45.75983" lon="4.824400000000001">
    <ele>220.46</ele>
   </trkpt>
   <trkpt lat="45.75932" lon="4.82418">
    <ele>226.12</ele>
   </trkpt>
   <trkpt lat="45.75909" lon="4.82406">
    <ele>228.55000000000004</ele>
   </trkpt>
   <trkpt lat="45.758720000000004" lon="4.823740000000001">
    <ele>233.39000000000001</ele>
   </trkpt>
   <trkpt lat="45.758660000000006" lon="4.823670000000001">
    <ele>233.39000000000001</ele>
   </trkpt>
   <trkpt lat="45.758570000000006" lon="4.82347">
    <ele>234.62</ele>
   </trkpt>
   <trkpt lat="45.75840000184442" lon="4.822819998025644">
    <ele>238.43000000000004</ele>
   </trkpt>
   <trkpt lat="45.758230000000005" lon="4.822170000000001">
    <ele>241.62000000000003</ele>
   </trkpt>
   <trkpt lat="45.75817000000001" lon="4.8220600000000005">
    <ele>241.77</ele>
   </trkpt>
   <trkpt lat="45.75822" lon="4.82195">
    <ele>242.54000000000002</ele>
   </trkpt>
   <trkpt lat="45.75826000000001" lon="4.82193">
    <ele>242.92000000000002</ele>
   </trkpt>
   <trkpt lat="45.75831" lon="4.82195">
    <ele>242.92000000000002</ele>
   </trkpt>
   <trkpt lat="45.75835000000001" lon="4.822">
    <ele>243.39000000000001</ele>
   </trkpt>
   <trkpt lat="45.75838" lon="4.822100000000001">
    <ele>243.68</ele>
   </trkpt>
   <trkpt lat="45.75869" lon="4.82221">
    <ele>248.43</ele>
   </trkpt>
   <trkpt lat="45.75876" lon="4.822240000000001">
    <ele>249.65</ele>
   </trkpt>
   <trkpt lat="45.75894" lon="4.82228">
    <ele>254.04000000000005</ele>
   </trkpt>
   <trkpt lat="45.759060000000005" lon="4.82151">
    <ele>257.74</ele>
   </trkpt>
   <trkpt lat="45.75907" lon="4.821420000000001">
    <ele>257.74</ele>
   </trkpt>
   <trkpt lat="45.75911000000001" lon="4.821350000000001">
    <ele>258.19</ele>
   </trkpt>
   <trkpt lat="45.75918" lon="4.82017">
    <ele>264.87</ele>
   </trkpt>
   <trkpt lat="45.759220000000006" lon="4.820010000000001">
    <ele>264.87</ele>
   </trkpt>
   <trkpt lat="45.76005000000001" lon="4.8203700000000005">
    <ele>266.41</ele>
   </trkpt>
   <trkpt lat="45.75999" lon="4.820620000000001">
    <ele>266.71</ele>
   </trkpt>
   <trkpt lat="45.7599" lon="4.82059">
    <ele>266.96000000000004</ele>
   </trkpt>
   <trkpt lat="45.75986" lon="4.8211">
    <ele>267.12</ele>
   </trkpt>
   <trkpt lat="45.759690000000006" lon="4.82164">
    <ele>263.27</ele>
   </trkpt>
   <trkpt lat="45.759620000000005" lon="4.82171">
    <ele>263.27</ele>
   </trkpt>
   <trkpt lat="45.759780000000006" lon="4.82239">
    <ele>267.93</ele>
   </trkpt>
   <trkpt lat="45.75983" lon="4.8224800000000005">
    <ele>268.24</ele>
   </trkpt>
   <trkpt lat="45.759930000000004" lon="4.82254">
    <ele>268.8</ele>
   </trkpt>
   <trkpt lat="45.760270000000006" lon="4.822590000000001">
    <ele>272.33</ele>
   </trkpt>
   <trkpt lat="45.760290000000005" lon="4.82282">
    <ele>273.07000000000005</ele>
   </trkpt>
   <trkpt lat="45.76037" lon="4.8230900000000005">
    <ele>272.8</ele>
   </trkpt>
   <trkpt lat="45.760690000000004" lon="4.82355">
    <ele>266.66</ele>
   </trkpt>
   <trkpt lat="45.76095" lon="4.82364">
    <ele>264.1</ele>
   </trkpt>
   <trkpt lat="45.761070000000004" lon="4.823650000000001">
    <ele>263.73</ele>
   </trkpt>
   <trkpt lat="45.761190000000006" lon="4.823600000000001">
    <ele>263.59000000000003</ele>
   </trkpt>
   <trkpt lat="45.76122" lon="4.82364">
    <ele>263.59000000000003</ele>
   </trkpt>
   <trkpt lat="45.761720000000004" lon="4.823600000000001">
    <ele>261.43</ele>
   </trkpt>
   <trkpt lat="45.762240000000006" lon="4.82364">
    <ele>259.61</ele>
   </trkpt>
   <trkpt lat="45.76279" lon="4.823790000000001">
    <ele>263.88</ele>
   </trkpt>
   <trkpt lat="45.762800000000006" lon="4.82371">
    <ele>267.55</ele>
   </trkpt>
   <trkpt lat="45.76256" lon="4.82355">
    <ele>268.94</ele>
   </trkpt>
   <trkpt lat="45.76258000000001" lon="4.8233500000000005">
    <ele>275.26</ele>
   </trkpt>
   <trkpt lat="45.762910000000005" lon="4.8234">
    <ele>280.21000000000004</ele>
   </trkpt>
   <trkpt lat="45.76292" lon="4.82333">
    <ele>280.28000000000003</ele>
   </trkpt>
   <trkpt lat="45.762480000000004" lon="4.823040000000001">
    <ele>290.65000000000003</ele>
   </trkpt>
   <trkpt lat="45.76243" lon="4.822970000000001">
    <ele>290.65000000000003</ele>
   </trkpt>
   <trkpt lat="45.76243" lon="4.82291">
    <ele>291.44000000000005</ele>
   </trkpt>
   <trkpt lat="45.762600000000006" lon="4.82293">
    <ele>295.50000000000006</ele>
   </trkpt>
   <trkpt lat="45.76268" lon="4.822100000000001">
    <ele>295.43</ele>
   </trkpt>
   <trkpt lat="45.763180000000006" lon="4.82219">
    <ele>294.09000000000003</ele>
   </trkpt>
   <trkpt lat="45.763720000000006" lon="4.822240000000001">
    <ele>291.53000000000003</ele>
   </trkpt>
   <trkpt lat="45.76375" lon="4.8222700000000005">
    <ele>291.09000000000003</ele>
   </trkpt>
   <trkpt lat="45.763830000000006" lon="4.822690000000001">
    <ele>290.03000000000003</ele>
   </trkpt>
   <trkpt lat="45.764100000000006" lon="4.82261">
    <ele>286.73</ele>
   </trkpt>
   <trkpt lat="45.764430000000004" lon="4.8227400000000005">
    <ele>280.93</ele>
   </trkpt>
   <trkpt lat="45.76467" lon="4.82293">
    <ele>270.05</ele>
   </trkpt>
   <trkpt lat="45.7653" lon="4.823720000000001">
    <ele>246.38000000000002</ele>
   </trkpt>
   <trkpt lat="45.76577" lon="4.8241700000000005">
    <ele>228.64000000000001</ele>
   </trkpt>
   <trkpt lat="45.76603" lon="4.82451">
    <ele>221.36</ele>
   </trkpt>
   <trkpt lat="45.76615" lon="4.82455">
    <ele>217.13000000000002</ele>
   </trkpt>
   <trkpt lat="45.766200000000005" lon="4.824050000000001">
    <ele>217.01</ele>
   </trkpt>
   <trkpt lat="45.76612" lon="4.82376">
    <ele>217.92000000000002</ele>
   </trkpt>
   <trkpt lat="45.76628" lon="4.82289">
    <ele>219.47000000000003</ele>
   </trkpt>
   <trkpt lat="45.76628" lon="4.822360000000001">
    <ele>219.78000000000003</ele>
   </trkpt>
   <trkpt lat="45.76634000000001" lon="4.82178">
    <ele>220.89000000000001</ele>
   </trkpt>
   <trkpt lat="45.76634000000001" lon="4.821630000000001">
    <ele>220.89000000000001</ele>
   </trkpt>
   <trkpt lat="45.76632" lon="4.82157">
    <ele>221.14000000000001</ele>
   </trkpt>
   <trkpt lat="45.76619" lon="4.82136">
    <ele>221.35000000000002</ele>
   </trkpt>
   <trkpt lat="45.766070000000006" lon="4.82127">
    <ele>221.50000000000003</ele>
   </trkpt>
   <trkpt lat="45.765800000000006" lon="4.82122">
    <ele>221.36</ele>
   </trkpt>
   <trkpt lat="45.765660000000004" lon="4.821160000000001">
    <ele>221.11</ele>
   </trkpt>
   <trkpt lat="45.76554" lon="4.82106">
    <ele>220.38000000000002</ele>
   </trkpt>
   <trkpt lat="45.76502000000001" lon="4.820250000000001">
    <ele>212.53000000000003</ele>
   </trkpt>
   <trkpt lat="45.76498" lon="4.820150000000001">
    <ele>212.53000000000003</ele>
   </trkpt>
   <trkpt lat="45.764920000000004" lon="4.820180000000001">
    <ele>213.35</ele>
   </trkpt>
   <trkpt lat="45.764790000000005" lon="4.8200400000000005">
    <ele>214.91000000000003</ele>
   </trkpt>
   <trkpt lat="45.76464000000001" lon="4.81965">
    <ele>219.52</ele>
   </trkpt>
   <trkpt lat="45.764140000000005" lon="4.819990000000001">
    <ele>241.46</ele>
   </trkpt>
   <trkpt lat="45.76408000000001" lon="4.82029">
    <ele>244.73000000000002</ele>
   </trkpt>
   <trkpt lat="45.76388" lon="4.82043">
    <ele>251.53000000000003</ele>
   </trkpt>
   <trkpt lat="45.763960000000004" lon="4.820930000000001">
    <ele>255.03000000000003</ele>
   </trkpt>
   <trkpt lat="45.763920000000006" lon="4.8211">
    <ele>259.01</ele>
   </trkpt>
   <trkpt lat="45.763830000000006" lon="4.82099">
    <ele>260.57</ele>
   </trkpt>
   <trkpt lat="45.76382" lon="4.82078">
    <ele>257.40000000000003</ele>
   </trkpt>
   <trkpt lat="45.76371" lon="4.82064">
    <ele>259.38</ele>
   </trkpt>
   <trkpt lat="45.763600000000004" lon="4.820320000000001">
    <ele>259.8</ele>
   </trkpt>
   <trkpt lat="45.76353" lon="4.819870000000001">
    <ele>259.44</ele>
   </trkpt>
   <trkpt lat="45.763740000000006" lon="4.818790000000001">
    <ele>254.67000000000002</ele>
   </trkpt>
   <trkpt lat="45.76388" lon="4.81777">
    <ele>255.0</ele>
   </trkpt>
   <trkpt lat="45.763980000000004" lon="4.81728">
    <ele>255.54000000000005</ele>
   </trkpt>
   <trkpt lat="45.764050000000005" lon="4.817100000000001">
    <ele>255.01000000000002</ele>
   </trkpt>
   <trkpt lat="45.764210000000006" lon="4.817080000000001">
    <ele>249.91000000000003</ele>
   </trkpt>
   <trkpt lat="45.76428000000001" lon="4.81719">
    <ele>247.58</ele>
   </trkpt>
   <trkpt lat="45.764230000000005" lon="4.81731">
    <ele>247.46</ele>
   </trkpt>
   <trkpt lat="45.76424" lon="4.817900000000001">
    <ele>242.55</ele>
   </trkpt>
   <trkpt lat="45.76438" lon="4.81845">
    <ele>232.82000000000002</ele>
   </trkpt>
   <trkpt lat="45.76447" lon="4.81827">
    <ele>230.8</ele>
   </trkpt>
   <trkpt lat="45.764500000000005" lon="4.81792">
    <ele>232.84</ele>
   </trkpt>
   <trkpt lat="45.76458" lon="4.81763">
    <ele>233.77</ele>
   </trkpt>
   <trkpt lat="45.76491" lon="4.81782">
    <ele>220.36</ele>
   </trkpt>
   <trkpt lat="45.764970000000005" lon="4.817970000000001">
    <ele>216.02</ele>
   </trkpt>
   <trkpt lat="45.76521" lon="4.817760000000001">
    <ele>216.51</ele>
   </trkpt>
   <trkpt lat="45.76527" lon="4.8177900000000005">
    <ele>216.51</ele>
   </trkpt>
   <trkpt lat="45.76541" lon="4.817430000000001">
    <ele>215.82</ele>
   </trkpt>
   <trkpt lat="45.765600000000006" lon="4.8171100000000004">
    <ele>216.85000000000002</ele>
   </trkpt>
   <trkpt lat="45.76554" lon="4.81704">
    <ele>217.57000000000002</ele>
   </trkpt>
   <trkpt lat="45.765370000000004" lon="4.81733">
    <ele>219.46</ele>
   </trkpt>
   <trkpt lat="45.76534" lon="4.817290000000001">
    <ele>219.46</ele>
   </trkpt>
   <trkpt lat="45.7655" lon="4.817">
    <ele>221.06</ele>
   </trkpt>
   <trkpt lat="45.76527" lon="4.81681">
    <ele>222.75000000000003</ele>
   </trkpt>
   <trkpt lat="45.76522000000001" lon="4.8169">
    <ele>223.78</ele>
   </trkpt>
   <trkpt lat="45.765130000000006" lon="4.81676">
    <ele>226.35000000000002</ele>
   </trkpt>
   <trkpt lat="45.765040000000006" lon="4.816680000000001">
    <ele>229.5</ele>
   </trkpt>
   <trkpt lat="45.76484000000001" lon="4.816450000000001">
    <ele>235.5</ele>
   </trkpt>
   <trkpt lat="45.76438" lon="4.8160300000000005">
    <ele>246.01</ele>
   </trkpt>
   <trkpt lat="45.76413" lon="4.815860000000001">
    <ele>258.17</ele>
   </trkpt>
   <trkpt lat="45.763980000000004" lon="4.81583">
    <ele>264.01</ele>
   </trkpt>
   <trkpt lat="45.76390000000001" lon="4.8157700000000006">
    <ele>266.56</ele>
   </trkpt>
   <trkpt lat="45.763830000000006" lon="4.815650000000001">
    <ele>271.12</ele>
   </trkpt>
   <trkpt lat="45.7638" lon="4.815510000000001">
    <ele>271.12</ele>
   </trkpt>
   <trkpt lat="45.76379" lon="4.81536">
    <ele>273.44</ele>
   </trkpt>
   <trkpt lat="45.76371" lon="4.815">
    <ele>281.86</ele>
   </trkpt>
   <trkpt lat="45.763510000000004" lon="4.81519">
    <ele>282.94</ele>
   </trkpt>
   <trkpt lat="45.76342" lon="4.81521">
    <ele>283.39000000000004</ele>
   </trkpt>
   <trkpt lat="45.763220000000004" lon="4.814970000000001">
    <ele>285.55</ele>
   </trkpt>
   <trkpt lat="45.763130000000004" lon="4.814690000000001">
    <ele>287.90999999999997</ele>
   </trkpt>
   <trkpt lat="45.76301" lon="4.81416">
    <ele>290.54</ele>
   </trkpt>
   <trkpt lat="45.76292" lon="4.813470000000001">
    <ele>290.50000000000006</ele>
   </trkpt>
   <trkpt lat="45.76294" lon="4.81346">
    <ele>290.50000000000006</ele>
   </trkpt>
   <trkpt lat="45.762890000000006" lon="4.8131200000000005">
    <ele>290.00000000000006</ele>
   </trkpt>
   <trkpt lat="45.762890000000006" lon="4.81313">
    <ele>290.00000000000006</ele>
   </trkpt>
   <trkpt lat="45.7629" lon="4.8131">
    <ele>289.90999999999997</ele>
   </trkpt>
   <trkpt lat="45.762930000000004" lon="4.813090000000001">
    <ele>289.73</ele>
   </trkpt>
   <trkpt lat="45.76308" lon="4.8131200000000005">
    <ele>289.09000000000003</ele>
   </trkpt>
   <trkpt lat="45.76308" lon="4.81308">
    <ele>289.05</ele>
   </trkpt>
   <trkpt lat="45.76371" lon="4.81325">
    <ele>284.29</ele>
   </trkpt>
   <trkpt lat="45.763920000000006" lon="4.812930000000001">
    <ele>281.87</ele>
   </trkpt>
   <trkpt lat="45.764190000000006" lon="4.81273">
    <ele>278.06</ele>
   </trkpt>
   <trkpt lat="45.764700000000005" lon="4.8120400000000005">
    <ele>273.17</ele>
   </trkpt>
   <trkpt lat="45.76483" lon="4.811710000000001">
    <ele>271.77</ele>
   </trkpt>
   <trkpt lat="45.765190000000004" lon="4.8106800000000005">
    <ele>265.73</ele>
   </trkpt>
   <trkpt lat="45.76592" lon="4.80996">
    <ele>258.68</ele>
   </trkpt>
   <trkpt lat="45.76672000000001" lon="4.80947">
    <ele>251.29000000000002</ele>
   </trkpt>
   <trkpt lat="45.76684" lon="4.80942">
    <ele>251.29000000000002</ele>
   </trkpt>
   <trkpt lat="45.767030000000005" lon="4.809410000000001">
    <ele>249.56000000000003</ele>
   </trkpt>
   <trkpt lat="45.767320000000005" lon="4.80919">
    <ele>249.54000000000002</ele>
   </trkpt>
   <trkpt lat="45.76746000000001" lon="4.80911">
    <ele>251.35000000000002</ele>
   </trkpt>
   <trkpt lat="45.767480000000006" lon="4.80904">
    <ele>251.76000000000005</ele>
   </trkpt>
   <trkpt lat="45.76747" lon="4.8089900000000005">
    <ele>252.13000000000002</ele>
   </trkpt>
   <trkpt lat="45.76751" lon="4.80891">
    <ele>251.81000000000003</ele>
   </trkpt>
   <trkpt lat="45.76756" lon="4.808890000000001">
    <ele>250.52</ele>
   </trkpt>
   <trkpt lat="45.76765" lon="4.808890000000001">
    <ele>249.41000000000003</ele>
   </trkpt>
   <trkpt lat="45.76771" lon="4.80893">
    <ele>246.79</ele>
   </trkpt>
   <trkpt lat="45.768260000000005" lon="4.80895">
    <ele>239.61</ele>
   </trkpt>
   <trkpt lat="45.76891500002543" lon="4.809009999296315">
    <ele>232.79000000000002</ele>
   </trkpt>
   <trkpt lat="45.76957" lon="4.80907">
    <ele>227.46</ele>
   </trkpt>
   <trkpt lat="45.76968" lon="4.809150000000001">
    <ele>225.17000000000002</ele>
   </trkpt>
   <trkpt lat="45.769740000000006" lon="4.809030000000001">
    <ele>221.68</ele>
   </trkpt>
   <trkpt lat="45.770030000000006" lon="4.80905">
    <ele>217.46</ele>
   </trkpt>
   <trkpt lat="45.770210000000006" lon="4.809030000000001">
    <ele>214.46</ele>
   </trkpt>
   <trkpt lat="45.770450000000004" lon="4.8089200000000005">
    <ele>208.05</ele>
   </trkpt>
   <trkpt lat="45.77074" lon="4.80893">
    <ele>199.95000000000002</ele>
   </trkpt>
   <trkpt lat="45.771040000000006" lon="4.808800000000001">
    <ele>193.26000000000002</ele>
   </trkpt>
   <trkpt lat="45.771080000000005" lon="4.80883">
    <ele>193.05</ele>
   </trkpt>
   <trkpt lat="45.77105" lon="4.8089900000000005">
    <ele>192.86</ele>
   </trkpt>
   <trkpt lat="45.771080000000005" lon="4.80912">
    <ele>193.03</ele>
   </trkpt>
   <trkpt lat="45.77116" lon="4.80923">
    <ele>193.57000000000002</ele>
   </trkpt>
   <trkpt lat="45.77176" lon="4.80937">
    <ele>196.69</ele>
   </trkpt>
   <trkpt lat="45.772130000000004" lon="4.809270000000001">
    <ele>199.26000000000002</ele>
   </trkpt>
   <trkpt lat="45.772200000000005" lon="4.80933">
    <ele>202.40000000000003</ele>
   </trkpt>
   <trkpt lat="45.77221" lon="4.80937">
    <ele>202.40000000000003</ele>
   </trkpt>
   <trkpt lat="45.772220000000004" lon="4.80938">
    <ele>202.40000000000003</ele>
   </trkpt>
   <trkpt lat="45.772220000000004" lon="4.80945">
    <ele>204.72</ele>
   </trkpt>
   <trkpt lat="45.77219" lon="4.8095300000000005">
    <ele>205.75</ele>
   </trkpt>
   <trkpt lat="45.77207000000001" lon="4.80968">
    <ele>208.18</ele>
   </trkpt>
   <trkpt lat="45.77128000008274" lon="4.809534997944516">
    <ele>214.04</ele>
   </trkpt>
   <trkpt lat="45.77049" lon="4.8093900000000005">
    <ele>218.63000000000002</ele>
   </trkpt>
   <trkpt lat="45.77" lon="4.80914">
    <ele>221.59</ele>
   </trkpt>
   <trkpt lat="45.76990000000001" lon="4.80919">
    <ele>222.53</ele>
   </trkpt>
   <trkpt lat="45.769870000000004" lon="4.80926">
    <ele>222.53</ele>
   </trkpt>
   <trkpt lat="45.769870000000004" lon="4.8093900000000005">
    <ele>223.52</ele>
   </trkpt>
   <trkpt lat="45.77004" lon="4.80973">
    <ele>225.84</ele>
   </trkpt>
   <trkpt lat="45.770050000000005" lon="4.8098600000000005">
    <ele>225.84</ele>
   </trkpt>
   <trkpt lat="45.770010000000006" lon="4.8099300000000005">
    <ele>225.84</ele>
   </trkpt>
   <trkpt lat="45.769940000000005" lon="4.80999">
    <ele>226.87</ele>
   </trkpt>
   <trkpt lat="45.769560000000006" lon="4.81005">
    <ele>229.18</ele>
   </trkpt>
   <trkpt lat="45.769360000000006" lon="4.81005">
    <ele>230.73000000000002</ele>
   </trkpt>
   <trkpt lat="45.769290000000005" lon="4.81001">
    <ele>231.32000000000002</ele>
   </trkpt>
   <trkpt lat="45.76923" lon="4.81019">
    <ele>231.11</ele>
   </trkpt>
   <trkpt lat="45.769130000000004" lon="4.81027">
    <ele>230.53</ele>
   </trkpt>
   <trkpt lat="45.769000000000005" lon="4.81029">
    <ele>229.96</ele>
   </trkpt>
   <trkpt lat="45.768930000000005" lon="4.8102800000000006">
    <ele>228.98000000000002</ele>
   </trkpt>
   <trkpt lat="45.768710000000006" lon="4.810160000000001">
    <ele>227.59</ele>
   </trkpt>
   <trkpt lat="45.768510000000006" lon="4.8101400000000005">
    <ele>225.56</ele>
   </trkpt>
   <trkpt lat="45.76834" lon="4.8102">
    <ele>225.56</ele>
   </trkpt>
   <trkpt lat="45.767915000250056" lon="4.810435001785432">
    <ele>221.86</ele>
   </trkpt>
   <trkpt lat="45.76749" lon="4.81067">
    <ele>217.66000000000003</ele>
   </trkpt>
   <trkpt lat="45.7674" lon="4.8107500000000005">
    <ele>216.82000000000002</ele>
   </trkpt>
   <trkpt lat="45.766890000000004" lon="4.811260000000001">
    <ele>210.32</ele>
   </trkpt>
   <trkpt lat="45.76679" lon="4.81139">
    <ele>210.32</ele>
   </trkpt>
   <trkpt lat="45.766780000000004" lon="4.811400000000001">
    <ele>210.32</ele>
   </trkpt>
   <trkpt lat="45.76675" lon="4.81153">
    <ele>209.91</ele>
   </trkpt>
   <trkpt lat="45.766760000000005" lon="4.81179">
    <ele>207.64000000000001</ele>
   </trkpt>
   <trkpt lat="45.76681000000001" lon="4.811920000000001">
    <ele>207.64000000000001</ele>
   </trkpt>
   <trkpt lat="45.76695" lon="4.8120400000000005">
    <ele>205.44</ele>
   </trkpt>
   <trkpt lat="45.76706" lon="4.8120400000000005">
    <ele>205.44</ele>
   </trkpt>
   <trkpt lat="45.76711" lon="4.812010000000001">
    <ele>203.51000000000002</ele>
   </trkpt>
   <trkpt lat="45.76715" lon="4.811940000000001">
    <ele>203.51000000000002</ele>
   </trkpt>
   <trkpt lat="45.76719000000001" lon="4.811780000000001">
    <ele>202.78</ele>
   </trkpt>
   <trkpt lat="45.767210000000006" lon="4.811520000000001">
    <ele>201.01000000000002</ele>
   </trkpt>
   <trkpt lat="45.76727" lon="4.81139">
    <ele>199.85000000000002</ele>
   </trkpt>
   <trkpt lat="45.76731" lon="4.81135">
    <ele>199.85000000000002</ele>
   </trkpt>
   <trkpt lat="45.76776500028858" lon="4.8111800013259645">
    <ele>194.73000000000002</ele>
   </trkpt>
   <trkpt lat="45.76822000000001" lon="4.8110100000000005">
    <ele>191.87</ele>
   </trkpt>
   <trkpt lat="45.768280000000004" lon="4.8110100000000005">
    <ele>190.72000000000003</ele>
   </trkpt>
   <trkpt lat="45.76832" lon="4.81104">
    <ele>190.72000000000003</ele>
   </trkpt>
   <trkpt lat="45.76836" lon="4.81116">
    <ele>189.91000000000003</ele>
   </trkpt>
   <trkpt lat="45.768350000000005" lon="4.81123">
    <ele>189.91000000000003</ele>
   </trkpt>
   <trkpt lat="45.76827" lon="4.81137">
    <ele>188.09</ele>
   </trkpt>
   <trkpt lat="45.768060000000006" lon="4.81155">
    <ele>186.87</ele>
   </trkpt>
   <trkpt lat="45.76753" lon="4.8119000000000005">
    <ele>181.66000000000003</ele>
   </trkpt>
   <trkpt lat="45.767410000000005" lon="4.81203">
    <ele>180.13</ele>
   </trkpt>
   <trkpt lat="45.76735" lon="4.81231">
    <ele>178.50000000000003</ele>
   </trkpt>
   <trkpt lat="45.76735" lon="4.812390000000001">
    <ele>178.50000000000003</ele>
   </trkpt>
   <trkpt lat="45.76744" lon="4.8126500000000005">
    <ele>176.39000000000001</ele>
   </trkpt>
   <trkpt lat="45.76787" lon="4.8131200000000005">
    <ele>171.73000000000002</ele>
   </trkpt>
   <trkpt lat="45.768130000000006" lon="4.8129100000000005">
    <ele>170.93000000000004</ele>
   </trkpt>
   <trkpt lat="45.76818" lon="4.8129100000000005">
    <ele>170.69</ele>
   </trkpt>
   <trkpt lat="45.76823" lon="4.81294">
    <ele>170.69</ele>
   </trkpt>
   <trkpt lat="45.768350000000005" lon="4.812860000000001">
    <ele>170.69</ele>
   </trkpt>
   <trkpt lat="45.768530000000005" lon="4.81278">
    <ele>170.58</ele>
   </trkpt>
   <trkpt lat="45.76872" lon="4.8127200000000006">
    <ele>170.58</ele>
   </trkpt>
   <trkpt lat="45.768660000000004" lon="4.8119700000000005">
    <ele>183.25000000000003</ele>
   </trkpt>
   <trkpt lat="45.76896000000001" lon="4.81174">
    <ele>183.49</ele>
   </trkpt>
   <trkpt lat="45.769020000000005" lon="4.811470000000001">
    <ele>189.00000000000003</ele>
   </trkpt>
   <trkpt lat="45.76915" lon="4.81151">
    <ele>187.57000000000002</ele>
   </trkpt>
   <trkpt lat="45.76917" lon="4.8117">
    <ele>183.48</ele>
   </trkpt>
   <trkpt lat="45.76941" lon="4.81168">
    <ele>182.89000000000001</ele>
   </trkpt>
   <trkpt lat="45.769490000000005" lon="4.8125800000000005">
    <ele>161.02</ele>
   </trkpt>
   <trkpt lat="45.76997" lon="4.81247">
    <ele>172.13</ele>
   </trkpt>
   <trkpt lat="45.769980000000004" lon="4.81247">
    <ele>172.14000000000001</ele>
   </trkpt>
   <trkpt lat="45.76999000000001" lon="4.81271">
    <ele>172.78</ele>
   </trkpt>
   <trkpt lat="45.770160000000004" lon="4.813770000000001">
    <ele>174.27</ele>
   </trkpt>
   <trkpt lat="45.770160000000004" lon="4.81404">
    <ele>173.62000000000003</ele>
   </trkpt>
   <trkpt lat="45.770140000000005" lon="4.81409">
    <ele>173.33</ele>
   </trkpt>
   <trkpt lat="45.770050000000005" lon="4.814240000000001">
    <ele>172.46</ele>
   </trkpt>
   <trkpt lat="45.769510000000004" lon="4.8145500000000006">
    <ele>171.55</ele>
   </trkpt>
   <trkpt lat="45.769470000000005" lon="4.8144">
    <ele>170.32000000000002</ele>
   </trkpt>
   <trkpt lat="45.76892" lon="4.81473">
    <ele>165.64000000000001</ele>
   </trkpt>
   <trkpt lat="45.76888" lon="4.8146700000000004">
    <ele>165.54000000000002</ele>
   </trkpt>
   <trkpt lat="45.76865" lon="4.814850000000001">
    <ele>165.55</ele>
   </trkpt>
   <trkpt lat="45.768510000000006" lon="4.81498">
    <ele>165.52</ele>
   </trkpt>
   <trkpt lat="45.76823" lon="4.81538">
    <ele>165.48000000000002</ele>
   </trkpt>
   <trkpt lat="45.76796" lon="4.81595">
    <ele>165.5</ele>
   </trkpt>
   <trkpt lat="45.7677800020044" lon="4.816630002241418">
    <ele>165.49</ele>
   </trkpt>
   <trkpt lat="45.7676" lon="4.81731">
    <ele>165.49</ele>
   </trkpt>
   <trkpt lat="45.76751" lon="4.81787">
    <ele>165.42000000000002</ele>
   </trkpt>
   <trkpt lat="45.767540000000004" lon="4.81792">
    <ele>165.42000000000002</ele>
   </trkpt>
   <trkpt lat="45.767480000000006" lon="4.818370000000001">
    <ele>167.26000000000002</ele>
   </trkpt>
   <trkpt lat="45.767480000000006" lon="4.81853">
    <ele>167.59</ele>
   </trkpt>
   <trkpt lat="45.767610000000005" lon="4.81853">
    <ele>170.11</ele>
   </trkpt>
   <trkpt lat="45.76765" lon="4.81902">
    <ele>170.22</ele>
   </trkpt>
   <trkpt lat="45.76821" lon="4.818980000000001">
    <ele>172.99</ele>
   </trkpt>
   <trkpt lat="45.76829" lon="4.81899">
    <ele>175.77</ele>
   </trkpt>
   <trkpt lat="45.7683" lon="4.818960000000001">
    <ele>175.77</ele>
   </trkpt>
   <trkpt lat="45.76845" lon="4.81899">
    <ele>184.66000000000003</ele>
   </trkpt>
   <trkpt lat="45.768460000000005" lon="4.818960000000001">
    <ele>184.66000000000003</ele>
   </trkpt>
   <trkpt lat="45.768480000000004" lon="4.81897">
    <ele>184.66000000000003</ele>
   </trkpt>
   <trkpt lat="45.76845" lon="4.81953">
    <ele>197.4</ele>
   </trkpt>
   <trkpt lat="45.768510000000006" lon="4.819540000000001">
    <ele>199.3</ele>
   </trkpt>
   <trkpt lat="45.768530000000005" lon="4.819540000000001">
    <ele>199.3</ele>
   </trkpt>
   <trkpt lat="45.76859" lon="4.819450000000001">
    <ele>202.56</ele>
   </trkpt>
   <trkpt lat="45.76881" lon="4.81934">
    <ele>213.63000000000002</ele>
   </trkpt>
   <trkpt lat="45.76879" lon="4.81916">
    <ele>213.86</ele>
   </trkpt>
   <trkpt lat="45.76887000000001" lon="4.818650000000001">
    <ele>214.68</ele>
   </trkpt>
   <trkpt lat="45.76894" lon="4.81867">
    <ele>214.68</ele>
   </trkpt>
   <trkpt lat="45.769055002438314" lon="4.817915001871719">
    <ele>214.54</ele>
   </trkpt>
   <trkpt lat="45.76917" lon="4.81716">
    <ele>214.25000000000003</ele>
   </trkpt>
   <trkpt lat="45.76921" lon="4.817080000000001">
    <ele>214.13000000000002</ele>
   </trkpt>
   <trkpt lat="45.76925000000001" lon="4.817030000000001">
    <ele>214.13000000000002</ele>
   </trkpt>
   <trkpt lat="45.76923" lon="4.81697">
    <ele>214.13000000000002</ele>
   </trkpt>
   <trkpt lat="45.76924" lon="4.81688">
    <ele>213.1</ele>
   </trkpt>
   <trkpt lat="45.76928" lon="4.816800000000001">
    <ele>213.1</ele>
   </trkpt>
   <trkpt lat="45.76984" lon="4.816280000000001">
    <ele>207.1</ele>
   </trkpt>
   <trkpt lat="45.76979" lon="4.816140000000001">
    <ele>205.15000000000003</ele>
   </trkpt>
   <trkpt lat="45.76988" lon="4.81608">
    <ele>204.40000000000003</ele>
   </trkpt>
   <trkpt lat="45.769920000000006" lon="4.81595">
    <ele>203.94</ele>
   </trkpt>
   <trkpt lat="45.769920000000006" lon="4.8158">
    <ele>203.62000000000003</ele>
   </trkpt>
   <trkpt lat="45.76995" lon="4.81569">
    <ele>203.5</ele>
   </trkpt>
   <trkpt lat="45.77008000000001" lon="4.815510000000001">
    <ele>202.57000000000002</ele>
   </trkpt>
   <trkpt lat="45.77028000000001" lon="4.815390000000001">
    <ele>196.87</ele>
   </trkpt>
   <trkpt lat="45.77029" lon="4.815390000000001">
    <ele>196.81</ele>
   </trkpt>
   <trkpt lat="45.770360000000004" lon="4.81534">
    <ele>198.01000000000002</ele>
   </trkpt>
   <trkpt lat="45.77046000000001" lon="4.81569">
    <ele>206.53</ele>
   </trkpt>
   <trkpt lat="45.770970000000005" lon="4.81569">
    <ele>211.96</ele>
   </trkpt>
   <trkpt lat="45.770970000000005" lon="4.81548">
    <ele>211.96</ele>
   </trkpt>
   <trkpt lat="45.77084000000001" lon="4.81531">
    <ele>202.56</ele>
   </trkpt>
   <trkpt lat="45.77098" lon="4.81534">
    <ele>204.8</ele>
   </trkpt>
   <trkpt lat="45.770920000000004" lon="4.81592">
    <ele>216.05</ele>
   </trkpt>
   <trkpt lat="45.770720000000004" lon="4.8158900000000004">
    <ele>210.25000000000003</ele>
   </trkpt>
   <trkpt lat="45.770160000000004" lon="4.81602">
    <ele>206.32</ele>
   </trkpt>
   <trkpt lat="45.770720000000004" lon="4.8158900000000004">
    <ele>210.25000000000003</ele>
   </trkpt>
   <trkpt lat="45.771300000000004" lon="4.816000000000001">
    <ele>217.24</ele>
   </trkpt>
   <trkpt lat="45.77138" lon="4.81599">
    <ele>217.91000000000003</ele>
   </trkpt>
   <trkpt lat="45.771800000000006" lon="4.815810000000001">
    <ele>218.34</ele>
   </trkpt>
   <trkpt lat="45.771910000000005" lon="4.81582">
    <ele>218.18</ele>
   </trkpt>
   <trkpt lat="45.77196000000001" lon="4.815720000000001">
    <ele>217.51</ele>
   </trkpt>
   <trkpt lat="45.772000000000006" lon="4.81568">
    <ele>217.51</ele>
   </trkpt>
   <trkpt lat="45.77206" lon="4.815670000000001">
    <ele>216.81000000000003</ele>
   </trkpt>
   <trkpt lat="45.77232" lon="4.81576">
    <ele>215.11</ele>
   </trkpt>
   <trkpt lat="45.77263000000001" lon="4.8158">
    <ele>213.93</ele>
   </trkpt>
   <trkpt lat="45.77264" lon="4.815740000000001">
    <ele>213.74</ele>
   </trkpt>
   <trkpt lat="45.772740000000006" lon="4.815650000000001">
    <ele>207.5</ele>
   </trkpt>
   <trkpt lat="45.772740000000006" lon="4.81541">
    <ele>199.0</ele>
   </trkpt>
   <trkpt lat="45.772760000000005" lon="4.81536">
    <ele>198.94</ele>
   </trkpt>
   <trkpt lat="45.772760000000005" lon="4.8152800000000004">
    <ele>198.91</ele>
   </trkpt>
   <trkpt lat="45.77286" lon="4.8152800000000004">
    <ele>195.13000000000002</ele>
   </trkpt>
   <trkpt lat="45.77322" lon="4.815060000000001">
    <ele>189.91000000000003</ele>
   </trkpt>
   <trkpt lat="45.77333" lon="4.814970000000001">
    <ele>185.4</ele>
   </trkpt>
   <trkpt lat="45.773410000000005" lon="4.814830000000001">
    <ele>182.54</ele>
   </trkpt>
   <trkpt lat="45.773410000000005" lon="4.814780000000001">
    <ele>182.54</ele>
   </trkpt>
   <trkpt lat="45.77342" lon="4.814760000000001">
    <ele>182.49</ele>
   </trkpt>
   <trkpt lat="45.774080000000005" lon="4.814430000000001">
    <ele>178.42000000000002</ele>
   </trkpt>
   <trkpt lat="45.77411" lon="4.814360000000001">
    <ele>178.42000000000002</ele>
   </trkpt>
   <trkpt lat="45.77413000000001" lon="4.81419">
    <ele>177.81000000000003</ele>
   </trkpt>
   <trkpt lat="45.77423" lon="4.814170000000001">
    <ele>178.58</ele>
   </trkpt>
   <trkpt lat="45.774350000000005" lon="4.814310000000001">
    <ele>182.54</ele>
   </trkpt>
   <trkpt lat="45.774440000000006" lon="4.81435">
    <ele>183.03000000000003</ele>
   </trkpt>
   <trkpt lat="45.774550000000005" lon="4.81432">
    <ele>182.75000000000003</ele>
   </trkpt>
   <trkpt lat="45.774660000000004" lon="4.81418">
    <ele>181.81000000000003</ele>
   </trkpt>
   <trkpt lat="45.77472" lon="4.81397">
    <ele>180.4</ele>
   </trkpt>
   <trkpt lat="45.774770000000004" lon="4.813680000000001">
    <ele>176.63</ele>
   </trkpt>
   <trkpt lat="45.774750000000004" lon="4.81336">
    <ele>174.29</ele>
   </trkpt>
   <trkpt lat="45.774750000000004" lon="4.813350000000001">
    <ele>178.87</ele>
   </trkpt>
   <trkpt lat="45.77501" lon="4.813070000000001">
    <ele>180.97000000000003</ele>
   </trkpt>
   <trkpt lat="45.77507000000001" lon="4.813280000000001">
    <ele>174.64000000000001</ele>
   </trkpt>
   <trkpt lat="45.77485" lon="4.81346">
    <ele>175.57</ele>
   </trkpt>
   <trkpt lat="45.77483" lon="4.813540000000001">
    <ele>175.82</ele>
   </trkpt>
   <trkpt lat="45.774890000000006" lon="4.813750000000001">
    <ele>177.03000000000003</ele>
   </trkpt>
   <trkpt lat="45.7749" lon="4.8139">
    <ele>178.79</ele>
   </trkpt>
   <trkpt lat="45.77483" lon="4.814100000000001">
    <ele>180.87</ele>
   </trkpt>
   <trkpt lat="45.77478000000001" lon="4.814170000000001">
    <ele>180.87</ele>
   </trkpt>
   <trkpt lat="45.77454" lon="4.8144">
    <ele>183.86</ele>
   </trkpt>
   <trkpt lat="45.774530000000006" lon="4.81444">
    <ele>183.86</ele>
   </trkpt>
   <trkpt lat="45.774550000000005" lon="4.81447">
    <ele>183.86</ele>
   </trkpt>
   <trkpt lat="45.77488" lon="4.81447">
    <ele>186.92</ele>
   </trkpt>
   <trkpt lat="45.77508" lon="4.814520000000001">
    <ele>190.36</ele>
   </trkpt>
   <trkpt lat="45.77534000000001" lon="4.814500000000001">
    <ele>193.45000000000002</ele>
   </trkpt>
   <trkpt lat="45.775400000000005" lon="4.81458">
    <ele>193.99</ele>
   </trkpt>
   <trkpt lat="45.77541" lon="4.81463">
    <ele>195.45000000000002</ele>
   </trkpt>
   <trkpt lat="45.77539" lon="4.81468">
    <ele>195.45000000000002</ele>
   </trkpt>
   <trkpt lat="45.77472" lon="4.81493">
    <ele>202.11</ele>
   </trkpt>
   <trkpt lat="45.77456" lon="4.814920000000001">
    <ele>202.11</ele>
   </trkpt>
   <trkpt lat="45.77436" lon="4.81501">
    <ele>204.16</ele>
   </trkpt>
   <trkpt lat="45.7742" lon="4.815130000000001">
    <ele>205.8</ele>
   </trkpt>
   <trkpt lat="45.77423" lon="4.815230000000001">
    <ele>205.92000000000002</ele>
   </trkpt>
   <trkpt lat="45.77431000000001" lon="4.815230000000001">
    <ele>205.95000000000002</ele>
   </trkpt>
   <trkpt lat="45.774350000000005" lon="4.81514">
    <ele>205.08</ele>
   </trkpt>
   <trkpt lat="45.774420000000006" lon="4.8151">
    <ele>205.08</ele>
   </trkpt>
   <trkpt lat="45.77479" lon="4.81508">
    <ele>205.95000000000002</ele>
   </trkpt>
   <trkpt lat="45.775470000000006" lon="4.81515">
    <ele>212.63</ele>
   </trkpt>
   <trkpt lat="45.77539" lon="4.81522">
    <ele>216.58</ele>
   </trkpt>
   <trkpt lat="45.77525000000001" lon="4.81526">
    <ele>218.36</ele>
   </trkpt>
   <trkpt lat="45.775490000000005" lon="4.815530000000001">
    <ele>222.70000000000002</ele>
   </trkpt>
   <trkpt lat="45.775650000000006" lon="4.8158">
    <ele>224.76000000000002</ele>
   </trkpt>
   <trkpt lat="45.77577" lon="4.816190000000001">
    <ele>228.33</ele>
   </trkpt>
   <trkpt lat="45.77564" lon="4.81608">
    <ele>230.86</ele>
   </trkpt>
   <trkpt lat="45.775510000000004" lon="4.81606">
    <ele>232.08</ele>
   </trkpt>
   <trkpt lat="45.77532" lon="4.816330000000001">
    <ele>236.05</ele>
   </trkpt>
   <trkpt lat="45.77499" lon="4.81653">
    <ele>236.95000000000002</ele>
   </trkpt>
   <trkpt lat="45.7751" lon="4.8169200000000005">
    <ele>237.33</ele>
   </trkpt>
   <trkpt lat="45.774930000000005" lon="4.817010000000001">
    <ele>237.72</ele>
   </trkpt>
   <trkpt lat="45.77485" lon="4.8171800000000005">
    <ele>237.72</ele>
   </trkpt>
   <trkpt lat="45.7749" lon="4.81733">
    <ele>237.96000000000004</ele>
   </trkpt>
   <trkpt lat="45.7751" lon="4.817760000000001">
    <ele>239.11</ele>
   </trkpt>
   <trkpt lat="45.77525000000001" lon="4.81785">
    <ele>239.57000000000002</ele>
   </trkpt>
   <trkpt lat="45.77532" lon="4.81798">
    <ele>239.90000000000003</ele>
   </trkpt>
   <trkpt lat="45.775290000000005" lon="4.81801">
    <ele>239.77</ele>
   </trkpt>
   <trkpt lat="45.775290000000005" lon="4.81803">
    <ele>239.77</ele>
   </trkpt>
   <trkpt lat="45.775490000000005" lon="4.817810000000001">
    <ele>239.52</ele>
   </trkpt>
   <trkpt lat="45.77548" lon="4.8177900000000005">
    <ele>239.52</ele>
   </trkpt>
   <trkpt lat="45.77589500106711" lon="4.817295003685708">
    <ele>239.26000000000002</ele>
   </trkpt>
   <trkpt lat="45.77631" lon="4.816800000000001">
    <ele>239.31000000000003</ele>
   </trkpt>
   <trkpt lat="45.776500000000006" lon="4.816400000000001">
    <ele>239.03</ele>
   </trkpt>
   <trkpt lat="45.77656" lon="4.81632">
    <ele>239.03</ele>
   </trkpt>
   <trkpt lat="45.77656" lon="4.815300000000001">
    <ele>233.55</ele>
   </trkpt>
   <trkpt lat="45.77642" lon="4.81447">
    <ele>233.79000000000002</ele>
   </trkpt>
   <trkpt lat="45.776430000000005" lon="4.8144100000000005">
    <ele>233.79000000000002</ele>
   </trkpt>
   <trkpt lat="45.77662" lon="4.814050000000001">
    <ele>233.62</ele>
   </trkpt>
   <trkpt lat="45.77694" lon="4.81376">
    <ele>233.12</ele>
   </trkpt>
   <trkpt lat="45.777300000000004" lon="4.81336">
    <ele>233.5</ele>
   </trkpt>
   <trkpt lat="45.77736" lon="4.81343">
    <ele>233.52</ele>
   </trkpt>
   <trkpt lat="45.77751000000001" lon="4.8133300000000006">
    <ele>234.20000000000002</ele>
   </trkpt>
   <trkpt lat="45.777590000000004" lon="4.81336">
    <ele>234.29000000000002</ele>
   </trkpt>
   <trkpt lat="45.77778000000001" lon="4.81353">
    <ele>234.19</ele>
   </trkpt>
   <trkpt lat="45.778020000000005" lon="4.8138700000000005">
    <ele>234.32000000000002</ele>
   </trkpt>
   <trkpt lat="45.77805" lon="4.813890000000001">
    <ele>234.32000000000002</ele>
   </trkpt>
   <trkpt lat="45.778020000000005" lon="4.81397">
    <ele>234.45000000000002</ele>
   </trkpt>
   <trkpt lat="45.778000000000006" lon="4.81493">
    <ele>234.78</ele>
   </trkpt>
   <trkpt lat="45.77819" lon="4.81524">
    <ele>235.03</ele>
   </trkpt>
   <trkpt lat="45.77819" lon="4.815580000000001">
    <ele>235.66</ele>
   </trkpt>
   <trkpt lat="45.77823" lon="4.8159">
    <ele>236.52</ele>
   </trkpt>
   <trkpt lat="45.778600000000004" lon="4.81585">
    <ele>237.0</ele>
   </trkpt>
   <trkpt lat="45.778600000000004" lon="4.815860000000001">
    <ele>237.0</ele>
   </trkpt>
   <trkpt lat="45.778850000000006" lon="4.81585">
    <ele>237.18000000000004</ele>
   </trkpt>
   <trkpt lat="45.778850000000006" lon="4.81583">
    <ele>237.24</ele>
   </trkpt>
   <trkpt lat="45.779090000000004" lon="4.81583">
    <ele>237.26000000000002</ele>
   </trkpt>
   <trkpt lat="45.779120000000006" lon="4.815810000000001">
    <ele>237.26000000000002</ele>
   </trkpt>
   <trkpt lat="45.77958" lon="4.815840000000001">
    <ele>237.26000000000002</ele>
   </trkpt>
   <trkpt lat="45.779590000000006" lon="4.81583">
    <ele>237.26000000000002</ele>
   </trkpt>
   <trkpt lat="45.77962" lon="4.8158">
    <ele>237.27</ele>
   </trkpt>
   <trkpt lat="45.77967" lon="4.8158">
    <ele>236.99</ele>
   </trkpt>
   <trkpt lat="45.779723341939935" lon="4.8148066685835795">
    <ele>233.3</ele>
   </trkpt>
   <trkpt lat="45.77977667527239" lon="4.813813335266703">
    <ele>194.94</ele>
   </trkpt>
   <trkpt lat="45.779830000000004" lon="4.81282">
    <ele>194.94</ele>
   </trkpt>
   <trkpt lat="45.78029" lon="4.812950000000001">
    <ele>194.54000000000002</ele>
   </trkpt>
   <trkpt lat="45.780480000000004" lon="4.81296">
    <ele>193.69000000000003</ele>
   </trkpt>
   <trkpt lat="45.7811" lon="4.8131">
    <ele>185.66000000000003</ele>
   </trkpt>
   <trkpt lat="45.78061" lon="4.81266">
    <ele>179.67000000000002</ele>
   </trkpt>
   <trkpt lat="45.780620000000006" lon="4.81263">
    <ele>179.67000000000002</ele>
   </trkpt>
   <trkpt lat="45.78114" lon="4.812830000000001">
    <ele>176.39000000000001</ele>
   </trkpt>
   <trkpt lat="45.781200000000005" lon="4.81273">
    <ele>169.35</ele>
   </trkpt>
   <trkpt lat="45.78126" lon="4.812550000000001">
    <ele>171.52</ele>
   </trkpt>
   <trkpt lat="45.78146" lon="4.8127200000000006">
    <ele>172.77</ele>
   </trkpt>
   <trkpt lat="45.78157" lon="4.81292">
    <ele>174.96</ele>
   </trkpt>
   <trkpt lat="45.781985000732135" lon="4.813359996605772">
    <ele>180.47000000000003</ele>
   </trkpt>
   <trkpt lat="45.7824" lon="4.8138000000000005">
    <ele>184.78000000000003</ele>
   </trkpt>
   <trkpt lat="45.782430000000005" lon="4.813980000000001">
    <ele>186.74</ele>
   </trkpt>
   <trkpt lat="45.78231" lon="4.814570000000001">
    <ele>191.55</ele>
   </trkpt>
   <trkpt lat="45.78233" lon="4.81473">
    <ele>195.62</ele>
   </trkpt>
   <trkpt lat="45.78239000000001" lon="4.81484">
    <ele>195.62</ele>
   </trkpt>
   <trkpt lat="45.78239000000001" lon="4.81489">
    <ele>195.62</ele>
   </trkpt>
   <trkpt lat="45.782230000000006" lon="4.81494">
    <ele>197.58</ele>
   </trkpt>
   <trkpt lat="45.78195" lon="4.81486">
    <ele>204.09</ele>
   </trkpt>
   <trkpt lat="45.7819" lon="4.81491">
    <ele>204.09</ele>
   </trkpt>
   <trkpt lat="45.78188" lon="4.81498">
    <ele>205.54000000000002</ele>
   </trkpt>
   <trkpt lat="45.78213" lon="4.815670000000001">
    <ele>214.06000000000003</ele>
   </trkpt>
   <trkpt lat="45.78246" lon="4.816140000000001">
    <ele>220.4</ele>
   </trkpt>
   <trkpt lat="45.782540000000004" lon="4.8163100000000005">
    <ele>221.43</ele>
   </trkpt>
   <trkpt lat="45.78258" lon="4.8165000000000004">
    <ele>224.88000000000002</ele>
   </trkpt>
   <trkpt lat="45.78258" lon="4.8167100000000005">
    <ele>224.88000000000002</ele>
   </trkpt>
   <trkpt lat="45.782540000000004" lon="4.817130000000001">
    <ele>228.43</ele>
   </trkpt>
   <trkpt lat="45.782140000000005" lon="4.81782">
    <ele>234.73000000000002</ele>
   </trkpt>
   <trkpt lat="45.78210000000001" lon="4.81808">
    <ele>237.10000000000002</ele>
   </trkpt>
   <trkpt lat="45.782120000000006" lon="4.818230000000001">
    <ele>237.10000000000002</ele>
   </trkpt>
   <trkpt lat="45.782180000000004" lon="4.818300000000001">
    <ele>237.78</ele>
   </trkpt>
   <trkpt lat="45.78226" lon="4.8183300000000004">
    <ele>238.28</ele>
   </trkpt>
   <trkpt lat="45.782970000000006" lon="4.8180700000000005">
    <ele>239.06000000000003</ele>
   </trkpt>
   <trkpt lat="45.783460000000005" lon="4.817880000000001">
    <ele>238.61</ele>
   </trkpt>
   <trkpt lat="45.78352" lon="4.817880000000001">
    <ele>238.61</ele>
   </trkpt>
   <trkpt lat="45.78360000000001" lon="4.81794">
    <ele>238.61</ele>
   </trkpt>
   <trkpt lat="45.783620000000006" lon="4.81803">
    <ele>238.57000000000002</ele>
   </trkpt>
   <trkpt lat="45.783590000000004" lon="4.8190800000000005">
    <ele>238.95000000000002</ele>
   </trkpt>
   <trkpt lat="45.783565003049766" lon="4.819915000084661">
    <ele>239.23000000000002</ele>
   </trkpt>
   <trkpt lat="45.78354" lon="4.82075">
    <ele>239.59000000000003</ele>
   </trkpt>
   <trkpt lat="45.78358" lon="4.820760000000001">
    <ele>239.6</ele>
   </trkpt>
   <trkpt lat="45.78363" lon="4.820760000000001">
    <ele>239.6</ele>
   </trkpt>
   <trkpt lat="45.784040000000005" lon="4.820790000000001">
    <ele>239.24</ele>
   </trkpt>
   <trkpt lat="45.78407000000001" lon="4.82085">
    <ele>239.24</ele>
   </trkpt>
   <trkpt lat="45.78428" lon="4.82087">
    <ele>239.24</ele>
   </trkpt>
   <trkpt lat="45.7843" lon="4.82118">
    <ele>239.24</ele>
   </trkpt>
   <trkpt lat="45.78434" lon="4.82131">
    <ele>239.47</ele>
   </trkpt>
   <trkpt lat="45.78435" lon="4.82162">
    <ele>239.69</ele>
   </trkpt>
   <trkpt lat="45.784290000000006" lon="4.821630000000001">
    <ele>239.97</ele>
   </trkpt>
   <trkpt lat="45.78429500431834" lon="4.822624999939791">
    <ele>242.48000000000002</ele>
   </trkpt>
   <trkpt lat="45.7843" lon="4.82362">
    <ele>248.13000000000002</ele>
   </trkpt>
   <trkpt lat="45.78494666709645" lon="4.823410004857389">
    <ele>245.76000000000002</ele>
   </trkpt>
   <trkpt lat="45.785593333808194" lon="4.823200004842823">
    <ele>243.43</ele>
   </trkpt>
   <trkpt lat="45.78624000000001" lon="4.822990000000001">
    <ele>239.6</ele>
   </trkpt>
   <trkpt lat="45.78645" lon="4.82312">
    <ele>236.27</ele>
   </trkpt>
   <trkpt lat="45.78663" lon="4.823300000000001">
    <ele>233.12</ele>
   </trkpt>
   <trkpt lat="45.786910000000006" lon="4.823720000000001">
    <ele>224.63000000000002</ele>
   </trkpt>
   <trkpt lat="45.787180000000006" lon="4.82397">
    <ele>217.05</ele>
   </trkpt>
   <trkpt lat="45.787220000000005" lon="4.82406">
    <ele>215.34000000000003</ele>
   </trkpt>
   <trkpt lat="45.787220000000005" lon="4.82413">
    <ele>215.34000000000003</ele>
   </trkpt>
   <trkpt lat="45.787110000000006" lon="4.82441">
    <ele>208.66</ele>
   </trkpt>
   <trkpt lat="45.78716000000001" lon="4.824590000000001">
    <ele>207.85</ele>
   </trkpt>
   <trkpt lat="45.78721" lon="4.82462">
    <ele>206.41</ele>
   </trkpt>
   <trkpt lat="45.787220000000005" lon="4.82469">
    <ele>205.82000000000002</ele>
   </trkpt>
   <trkpt lat="45.78728" lon="4.8247800000000005">
    <ele>204.88</ele>
   </trkpt>
   <trkpt lat="45.78734" lon="4.824820000000001">
    <ele>204.07000000000002</ele>
   </trkpt>
   <trkpt lat="45.78739" lon="4.82481">
    <ele>204.07000000000002</ele>
   </trkpt>
   <trkpt lat="45.787470000000006" lon="4.82462">
    <ele>197.61</ele>
   </trkpt>
   <trkpt lat="45.787530000000004" lon="4.82458">
    <ele>197.61</ele>
   </trkpt>
   <trkpt lat="45.78782" lon="4.82453">
    <ele>189.60000000000002</ele>
   </trkpt>
   <trkpt lat="45.787780000000005" lon="4.82441">
    <ele>189.56</ele>
   </trkpt>
   <trkpt lat="45.787600000000005" lon="4.824210000000001">
    <ele>189.63000000000002</ele>
   </trkpt>
   <trkpt lat="45.787650000000006" lon="4.82411">
    <ele>188.00000000000003</ele>
   </trkpt>
   <trkpt lat="45.78764" lon="4.823910000000001">
    <ele>185.86</ele>
   </trkpt>
   <trkpt lat="45.78748" lon="4.823530000000001">
    <ele>184.61</ele>
   </trkpt>
   <trkpt lat="45.787310000000005" lon="4.82284">
    <ele>183.46</ele>
   </trkpt>
   <trkpt lat="45.787380000000006" lon="4.822570000000001">
    <ele>181.00000000000003</ele>
   </trkpt>
   <trkpt lat="45.787420000000004" lon="4.822590000000001">
    <ele>181.00000000000003</ele>
   </trkpt>
   <trkpt lat="45.7875" lon="4.82258">
    <ele>176.91</ele>
   </trkpt>
   <trkpt lat="45.787530000000004" lon="4.82249">
    <ele>176.91</ele>
   </trkpt>
   <trkpt lat="45.78779" lon="4.82244">
    <ele>172.82</ele>
   </trkpt>
   <trkpt lat="45.788263340079006" lon="4.823319985036538">
    <ele>172.18000000000004</ele>
   </trkpt>
   <trkpt lat="45.78873667340276" lon="4.824199985018488">
    <ele>172.46</ele>
   </trkpt>
   <trkpt lat="45.789210000000004" lon="4.825080000000001">
    <ele>173.20000000000002</ele>
   </trkpt>
   <trkpt lat="45.789530000000006" lon="4.825710000000001">
    <ele>175.02</ele>
   </trkpt>
   <trkpt lat="45.79003" lon="4.82639">
    <ele>176.62000000000003</ele>
   </trkpt>
   <trkpt lat="45.790040000000005" lon="4.82648">
    <ele>176.62000000000003</ele>
   </trkpt>
   <trkpt lat="45.78996" lon="4.82662">
    <ele>176.94</ele>
   </trkpt>
   <trkpt lat="45.789950000000005" lon="4.82673">
    <ele>177.07</ele>
   </trkpt>
   <trkpt lat="45.78998000000001" lon="4.826790000000001">
    <ele>177.14000000000001</ele>
   </trkpt>
   <trkpt lat="45.790060000000004" lon="4.826890000000001">
    <ele>177.13</ele>
   </trkpt>
   <trkpt lat="45.79058500144558" lon="4.827454994735321">
    <ele>176.77</ele>
   </trkpt>
   <trkpt lat="45.79111" lon="4.82802">
    <ele>177.03000000000003</ele>
   </trkpt>
   <trkpt lat="45.79115" lon="4.82803">
    <ele>176.75000000000003</ele>
   </trkpt>
   <trkpt lat="45.791520000000006" lon="4.82835">
    <ele>176.58</ele>
   </trkpt>
   <trkpt lat="45.791610000000006" lon="4.828390000000001">
    <ele>176.62000000000003</ele>
   </trkpt>
   <trkpt lat="45.79173" lon="4.828390000000001">
    <ele>176.49</ele>
   </trkpt>
   <trkpt lat="45.79198" lon="4.82835">
    <ele>176.07</ele>
   </trkpt>
   <trkpt lat="45.79215000000001" lon="4.828390000000001">
    <ele>175.88</ele>
   </trkpt>
   <trkpt lat="45.792840000000005" lon="4.82866">
    <ele>175.98000000000002</ele>
   </trkpt>
   <trkpt lat="45.792950000000005" lon="4.828670000000001">
    <ele>175.99</ele>
   </trkpt>
   <trkpt lat="45.79307000000001" lon="4.82864">
    <ele>175.99</ele>
   </trkpt>
   <trkpt lat="45.793510000000005" lon="4.828460000000001">
    <ele>175.92000000000002</ele>
   </trkpt>
   <trkpt lat="45.793820000000004" lon="4.8287700000000005">
    <ele>178.68</ele>
   </trkpt>
   <trkpt lat="45.79397" lon="4.82878">
    <ele>179.22000000000003</ele>
   </trkpt>
   <trkpt lat="45.794000000000004" lon="4.8289">
    <ele>180.67000000000002</ele>
   </trkpt>
   <trkpt lat="45.79426" lon="4.82946">
    <ele>184.73</ele>
   </trkpt>
   <trkpt lat="45.7937" lon="4.829370000000001">
    <ele>189.59</ele>
   </trkpt>
   <trkpt lat="45.7929" lon="4.82992">
    <ele>206.03</ele>
   </trkpt>
   <trkpt lat="45.792680000000004" lon="4.8299900000000004">
    <ele>209.67000000000002</ele>
   </trkpt>
   <trkpt lat="45.792350000000006" lon="4.83023">
    <ele>216.04</ele>
   </trkpt>
   <trkpt lat="45.79215000000001" lon="4.830290000000001">
    <ele>220.11</ele>
   </trkpt>
   <trkpt lat="45.7916" lon="4.83033">
    <ele>226.78</ele>
   </trkpt>
   <trkpt lat="45.79111" lon="4.8303">
    <ele>234.24000000000004</ele>
   </trkpt>
   <trkpt lat="45.79084" lon="4.830240000000001">
    <ele>237.06</ele>
   </trkpt>
   <trkpt lat="45.790670000000006" lon="4.8302700000000005">
    <ele>240.26000000000002</ele>
   </trkpt>
   <trkpt lat="45.79063000000001" lon="4.83032">
    <ele>240.26000000000002</ele>
   </trkpt>
   <trkpt lat="45.790470000000006" lon="4.830760000000001">
    <ele>245.37000000000003</ele>
   </trkpt>
   <trkpt lat="45.790580000000006" lon="4.8308">
    <ele>245.47000000000003</ele>
   </trkpt>
   <trkpt lat="45.79074000000001" lon="4.8309500000000005">
    <ele>245.4</ele>
   </trkpt>
   <trkpt lat="45.791030000000006" lon="4.831180000000001">
    <ele>244.88</ele>
   </trkpt>
   <trkpt lat="45.79113" lon="4.8312800000000005">
    <ele>244.88</ele>
   </trkpt>
   <trkpt lat="45.79135" lon="4.831650000000001">
    <ele>244.29</ele>
   </trkpt>
   <trkpt lat="45.79193499999123" lon="4.831789998507947">
    <ele>243.05</ele>
   </trkpt>
   <trkpt lat="45.79252" lon="4.831930000000001">
    <ele>239.70000000000002</ele>
   </trkpt>
   <trkpt lat="45.792550000000006" lon="4.8319600000000005">
    <ele>239.43000000000004</ele>
   </trkpt>
   <trkpt lat="45.79256" lon="4.83197">
    <ele>239.43000000000004</ele>
   </trkpt>
   <trkpt lat="45.79256" lon="4.8320300000000005">
    <ele>239.43000000000004</ele>
   </trkpt>
   <trkpt lat="45.792460000000005" lon="4.83251">
    <ele>236.99</ele>
   </trkpt>
   <trkpt lat="45.792300000000004" lon="4.8331800000000005">
    <ele>235.22</ele>
   </trkpt>
   <trkpt lat="45.79207" lon="4.83399">
    <ele>237.39000000000001</ele>
   </trkpt>
   <trkpt lat="45.792015001818186" lon="4.834630000263321">
    <ele>238.17000000000002</ele>
   </trkpt>
   <trkpt lat="45.79196" lon="4.83527">
    <ele>238.25</ele>
   </trkpt>
   <trkpt lat="45.79189" lon="4.835920000000001">
    <ele>239.36</ele>
   </trkpt>
   <trkpt lat="45.79186000000001" lon="4.835920000000001">
    <ele>239.44</ele>
   </trkpt>
   <trkpt lat="45.791810000000005" lon="4.836180000000001">
    <ele>239.92000000000002</ele>
   </trkpt>
   <trkpt lat="45.79177000000001" lon="4.83673">
    <ele>241.39000000000001</ele>
   </trkpt>
   <trkpt lat="45.79175" lon="4.8369">
    <ele>241.39000000000001</ele>
   </trkpt>
   <trkpt lat="45.791700000000006" lon="4.837090000000001">
    <ele>242.44</ele>
   </trkpt>
   <trkpt lat="45.7916" lon="4.83734">
    <ele>242.89000000000001</ele>
   </trkpt>
   <trkpt lat="45.791560000000004" lon="4.83736">
    <ele>242.94000000000003</ele>
   </trkpt>
   <trkpt lat="45.79151" lon="4.837490000000001">
    <ele>243.08</ele>
   </trkpt>
   <trkpt lat="45.79153" lon="4.83751">
    <ele>243.08</ele>
   </trkpt>
   <trkpt lat="45.79151" lon="4.83757">
    <ele>243.17000000000002</ele>
   </trkpt>
   <trkpt lat="45.79115" lon="4.83837">
    <ele>245.03000000000003</ele>
   </trkpt>
   <trkpt lat="45.79086" lon="4.838920000000001">
    <ele>246.36</ele>
   </trkpt>
   <trkpt lat="45.790400000000005" lon="4.839790000000001">
    <ele>248.86</ele>
   </trkpt>
   <trkpt lat="45.79048" lon="4.83988">
    <ele>249.01</ele>
   </trkpt>
   <trkpt lat="45.7905" lon="4.83985">
    <ele>248.98</ele>
   </trkpt>
   <trkpt lat="45.79086000090429" lon="4.840319996886921">
    <ele>249.07000000000002</ele>
   </trkpt>
   <trkpt lat="45.79122" lon="4.84079">
    <ele>249.21</ele>
   </trkpt>
   <trkpt lat="45.79119" lon="4.840920000000001">
    <ele>249.28000000000003</ele>
   </trkpt>
   <trkpt lat="45.791230000000006" lon="4.84095">
    <ele>249.34000000000003</ele>
   </trkpt>
   <trkpt lat="45.79097" lon="4.842040000000001">
    <ele>252.45</ele>
   </trkpt>
   <trkpt lat="45.790870000000005" lon="4.8424000000000005">
    <ele>254.53000000000003</ele>
   </trkpt>
   <trkpt lat="45.79072" lon="4.8433">
    <ele>257.99</ele>
   </trkpt>
   <trkpt lat="45.7907" lon="4.843660000000001">
    <ele>259.08000000000004</ele>
   </trkpt>
   <trkpt lat="45.790710000000004" lon="4.84381">
    <ele>259.53000000000003</ele>
   </trkpt>
   <trkpt lat="45.790780000000005" lon="4.843990000000001">
    <ele>259.72</ele>
   </trkpt>
   <trkpt lat="45.79122" lon="4.84464">
    <ele>260.57</ele>
   </trkpt>
   <trkpt lat="45.791430000000005" lon="4.84485">
    <ele>261.11</ele>
   </trkpt>
   <trkpt lat="45.79149" lon="4.8459900000000005">
    <ele>265.26</ele>
   </trkpt>
   <trkpt lat="45.79171" lon="4.84614">
    <ele>265.97999999999996</ele>
   </trkpt>
   <trkpt lat="45.79164" lon="4.846380000000001">
    <ele>266.36</ele>
   </trkpt>
   <trkpt lat="45.79169" lon="4.8465300000000004">
    <ele>267.24</ele>
   </trkpt>
   <trkpt lat="45.79168000000001" lon="4.8467">
    <ele>268.98</ele>
   </trkpt>
   <trkpt lat="45.79171" lon="4.8468100000000005">
    <ele>269.26</ele>
   </trkpt>
   <trkpt lat="45.79177000000001" lon="4.8468800000000005">
    <ele>269.59</ele>
   </trkpt>
   <trkpt lat="45.79186000000001" lon="4.84693">
    <ele>269.72</ele>
   </trkpt>
   <trkpt lat="45.791920000000005" lon="4.846920000000001">
    <ele>269.72</ele>
   </trkpt>
   <trkpt lat="45.792440000000006" lon="4.8471">
    <ele>271.25000000000006</ele>
   </trkpt>
   <trkpt lat="45.79251000000001" lon="4.84717">
    <ele>271.03000000000003</ele>
   </trkpt>
   <trkpt lat="45.79251000000001" lon="4.847180000000001">
    <ele>269.14000000000004</ele>
   </trkpt>
   <trkpt lat="45.792460000000005" lon="4.84757">
    <ele>272.71</ele>
   </trkpt>
   <trkpt lat="45.79234" lon="4.847980000000001">
    <ele>274.46000000000004</ele>
   </trkpt>
   <trkpt lat="45.792260000000006" lon="4.84815">
    <ele>273.94</ele>
   </trkpt>
   <trkpt lat="45.79214" lon="4.84811">
    <ele>273.64000000000004</ele>
   </trkpt>
   <trkpt lat="45.79205" lon="4.84768">
    <ele>272.45000000000005</ele>
   </trkpt>
   <trkpt lat="45.79169" lon="4.84759">
    <ele>270.57000000000005</ele>
   </trkpt>
   <trkpt lat="45.791560000000004" lon="4.84773">
    <ele>270.16</ele>
   </trkpt>
   <trkpt lat="45.79155" lon="4.847860000000001">
    <ele>270.26</ele>
   </trkpt>
   <trkpt lat="45.79126" lon="4.847860000000001">
    <ele>270.40000000000003</ele>
   </trkpt>
   <trkpt lat="45.79122" lon="4.847840000000001">
    <ele>270.40000000000003</ele>
   </trkpt>
   <trkpt lat="45.791180000000004" lon="4.847670000000001">
    <ele>268.66</ele>
   </trkpt>
   <trkpt lat="45.79119" lon="4.8474900000000005">
    <ele>267.79</ele>
   </trkpt>
   <trkpt lat="45.79135" lon="4.84712">
    <ele>268.15</ele>
   </trkpt>
   <trkpt lat="45.79101000000001" lon="4.847040000000001">
    <ele>266.31000000000006</ele>
   </trkpt>
   <trkpt lat="45.790760000000006" lon="4.84759">
    <ele>265.58000000000004</ele>
   </trkpt>
   <trkpt lat="45.79061" lon="4.847440000000001">
    <ele>263.67</ele>
   </trkpt>
   <trkpt lat="45.79028" lon="4.847460000000001">
    <ele>260.87000000000006</ele>
   </trkpt>
   <trkpt lat="45.790060000000004" lon="4.84794">
    <ele>260.14000000000004</ele>
   </trkpt>
   <trkpt lat="45.789840000000005" lon="4.84797">
    <ele>258.22</ele>
   </trkpt>
   <trkpt lat="45.78952" lon="4.847600000000001">
    <ele>255.76000000000005</ele>
   </trkpt>
   <trkpt lat="45.78947" lon="4.84759">
    <ele>255.28</ele>
   </trkpt>
   <trkpt lat="45.78945" lon="4.847530000000001">
    <ele>255.28</ele>
   </trkpt>
   <trkpt lat="45.78936" lon="4.84757">
    <ele>255.22</ele>
   </trkpt>
   <trkpt lat="45.789300000000004" lon="4.84658">
    <ele>252.9</ele>
   </trkpt>
   <trkpt lat="45.78924000000001" lon="4.8460600000000005">
    <ele>251.44</ele>
   </trkpt>
   <trkpt lat="45.78915000000001" lon="4.84558">
    <ele>250.65000000000003</ele>
   </trkpt>
   <trkpt lat="45.789100000000005" lon="4.845420000000001">
    <ele>250.56</ele>
   </trkpt>
   <trkpt lat="45.789060000000006" lon="4.845300000000001">
    <ele>250.5</ele>
   </trkpt>
   <trkpt lat="45.788850000000004" lon="4.84494">
    <ele>250.64000000000001</ele>
   </trkpt>
   <trkpt lat="45.78839000000001" lon="4.844250000000001">
    <ele>252.67</ele>
   </trkpt>
   <trkpt lat="45.787910000000004" lon="4.8432200000000005">
    <ele>252.25000000000003</ele>
   </trkpt>
   <trkpt lat="45.78754000113836" lon="4.843730003379885">
    <ele>244.00000000000003</ele>
   </trkpt>
   <trkpt lat="45.78717" lon="4.84424">
    <ele>240.22</ele>
   </trkpt>
   <trkpt lat="45.78705" lon="4.84435">
    <ele>240.03000000000003</ele>
   </trkpt>
   <trkpt lat="45.78663" lon="4.8449">
    <ele>232.5</ele>
   </trkpt>
   <trkpt lat="45.78660000000001" lon="4.84501">
    <ele>229.01000000000002</ele>
   </trkpt>
   <trkpt lat="45.78665" lon="4.845090000000001">
    <ele>229.01000000000002</ele>
   </trkpt>
   <trkpt lat="45.78680000000001" lon="4.84522">
    <ele>225.17000000000002</ele>
   </trkpt>
   <trkpt lat="45.786930000000005" lon="4.84525">
    <ele>223.49</ele>
   </trkpt>
   <trkpt lat="45.78717" lon="4.84534">
    <ele>221.10000000000002</ele>
   </trkpt>
   <trkpt lat="45.787420000000004" lon="4.84546">
    <ele>219.71</ele>
   </trkpt>
   <trkpt lat="45.78746" lon="4.84551">
    <ele>219.03000000000003</ele>
   </trkpt>
   <trkpt lat="45.78746" lon="4.8456">
    <ele>218.65</ele>
   </trkpt>
   <trkpt lat="45.787420000000004" lon="4.84565">
    <ele>218.65</ele>
   </trkpt>
   <trkpt lat="45.787060000000004" lon="4.84572">
    <ele>211.84000000000003</ele>
   </trkpt>
   <trkpt lat="45.786550000000005" lon="4.84605">
    <ele>203.99</ele>
   </trkpt>
   <trkpt lat="45.78584" lon="4.846550000000001">
    <ele>187.08</ele>
   </trkpt>
   <trkpt lat="45.78528" lon="4.84715">
    <ele>175.79</ele>
   </trkpt>
   <trkpt lat="45.785250000000005" lon="4.8471">
    <ele>175.73000000000002</ele>
   </trkpt>
   <trkpt lat="45.785250000000005" lon="4.847110000000001">
    <ele>175.73000000000002</ele>
   </trkpt>
   <trkpt lat="45.78492000000001" lon="4.846520000000001">
    <ele>174.94</ele>
   </trkpt>
   <trkpt lat="45.78439" lon="4.845840000000001">
    <ele>174.27</ele>
   </trkpt>
   <trkpt lat="45.78435" lon="4.8459">
    <ele>174.53</ele>
   </trkpt>
   <trkpt lat="45.78371000299208" lon="4.845069990455194">
    <ele>174.71</ele>
   </trkpt>
   <trkpt lat="45.78307" lon="4.84424">
    <ele>174.87000000000003</ele>
   </trkpt>
   <trkpt lat="45.78254666877143" lon="4.843739990540466">
    <ele>175.04</ele>
   </trkpt>
   <trkpt lat="45.78202333536197" lon="4.843239990467865">
    <ele>175.21</ele>
   </trkpt>
   <trkpt lat="45.7815" lon="4.84274">
    <ele>175.37000000000003</ele>
   </trkpt>
   <trkpt lat="45.780910000000006" lon="4.842280000000001">
    <ele>175.75</ele>
   </trkpt>
   <trkpt lat="45.780930000000005" lon="4.842210000000001">
    <ele>175.75</ele>
   </trkpt>
   <trkpt lat="45.78087000000001" lon="4.84217">
    <ele>178.36</ele>
   </trkpt>
   <trkpt lat="45.78089000000001" lon="4.84212">
    <ele>178.36</ele>
   </trkpt>
   <trkpt lat="45.78096" lon="4.84217">
    <ele>178.36</ele>
   </trkpt>
   <trkpt lat="45.781040000000004" lon="4.84194">
    <ele>186.87</ele>
   </trkpt>
   <trkpt lat="45.78136000000001" lon="4.84163">
    <ele>195.84</ele>
   </trkpt>
   <trkpt lat="45.78137" lon="4.8416500000000005">
    <ele>195.84</ele>
   </trkpt>
   <trkpt lat="45.78135" lon="4.84166">
    <ele>201.91</ele>
   </trkpt>
   <trkpt lat="45.78145000000001" lon="4.8418600000000005">
    <ele>206.16</ele>
   </trkpt>
   <trkpt lat="45.781470000000006" lon="4.8419300000000005">
    <ele>206.16</ele>
   </trkpt>
   <trkpt lat="45.781710000000004" lon="4.842210000000001">
    <ele>215.87</ele>
   </trkpt>
   <trkpt lat="45.781890000000004" lon="4.84184">
    <ele>223.46</ele>
   </trkpt>
   <trkpt lat="45.78182" lon="4.841760000000001">
    <ele>225.35000000000002</ele>
   </trkpt>
   <trkpt lat="45.78181000000001" lon="4.8417200000000005">
    <ele>225.35000000000002</ele>
   </trkpt>
   <trkpt lat="45.78191" lon="4.8416500000000005">
    <ele>227.41000000000003</ele>
   </trkpt>
   <trkpt lat="45.78192000000001" lon="4.841130000000001">
    <ele>232.53</ele>
   </trkpt>
   <trkpt lat="45.782050000000005" lon="4.84079">
    <ele>234.10000000000002</ele>
   </trkpt>
   <trkpt lat="45.782160000000005" lon="4.84077">
    <ele>234.34</ele>
   </trkpt>
   <trkpt lat="45.78213" lon="4.840400000000001">
    <ele>232.86</ele>
   </trkpt>
   <trkpt lat="45.78155" lon="4.8403">
    <ele>218.17000000000002</ele>
   </trkpt>
   <trkpt lat="45.78161" lon="4.83976">
    <ele>209.65000000000003</ele>
   </trkpt>
   <trkpt lat="45.781690000000005" lon="4.83959">
    <ele>207.48000000000002</ele>
   </trkpt>
   <trkpt lat="45.7817" lon="4.83948">
    <ele>206.25</ele>
   </trkpt>
   <trkpt lat="45.7815" lon="4.83914">
    <ele>206.0</ele>
   </trkpt>
   <trkpt lat="45.78146" lon="4.839110000000001">
    <ele>205.87000000000003</ele>
   </trkpt>
   <trkpt lat="45.781180000000006" lon="4.839160000000001">
    <ele>203.98000000000002</ele>
   </trkpt>
   <trkpt lat="45.78083" lon="4.83917">
    <ele>204.19</ele>
   </trkpt>
   <trkpt lat="45.7807" lon="4.8392100000000005">
    <ele>204.93000000000004</ele>
   </trkpt>
   <trkpt lat="45.78069000000001" lon="4.8392100000000005">
    <ele>204.93000000000004</ele>
   </trkpt>
   <trkpt lat="45.78056" lon="4.838990000000001">
    <ele>207.06000000000003</ele>
   </trkpt>
   <trkpt lat="45.78027" lon="4.83934">
    <ele>203.15000000000003</ele>
   </trkpt>
   <trkpt lat="45.78022000000001" lon="4.83927">
    <ele>204.06</ele>
   </trkpt>
   <trkpt lat="45.780190000000005" lon="4.83927">
    <ele>204.57000000000002</ele>
   </trkpt>
   <trkpt lat="45.78" lon="4.8389500000000005">
    <ele>209.04</ele>
   </trkpt>
   <trkpt lat="45.77994" lon="4.83896">
    <ele>209.45000000000002</ele>
   </trkpt>
   <trkpt lat="45.779880000000006" lon="4.83903">
    <ele>209.45000000000002</ele>
   </trkpt>
   <trkpt lat="45.779860000000006" lon="4.839">
    <ele>203.51000000000002</ele>
   </trkpt>
   <trkpt lat="45.77962" lon="4.83926">
    <ele>196.61</ele>
   </trkpt>
   <trkpt lat="45.779650000000004" lon="4.839300000000001">
    <ele>194.09</ele>
   </trkpt>
   <trkpt lat="45.779630000000004" lon="4.83933">
    <ele>194.09</ele>
   </trkpt>
   <trkpt lat="45.7792050010142" lon="4.839805003586913">
    <ele>187.97000000000003</ele>
   </trkpt>
   <trkpt lat="45.778780000000005" lon="4.840280000000001">
    <ele>190.24</ele>
   </trkpt>
   <trkpt lat="45.778620000000004" lon="4.83997">
    <ele>201.28</ele>
   </trkpt>
   <trkpt lat="45.778110000000005" lon="4.8398">
    <ele>215.86</ele>
   </trkpt>
   <trkpt lat="45.777730000000005" lon="4.8391">
    <ele>232.84</ele>
   </trkpt>
   <trkpt lat="45.77758" lon="4.83886">
    <ele>238.75</ele>
   </trkpt>
   <trkpt lat="45.77714" lon="4.83861">
    <ele>241.31000000000003</ele>
   </trkpt>
   <trkpt lat="45.777010000000004" lon="4.83844">
    <ele>242.43</ele>
   </trkpt>
   <trkpt lat="45.77694" lon="4.8383">
    <ele>242.43</ele>
   </trkpt>
   <trkpt lat="45.776880000000006" lon="4.838100000000001">
    <ele>243.04</ele>
   </trkpt>
   <trkpt lat="45.7768" lon="4.83786">
    <ele>244.00000000000003</ele>
   </trkpt>
   <trkpt lat="45.77648000000001" lon="4.83715">
    <ele>246.82</ele>
   </trkpt>
   <trkpt lat="45.77647" lon="4.837070000000001">
    <ele>246.82</ele>
   </trkpt>
   <trkpt lat="45.77651" lon="4.83699">
    <ele>247.46</ele>
   </trkpt>
   <trkpt lat="45.776450000000004" lon="4.836880000000001">
    <ele>247.64000000000001</ele>
   </trkpt>
   <trkpt lat="45.776410000000006" lon="4.836110000000001">
    <ele>248.75000000000003</ele>
   </trkpt>
   <trkpt lat="45.77590000000001" lon="4.836060000000001">
    <ele>239.12000000000003</ele>
   </trkpt>
   <trkpt lat="45.7759050041455" lon="4.83703499974162">
    <ele>230.83</ele>
   </trkpt>
   <trkpt lat="45.77591" lon="4.838010000000001">
    <ele>225.45000000000002</ele>
   </trkpt>
   <trkpt lat="45.775490000000005" lon="4.8386000000000005">
    <ele>210.28000000000003</ele>
   </trkpt>
   <trkpt lat="45.77548" lon="4.838640000000001">
    <ele>210.28000000000003</ele>
   </trkpt>
   <trkpt lat="45.77557" lon="4.8387">
    <ele>205.52</ele>
   </trkpt>
   <trkpt lat="45.775560000000006" lon="4.83872">
    <ele>205.52</ele>
   </trkpt>
   <trkpt lat="45.775450000000006" lon="4.8386700000000005">
    <ele>204.61</ele>
   </trkpt>
   <trkpt lat="45.775400000000005" lon="4.838550000000001">
    <ele>204.47</ele>
   </trkpt>
   <trkpt lat="45.775560000000006" lon="4.838360000000001">
    <ele>207.70000000000002</ele>
   </trkpt>
   <trkpt lat="45.775600000000004" lon="4.8382700000000005">
    <ele>207.70000000000002</ele>
   </trkpt>
   <trkpt lat="45.77564" lon="4.83753">
    <ele>213.47000000000003</ele>
   </trkpt>
   <trkpt lat="45.77561" lon="4.837470000000001">
    <ele>213.73000000000002</ele>
   </trkpt>
   <trkpt lat="45.775580000000005" lon="4.83746">
    <ele>213.73000000000002</ele>
   </trkpt>
   <trkpt lat="45.775130000000004" lon="4.83744">
    <ele>218.85000000000002</ele>
   </trkpt>
   <trkpt lat="45.775110000000005" lon="4.837400000000001">
    <ele>218.85000000000002</ele>
   </trkpt>
   <trkpt lat="45.775110000000005" lon="4.837280000000001">
    <ele>219.37</ele>
   </trkpt>
   <trkpt lat="45.775150000000004" lon="4.836740000000001">
    <ele>224.67000000000002</ele>
   </trkpt>
   <trkpt lat="45.774730000000005" lon="4.836690000000001">
    <ele>227.87</ele>
   </trkpt>
   <trkpt lat="45.774680000000004" lon="4.836950000000001">
    <ele>222.67000000000002</ele>
   </trkpt>
   <trkpt lat="45.774460000000005" lon="4.83725">
    <ele>214.23</ele>
   </trkpt>
   <trkpt lat="45.774370000000005" lon="4.83722">
    <ele>211.8</ele>
   </trkpt>
   <trkpt lat="45.77427" lon="4.83724">
    <ele>209.26000000000002</ele>
   </trkpt>
   <trkpt lat="45.7742" lon="4.83731">
    <ele>202.78</ele>
   </trkpt>
   <trkpt lat="45.774330000000006" lon="4.837420000000001">
    <ele>202.78</ele>
   </trkpt>
   <trkpt lat="45.77432" lon="4.8374500000000005">
    <ele>202.78</ele>
   </trkpt>
   <trkpt lat="45.77418" lon="4.83741">
    <ele>196.43</ele>
   </trkpt>
   <trkpt lat="45.77416" lon="4.8375">
    <ele>195.03</ele>
   </trkpt>
   <trkpt lat="45.774240000000006" lon="4.83758">
    <ele>192.03</ele>
   </trkpt>
   <trkpt lat="45.774210000000004" lon="4.8376600000000005">
    <ele>188.84</ele>
   </trkpt>
   <trkpt lat="45.77416" lon="4.83764">
    <ele>185.43</ele>
   </trkpt>
   <trkpt lat="45.774150000000006" lon="4.8376600000000005">
    <ele>185.43</ele>
   </trkpt>
   <trkpt lat="45.77411" lon="4.83764">
    <ele>184.48</ele>
   </trkpt>
   <trkpt lat="45.77409" lon="4.83765">
    <ele>184.48</ele>
   </trkpt>
   <trkpt lat="45.773900000000005" lon="4.838220000000001">
    <ele>177.87000000000003</ele>
   </trkpt>
   <trkpt lat="45.77362" lon="4.83785">
    <ele>176.76000000000002</ele>
   </trkpt>
   <trkpt lat="45.772890000000004" lon="4.83734">
    <ele>193.01000000000002</ele>
   </trkpt>
   <trkpt lat="45.772890000000004" lon="4.837300000000001">
    <ele>193.01000000000002</ele>
   </trkpt>
   <trkpt lat="45.772780000000004" lon="4.8368400000000005">
    <ele>198.08</ele>
   </trkpt>
   <trkpt lat="45.772580000000005" lon="4.836810000000001">
    <ele>173.92000000000002</ele>
   </trkpt>
   <trkpt lat="45.7725" lon="4.83697">
    <ele>175.69</ele>
   </trkpt>
   <trkpt lat="45.772470000000006" lon="4.83699">
    <ele>175.69</ele>
   </trkpt>
   <trkpt lat="45.77243000000001" lon="4.8369800000000005">
    <ele>175.99</ele>
   </trkpt>
   <trkpt lat="45.772400000000005" lon="4.837020000000001">
    <ele>176.23000000000002</ele>
   </trkpt>
   <trkpt lat="45.772310000000004" lon="4.83696">
    <ele>176.39000000000001</ele>
   </trkpt>
   <trkpt lat="45.772110000000005" lon="4.83692">
    <ele>177.13</ele>
   </trkpt>
   <trkpt lat="45.7721" lon="4.83692">
    <ele>177.14000000000001</ele>
   </trkpt>
   <trkpt lat="45.772180000000006" lon="4.836600000000001">
    <ele>183.08</ele>
   </trkpt>
   <trkpt lat="45.772130000000004" lon="4.836480000000001">
    <ele>188.05</ele>
   </trkpt>
   <trkpt lat="45.77215" lon="4.83635">
    <ele>189.15</ele>
   </trkpt>
   <trkpt lat="45.77219" lon="4.8363000000000005">
    <ele>190.19000000000003</ele>
   </trkpt>
   <trkpt lat="45.77226" lon="4.83629">
    <ele>191.92000000000002</ele>
   </trkpt>
   <trkpt lat="45.772380000000005" lon="4.836340000000001">
    <ele>193.94000000000003</ele>
   </trkpt>
   <trkpt lat="45.77239" lon="4.8363000000000005">
    <ele>193.94000000000003</ele>
   </trkpt>
   <trkpt lat="45.77246" lon="4.836340000000001">
    <ele>196.65</ele>
   </trkpt>
   <trkpt lat="45.772470000000006" lon="4.83631">
    <ele>197.22</ele>
   </trkpt>
   <trkpt lat="45.77239" lon="4.836270000000001">
    <ele>201.55</ele>
   </trkpt>
   <trkpt lat="45.772400000000005" lon="4.83624">
    <ele>201.55</ele>
   </trkpt>
   <trkpt lat="45.77248" lon="4.83628">
    <ele>204.34</ele>
   </trkpt>
   <trkpt lat="45.772490000000005" lon="4.836250000000001">
    <ele>204.34</ele>
   </trkpt>
   <trkpt lat="45.77241" lon="4.83621">
    <ele>206.96</ele>
   </trkpt>
   <trkpt lat="45.77241" lon="4.836180000000001">
    <ele>206.96</ele>
   </trkpt>
   <trkpt lat="45.772490000000005" lon="4.83621">
    <ele>209.31000000000003</ele>
   </trkpt>
   <trkpt lat="45.77252000000001" lon="4.836130000000001">
    <ele>209.82</ele>
   </trkpt>
   <trkpt lat="45.772560000000006" lon="4.836150000000001">
    <ele>210.17000000000002</ele>
   </trkpt>
   <trkpt lat="45.77257" lon="4.836110000000001">
    <ele>210.17000000000002</ele>
   </trkpt>
   <trkpt lat="45.77309" lon="4.836410000000001">
    <ele>209.43</ele>
   </trkpt>
   <trkpt lat="45.773350001375334" lon="4.835845002671074">
    <ele>224.31</ele>
   </trkpt>
   <trkpt lat="45.773610000000005" lon="4.83528">
    <ele>240.05</ele>
   </trkpt>
   <trkpt lat="45.77313" lon="4.83485">
    <ele>235.89000000000001</ele>
   </trkpt>
   <trkpt lat="45.773030000000006" lon="4.83471">
    <ele>235.08</ele>
   </trkpt>
   <trkpt lat="45.77299000000001" lon="4.834720000000001">
    <ele>234.63000000000002</ele>
   </trkpt>
   <trkpt lat="45.772980000000004" lon="4.8346800000000005">
    <ele>234.63000000000002</ele>
   </trkpt>
   <trkpt lat="45.772740000000006" lon="4.83476">
    <ele>230.11</ele>
   </trkpt>
   <trkpt lat="45.772240000000004" lon="4.835030000000001">
    <ele>222.31</ele>
   </trkpt>
   <trkpt lat="45.77196000000001" lon="4.83523">
    <ele>216.29</ele>
   </trkpt>
   <trkpt lat="45.77159" lon="4.8356">
    <ele>211.13</ele>
   </trkpt>
   <trkpt lat="45.771550000000005" lon="4.83513">
    <ele>212.74</ele>
   </trkpt>
   <trkpt lat="45.77111000000001" lon="4.83523">
    <ele>211.36</ele>
   </trkpt>
   <trkpt lat="45.77102000000001" lon="4.834300000000001">
    <ele>214.84000000000003</ele>
   </trkpt>
   <trkpt lat="45.770990000000005" lon="4.83427">
    <ele>214.88000000000002</ele>
   </trkpt>
   <trkpt lat="45.770970000000005" lon="4.834300000000001">
    <ele>214.87</ele>
   </trkpt>
   <trkpt lat="45.770880000000005" lon="4.83431">
    <ele>214.38000000000002</ele>
   </trkpt>
   <trkpt lat="45.770880000000005" lon="4.8342600000000004">
    <ele>214.38000000000002</ele>
   </trkpt>
   <trkpt lat="45.77069" lon="4.834300000000001">
    <ele>212.95000000000002</ele>
   </trkpt>
   <trkpt lat="45.77064" lon="4.83436">
    <ele>212.57</ele>
   </trkpt>
   <trkpt lat="45.770590000000006" lon="4.834370000000001">
    <ele>212.57</ele>
   </trkpt>
   <trkpt lat="45.770570000000006" lon="4.83412">
    <ele>208.28000000000003</ele>
   </trkpt>
   <trkpt lat="45.77047" lon="4.8341400000000005">
    <ele>205.68000000000004</ele>
   </trkpt>
   <trkpt lat="45.770430000000005" lon="4.833880000000001">
    <ele>205.24</ele>
   </trkpt>
   <trkpt lat="45.76990000000001" lon="4.83406">
    <ele>192.04000000000002</ele>
   </trkpt>
   <trkpt lat="45.770010000000006" lon="4.834820000000001">
    <ele>191.35999999999999</ele>
   </trkpt>
   <trkpt lat="45.769200000000005" lon="4.83518">
    <ele>188.12</ele>
   </trkpt>
   <trkpt lat="45.76921" lon="4.8352">
    <ele>188.12</ele>
   </trkpt>
   <trkpt lat="45.76917" lon="4.8352200000000005">
    <ele>187.85000000000002</ele>
   </trkpt>
   <trkpt lat="45.76917" lon="4.8352900000000005">
    <ele>187.85000000000002</ele>
   </trkpt>
   <trkpt lat="45.76953" lon="4.83577">
    <ele>188.87</ele>
   </trkpt>
   <trkpt lat="45.76952000000001" lon="4.835800000000001">
    <ele>188.71</ele>
   </trkpt>
   <trkpt lat="45.76955" lon="4.83584">
    <ele>187.9</ele>
   </trkpt>
   <trkpt lat="45.769540000000006" lon="4.83591">
    <ele>187.9</ele>
   </trkpt>
   <trkpt lat="45.769380000000005" lon="4.836110000000001">
    <ele>187.26000000000002</ele>
   </trkpt>
   <trkpt lat="45.769580000000005" lon="4.8365100000000005">
    <ele>186.85000000000002</ele>
   </trkpt>
   <trkpt lat="45.769380000000005" lon="4.836690000000001">
    <ele>183.86</ele>
   </trkpt>
   <trkpt lat="45.76964" lon="4.837260000000001">
    <ele>179.55</ele>
   </trkpt>
   <trkpt lat="45.76948" lon="4.83734">
    <ele>179.35</ele>
   </trkpt>
   <trkpt lat="45.76908" lon="4.837420000000001">
    <ele>177.95000000000002</ele>
   </trkpt>
   <trkpt lat="45.76892" lon="4.837370000000001">
    <ele>178.65</ele>
   </trkpt>
   <trkpt lat="45.768600000000006" lon="4.837420000000001">
    <ele>177.00000000000003</ele>
   </trkpt>
   <trkpt lat="45.76859" lon="4.837350000000001">
    <ele>177.05</ele>
   </trkpt>
   <trkpt lat="45.76809" lon="4.83743">
    <ele>175.17000000000002</ele>
   </trkpt>
   <trkpt lat="45.76805" lon="4.83696">
    <ele>175.14000000000001</ele>
   </trkpt>
   <trkpt lat="45.76764000000001" lon="4.837070000000001">
    <ele>172.74</ele>
   </trkpt>
   <trkpt lat="45.767540000000004" lon="4.83626">
    <ele>173.23000000000002</ele>
   </trkpt>
   <trkpt lat="45.767565004804965" lon="4.835210000633261">
    <ele>185.18</ele>
   </trkpt>
   <trkpt lat="45.767590000000006" lon="4.834160000000001">
    <ele>185.18</ele>
   </trkpt>
   <trkpt lat="45.767810000000004" lon="4.8341">
    <ele>175.04</ele>
   </trkpt>
   <trkpt lat="45.76784000000001" lon="4.834180000000001">
    <ele>175.04</ele>
   </trkpt>
   <trkpt lat="45.768240000000006" lon="4.834210000000001">
    <ele>177.73000000000002</ele>
   </trkpt>
   <trkpt lat="45.76818" lon="4.8333200000000005">
    <ele>177.9</ele>
   </trkpt>
   <trkpt lat="45.768150000000006" lon="4.8327100000000005">
    <ele>178.67000000000002</ele>
   </trkpt>
   <trkpt lat="45.76878000000001" lon="4.83265">
    <ele>186.8</ele>
   </trkpt>
   <trkpt lat="45.768730000000005" lon="4.832420000000001">
    <ele>187.7</ele>
   </trkpt>
   <trkpt lat="45.769000000000005" lon="4.83232">
    <ele>187.51000000000002</ele>
   </trkpt>
   <trkpt lat="45.768890000000006" lon="4.831790000000001">
    <ele>184.03000000000003</ele>
   </trkpt>
   <trkpt lat="45.76968" lon="4.83119">
    <ele>186.72000000000003</ele>
   </trkpt>
   <trkpt lat="45.76968" lon="4.83117">
    <ele>186.72000000000003</ele>
   </trkpt>
   <trkpt lat="45.76968" lon="4.831160000000001">
    <ele>199.76000000000002</ele>
   </trkpt>
   <trkpt lat="45.76991" lon="4.83094">
    <ele>198.91</ele>
   </trkpt>
   <trkpt lat="45.77070500001092" lon="4.830949999572504">
    <ele>198.91</ele>
   </trkpt>
   <trkpt lat="45.77150000002095" lon="4.830959999430076">
    <ele>198.91</ele>
   </trkpt>
   <trkpt lat="45.77229500003013" lon="4.830969999572731">
    <ele>250.02</ele>
   </trkpt>
   <trkpt lat="45.77309" lon="4.83098">
    <ele>250.02</ele>
   </trkpt>
   <trkpt lat="45.773340000000005" lon="4.83098">
    <ele>250.57000000000002</ele>
   </trkpt>
   <trkpt lat="45.77381000013303" lon="4.830920000490683">
    <ele>257.77</ele>
   </trkpt>
   <trkpt lat="45.774280000000005" lon="4.83086">
    <ele>255.74</ele>
   </trkpt>
   <trkpt lat="45.77431000000001" lon="4.831160000000001">
    <ele>255.58</ele>
   </trkpt>
   <trkpt lat="45.773744999829326" lon="4.831255000997771">
    <ele>255.59000000000003</ele>
   </trkpt>
   <trkpt lat="45.77318" lon="4.8313500000000005">
    <ele>251.67</ele>
   </trkpt>
   <trkpt lat="45.773140000000005" lon="4.83138">
    <ele>251.67</ele>
   </trkpt>
   <trkpt lat="45.77299000000001" lon="4.831810000000001">
    <ele>249.04</ele>
   </trkpt>
   <trkpt lat="45.77297" lon="4.831790000000001">
    <ele>249.18</ele>
   </trkpt>
   <trkpt lat="45.77295" lon="4.83183">
    <ele>249.18</ele>
   </trkpt>
   <trkpt lat="45.77291" lon="4.831840000000001">
    <ele>248.86</ele>
   </trkpt>
   <trkpt lat="45.77290000000001" lon="4.8318200000000004">
    <ele>248.61</ele>
   </trkpt>
   <trkpt lat="45.772850000000005" lon="4.83187">
    <ele>247.67000000000002</ele>
   </trkpt>
   <trkpt lat="45.77288" lon="4.83197">
    <ele>247.58</ele>
   </trkpt>
   <trkpt lat="45.772510000000004" lon="4.83183">
    <ele>244.66000000000003</ele>
   </trkpt>
   <trkpt lat="45.771750000000004" lon="4.83168">
    <ele>226.47000000000003</ele>
   </trkpt>
   <trkpt lat="45.771300000000004" lon="4.83161">
    <ele>219.02</ele>
   </trkpt>
   <trkpt lat="45.77132" lon="4.83115">
    <ele>219.21</ele>
   </trkpt>
   <trkpt lat="45.77129" lon="4.83105">
    <ele>219.21</ele>
   </trkpt>
   <trkpt lat="45.77121" lon="4.83094">
    <ele>219.25000000000003</ele>
   </trkpt>
   <trkpt lat="45.77107" lon="4.830830000000001">
    <ele>218.89000000000001</ele>
   </trkpt>
   <trkpt lat="45.77102000000001" lon="4.830690000000001">
    <ele>218.63000000000002</ele>
   </trkpt>
   <trkpt lat="45.77109" lon="4.829470000000001">
    <ele>211.72000000000003</ele>
   </trkpt>
   <trkpt lat="45.771060000000006" lon="4.8289">
    <ele>208.71</ele>
   </trkpt>
   <trkpt lat="45.770990000000005" lon="4.828720000000001">
    <ele>208.71</ele>
   </trkpt>
   <trkpt lat="45.77093000000001" lon="4.828810000000001">
    <ele>208.52</ele>
   </trkpt>
   <trkpt lat="45.77076" lon="4.82918">
    <ele>208.04000000000002</ele>
   </trkpt>
   <trkpt lat="45.77062" lon="4.82953">
    <ele>206.59000000000003</ele>
   </trkpt>
   <trkpt lat="45.770570000000006" lon="4.829750000000001">
    <ele>205.20000000000002</ele>
   </trkpt>
   <trkpt lat="45.77037000000001" lon="4.83">
    <ele>201.25</ele>
   </trkpt>
   <trkpt lat="45.77028000000001" lon="4.83">
    <ele>200.42000000000002</ele>
   </trkpt>
   <trkpt lat="45.770230000000005" lon="4.830030000000001">
    <ele>199.96000000000004</ele>
   </trkpt>
   <trkpt lat="45.770210000000006" lon="4.830170000000001">
    <ele>197.57000000000002</ele>
   </trkpt>
   <trkpt lat="45.770140000000005" lon="4.83018">
    <ele>197.57000000000002</ele>
   </trkpt>
   <trkpt lat="45.77008000000001" lon="4.8302700000000005">
    <ele>195.68</ele>
   </trkpt>
   <trkpt lat="45.769980000000004" lon="4.8303">
    <ele>194.46</ele>
   </trkpt>
   <trkpt lat="45.769980000000004" lon="4.830290000000001">
    <ele>194.46</ele>
   </trkpt>
   <trkpt lat="45.769690000000004" lon="4.830290000000001">
    <ele>188.07000000000002</ele>
   </trkpt>
   <trkpt lat="45.7697" lon="4.830380000000001">
    <ele>187.76000000000002</ele>
   </trkpt>
   <trkpt lat="45.76916000000001" lon="4.830380000000001">
    <ele>181.82</ele>
   </trkpt>
   <trkpt lat="45.76916000000001" lon="4.8303400000000005">
    <ele>181.70000000000002</ele>
   </trkpt>
   <trkpt lat="45.7691" lon="4.8303400000000005">
    <ele>181.61</ele>
   </trkpt>
   <trkpt lat="45.7691" lon="4.830380000000001">
    <ele>181.48</ele>
   </trkpt>
   <trkpt lat="45.768820000000005" lon="4.830380000000001">
    <ele>180.73</ele>
   </trkpt>
   <trkpt lat="45.76877" lon="4.830360000000001">
    <ele>180.57</ele>
   </trkpt>
   <trkpt lat="45.76878000000001" lon="4.83016">
    <ele>180.41000000000003</ele>
   </trkpt>
   <trkpt lat="45.76877" lon="4.82958">
    <ele>178.87</ele>
   </trkpt>
   <trkpt lat="45.76865" lon="4.8291">
    <ele>178.05</ele>
   </trkpt>
   <trkpt lat="45.768660000000004" lon="4.82903">
    <ele>177.9</ele>
   </trkpt>
   <trkpt lat="45.7685" lon="4.82845">
    <ele>176.12000000000003</ele>
   </trkpt>
   <trkpt lat="45.768190000000004" lon="4.8283700000000005">
    <ele>174.17000000000002</ele>
   </trkpt>
   <trkpt lat="45.768150000000006" lon="4.82829">
    <ele>174.17000000000002</ele>
   </trkpt>
   <trkpt lat="45.76791" lon="4.82819">
    <ele>170.58</ele>
   </trkpt>
   <trkpt lat="45.76784000000001" lon="4.828130000000001">
    <ele>170.79000000000002</ele>
   </trkpt>
   <trkpt lat="45.767520000000005" lon="4.828720000000001">
    <ele>166.23000000000002</ele>
   </trkpt>
   <trkpt lat="45.76747" lon="4.82873">
    <ele>166.23000000000002</ele>
   </trkpt>
   <trkpt lat="45.767320000000005" lon="4.82901">
    <ele>166.38</ele>
   </trkpt>
   <trkpt lat="45.767300000000006" lon="4.8291">
    <ele>166.65</ele>
   </trkpt>
   <trkpt lat="45.76708000000001" lon="4.8295">
    <ele>169.16</ele>
   </trkpt>
   <trkpt lat="45.76682" lon="4.8298700000000006">
    <ele>170.29000000000002</ele>
   </trkpt>
   <trkpt lat="45.766740000000006" lon="4.82993">
    <ele>169.82000000000002</ele>
   </trkpt>
   <trkpt lat="45.76634000000001" lon="4.82883">
    <ele>173.08</ele>
   </trkpt>
   <trkpt lat="45.76633" lon="4.82878">
    <ele>172.89000000000001</ele>
   </trkpt>
   <trkpt lat="45.76639" lon="4.8287">
    <ele>172.78</ele>
   </trkpt>
   <trkpt lat="45.7663" lon="4.82857">
    <ele>173.64000000000001</ele>
   </trkpt>
   <trkpt lat="45.766180000000006" lon="4.828060000000001">
    <ele>175.43</ele>
   </trkpt>
   <trkpt lat="45.76612" lon="4.82767">
    <ele>177.53000000000003</ele>
   </trkpt>
   <trkpt lat="45.76605000000001" lon="4.82751">
    <ele>183.33</ele>
   </trkpt>
   <trkpt lat="45.76596000000001" lon="4.827400000000001">
    <ele>179.33</ele>
   </trkpt>
   <trkpt lat="45.765930000000004" lon="4.8274300000000006">
    <ele>179.33</ele>
   </trkpt>
   <trkpt lat="45.76588" lon="4.8272900000000005">
    <ele>180.45000000000002</ele>
   </trkpt>
   <trkpt lat="45.76586" lon="4.8273">
    <ele>180.46</ele>
   </trkpt>
   <trkpt lat="45.765840000000004" lon="4.82725">
    <ele>180.77</ele>
   </trkpt>
   <trkpt lat="45.76554" lon="4.82728">
    <ele>181.34</ele>
   </trkpt>
   <trkpt lat="45.76532" lon="4.82734">
    <ele>180.81000000000003</ele>
   </trkpt>
   <trkpt lat="45.76514" lon="4.8273600000000005">
    <ele>180.49</ele>
   </trkpt>
   <trkpt lat="45.7646" lon="4.827380000000001">
    <ele>179.66</ele>
   </trkpt>
   <trkpt lat="45.764610000000005" lon="4.827710000000001">
    <ele>178.04</ele>
   </trkpt>
   <trkpt lat="45.76413" lon="4.82774">
    <ele>178.16</ele>
   </trkpt>
   <trkpt lat="45.76390000000001" lon="4.827660000000001">
    <ele>178.42000000000002</ele>
   </trkpt>
   <trkpt lat="45.76389" lon="4.8272900000000005">
    <ele>183.8</ele>
   </trkpt>
   <trkpt lat="45.763960000000004" lon="4.82728">
    <ele>185.18</ele>
   </trkpt>
   <trkpt lat="45.76390000000001" lon="4.82714">
    <ele>189.49</ele>
   </trkpt>
   <trkpt lat="45.763690000000004" lon="4.82695">
    <ele>196.8</ele>
   </trkpt>
   <trkpt lat="45.76375" lon="4.8262">
    <ele>208.51000000000002</ele>
   </trkpt>
   <trkpt lat="45.763470000000005" lon="4.82608">
    <ele>210.44</ele>
   </trkpt>
   <trkpt lat="45.76294" lon="4.82551">
    <ele>220.00000000000003</ele>
   </trkpt>
   <trkpt lat="45.762910000000005" lon="4.82554">
    <ele>220.60000000000002</ele>
   </trkpt>
   <trkpt lat="45.76288" lon="4.82552">
    <ele>220.60000000000002</ele>
   </trkpt>
   <trkpt lat="45.76272" lon="4.825360000000001">
    <ele>220.73000000000002</ele>
   </trkpt>
   <trkpt lat="45.76272" lon="4.82535">
    <ele>220.74</ele>
   </trkpt>
   <trkpt lat="45.76240000000001" lon="4.825830000000001">
    <ele>200.55</ele>
   </trkpt>
   <trkpt lat="45.76225" lon="4.825970000000001">
    <ele>191.16000000000003</ele>
   </trkpt>
   <trkpt lat="45.76211000000001" lon="4.82617">
    <ele>186.29000000000002</ele>
   </trkpt>
   <trkpt lat="45.762060000000005" lon="4.82627">
    <ele>181.93</ele>
   </trkpt>
   <trkpt lat="45.761970000000005" lon="4.826160000000001">
    <ele>181.38</ele>
   </trkpt>
   <trkpt lat="45.76178" lon="4.82664">
    <ele>177.85</ele>
   </trkpt>
   <trkpt lat="45.76159000241034" lon="4.827375002294168">
    <ele>175.24</ele>
   </trkpt>
   <trkpt lat="45.7614" lon="4.828110000000001">
    <ele>172.73000000000002</ele>
   </trkpt>
   <trkpt lat="45.7614" lon="4.828180000000001">
    <ele>172.73000000000002</ele>
   </trkpt>
   <trkpt lat="45.761230000000005" lon="4.8281">
    <ele>173.27</ele>
   </trkpt>
   <trkpt lat="45.761190000000006" lon="4.82805">
    <ele>173.27</ele>
   </trkpt>
   <trkpt lat="45.761010000000006" lon="4.8280400000000006">
    <ele>173.1</ele>
   </trkpt>
   <trkpt lat="45.76098" lon="4.828060000000001">
    <ele>173.05</ele>
   </trkpt>
   <trkpt lat="45.760720000000006" lon="4.82805">
    <ele>173.08</ele>
   </trkpt>
   <trkpt lat="45.760760000000005" lon="4.827990000000001">
    <ele>173.08</ele>
   </trkpt>
   <trkpt lat="45.76088" lon="4.8279000000000005">
    <ele>173.3</ele>
   </trkpt>
   <trkpt lat="45.76093" lon="4.82774">
    <ele>173.74</ele>
   </trkpt>
   <trkpt lat="45.761010000000006" lon="4.82779">
    <ele>173.74</ele>
   </trkpt>
   <trkpt lat="45.761050000000004" lon="4.82765">
    <ele>174.11</ele>
   </trkpt>
   <trkpt lat="45.76108000000001" lon="4.82767">
    <ele>174.11</ele>
   </trkpt>
   <trkpt lat="45.76111" lon="4.82753">
    <ele>174.65000000000003</ele>
   </trkpt>
   <trkpt lat="45.76099000000001" lon="4.82746">
    <ele>175.08</ele>
   </trkpt>
   <trkpt lat="45.761100000000006" lon="4.82702">
    <ele>176.61</ele>
   </trkpt>
   <trkpt lat="45.76108000000001" lon="4.82692">
    <ele>176.68</ele>
   </trkpt>
   <trkpt lat="45.76088" lon="4.82676">
    <ele>176.26000000000002</ele>
   </trkpt>
  </trkseg>
 </trk>
</gpx>
