<?xml version="1.0" encoding="UTF-8" ?>
<gpx version="1.1" xmlns:xsi="http://www.w3.org/2001/XMLSchema-instance" 
    xmlns="http://www.topografix.com/GPX/1/1" 
    xsi:schemaLocation="http://www.topografix.com/GPX/1/1 http://www.topografix.com/GPX/1/1/gpx.xsd" 
    creator="WeRun - https://werun.world" >
				
				<trk>
						<name>WeRun-20867486</name>
						<trkseg>
					<trkpt lat="48.961630" lon="1.796030">
						<ele>22</ele>
						<time>2025-03-11T08:31:02Z</time>
					</trkpt>
					<trkpt lat="48.960430" lon="1.795720">
						<ele>27</ele>
						<time>2025-03-11T08:32:03Z</time>
					</trkpt>
					<trkpt lat="48.960730" lon="1.793600">
						<ele>27</ele>
						<time>2025-03-11T08:33:14Z</time>
					</trkpt>
					<trkpt lat="48.960700" lon="1.790600">
						<ele>29</ele>
						<time>2025-03-11T08:34:53Z</time>
					</trkpt>
					<trkpt lat="48.960180" lon="1.790030">
						<ele>37</ele>
						<time>2025-03-11T08:35:25Z</time>
					</trkpt>
					<trkpt lat="48.959300" lon="1.787470">
						<ele>73</ele>
						<time>2025-03-11T08:37:00Z</time>
					</trkpt>
					<trkpt lat="48.958150" lon="1.785070">
						<ele>102</ele>
						<time>2025-03-11T08:38:37Z</time>
					</trkpt>
					<trkpt lat="48.957620" lon="1.784490">
						<ele>117</ele>
						<time>2025-03-11T08:39:10Z</time>
					</trkpt>
					<trkpt lat="48.956470" lon="1.783010">
						<ele>125</ele>
						<time>2025-03-11T08:40:25Z</time>
					</trkpt>
					<trkpt lat="48.954670" lon="1.781570">
						<ele>135</ele>
						<time>2025-03-11T08:42:07Z</time>
					</trkpt>
					<trkpt lat="48.953760" lon="1.778820">
						<ele>140</ele>
						<time>2025-03-11T08:43:48Z</time>
					</trkpt>
					<trkpt lat="48.953670" lon="1.778080">
						<ele>136</ele>
						<time>2025-03-11T08:44:13Z</time>
					</trkpt>
					<trkpt lat="48.952760" lon="1.777640">
						<ele>138</ele>
						<time>2025-03-11T08:45:01Z</time>
					</trkpt>
					<trkpt lat="48.949840" lon="1.776140">
						<ele>142</ele>
						<time>2025-03-11T08:47:35Z</time>
					</trkpt>
					<trkpt lat="48.949430" lon="1.776080">
						<ele>143</ele>
						<time>2025-03-11T08:47:56Z</time>
					</trkpt>
					<trkpt lat="48.948520" lon="1.776210">
						<ele>142</ele>
						<time>2025-03-11T08:48:41Z</time>
					</trkpt>
					<trkpt lat="48.947850" lon="1.776260">
						<ele>141</ele>
						<time>2025-03-11T08:49:15Z</time>
					</trkpt>
					<trkpt lat="48.947550" lon="1.776260">
						<ele>141</ele>
						<time>2025-03-11T08:49:30Z</time>
					</trkpt>
					<trkpt lat="48.947000" lon="1.776120">
						<ele>143</ele>
						<time>2025-03-11T08:49:58Z</time>
					</trkpt>
					<trkpt lat="48.946880" lon="1.776130">
						<ele>143</ele>
						<time>2025-03-11T08:50:04Z</time>
					</trkpt>
					<trkpt lat="48.947210" lon="1.774300">
						<ele>145</ele>
						<time>2025-03-11T08:51:06Z</time>
					</trkpt>
					<trkpt lat="48.947310" lon="1.773450">
						<ele>145</ele>
						<time>2025-03-11T08:51:35Z</time>
					</trkpt>
					<trkpt lat="48.947210" lon="1.773350">
						<ele>145</ele>
						<time>2025-03-11T08:51:41Z</time>
					</trkpt>
					<trkpt lat="48.947150" lon="1.773140">
						<ele>145</ele>
						<time>2025-03-11T08:51:48Z</time>
					</trkpt>
					<trkpt lat="48.947030" lon="1.773000">
						<ele>146</ele>
						<time>2025-03-11T08:51:56Z</time>
					</trkpt>
					<trkpt lat="48.946990" lon="1.773090">
						<ele>146</ele>
						<time>2025-03-11T08:51:59Z</time>
					</trkpt>
					<trkpt lat="48.947040" lon="1.773200">
						<ele>146</ele>
						<time>2025-03-11T08:52:04Z</time>
					</trkpt>
					<trkpt lat="48.946830" lon="1.773510">
						<ele>149</ele>
						<time>2025-03-11T08:52:18Z</time>
					</trkpt>
					<trkpt lat="48.946650" lon="1.773550">
						<ele>150</ele>
						<time>2025-03-11T08:52:27Z</time>
					</trkpt>
					<trkpt lat="48.946440" lon="1.773520">
						<ele>150</ele>
						<time>2025-03-11T08:52:38Z</time>
					</trkpt>
					<trkpt lat="48.946340" lon="1.773620">
						<ele>150</ele>
						<time>2025-03-11T08:52:44Z</time>
					</trkpt>
					<trkpt lat="48.946000" lon="1.773420">
						<ele>151</ele>
						<time>2025-03-11T08:53:02Z</time>
					</trkpt>
					<trkpt lat="48.945710" lon="1.772950">
						<ele>150</ele>
						<time>2025-03-11T08:53:23Z</time>
					</trkpt>
					<trkpt lat="48.945560" lon="1.772920">
						<ele>149</ele>
						<time>2025-03-11T08:53:31Z</time>
					</trkpt>
					<trkpt lat="48.945380" lon="1.772570">
						<ele>148</ele>
						<time>2025-03-11T08:53:46Z</time>
					</trkpt>
					<trkpt lat="48.945240" lon="1.772120">
						<ele>147</ele>
						<time>2025-03-11T08:54:02Z</time>
					</trkpt>
					<trkpt lat="48.945030" lon="1.772100">
						<ele>147</ele>
						<time>2025-03-11T08:54:12Z</time>
					</trkpt>
					<trkpt lat="48.944870" lon="1.770630">
						<ele>148</ele>
						<time>2025-03-11T08:55:01Z</time>
					</trkpt>
					<trkpt lat="48.944040" lon="1.770650">
						<ele>143</ele>
						<time>2025-03-11T08:55:43Z</time>
					</trkpt>
					<trkpt lat="48.943320" lon="1.770570">
						<ele>137</ele>
						<time>2025-03-11T08:56:19Z</time>
					</trkpt>
					<trkpt lat="48.942790" lon="1.770580">
						<ele>132</ele>
						<time>2025-03-11T08:56:46Z</time>
					</trkpt>
					<trkpt lat="48.941840" lon="1.771530">
						<ele>134</ele>
						<time>2025-03-11T08:57:43Z</time>
					</trkpt>
					<trkpt lat="48.941560" lon="1.771610">
						<ele>134</ele>
						<time>2025-03-11T08:57:57Z</time>
					</trkpt>
					<trkpt lat="48.940320" lon="1.770950">
						<ele>114</ele>
						<time>2025-03-11T08:59:03Z</time>
					</trkpt>
					<trkpt lat="48.939670" lon="1.771120">
						<ele>112</ele>
						<time>2025-03-11T08:59:36Z</time>
					</trkpt>
					<trkpt lat="48.939330" lon="1.771030">
						<ele>109</ele>
						<time>2025-03-11T08:59:53Z</time>
					</trkpt>
					<trkpt lat="48.939990" lon="1.770480">
						<ele>104</ele>
						<time>2025-03-11T09:00:30Z</time>
					</trkpt>
					<trkpt lat="48.940100" lon="1.770200">
						<ele>101</ele>
						<time>2025-03-11T09:00:41Z</time>
					</trkpt>
					<trkpt lat="48.939990" lon="1.770060">
						<ele>98</ele>
						<time>2025-03-11T09:00:48Z</time>
					</trkpt>
					<trkpt lat="48.940070" lon="1.769840">
						<ele>95</ele>
						<time>2025-03-11T09:00:57Z</time>
					</trkpt>
					<trkpt lat="48.939880" lon="1.769610">
						<ele>91</ele>
						<time>2025-03-11T09:01:09Z</time>
					</trkpt>
					<trkpt lat="48.939930" lon="1.769450">
						<ele>89</ele>
						<time>2025-03-11T09:01:15Z</time>
					</trkpt>
					<trkpt lat="48.939860" lon="1.769330">
						<ele>87</ele>
						<time>2025-03-11T09:01:20Z</time>
					</trkpt>
					<trkpt lat="48.939910" lon="1.769080">
						<ele>84</ele>
						<time>2025-03-11T09:01:28Z</time>
					</trkpt>
					<trkpt lat="48.939750" lon="1.768610">
						<ele>79</ele>
						<time>2025-03-11T09:01:46Z</time>
					</trkpt>
					<trkpt lat="48.939470" lon="1.768340">
						<ele>77</ele>
						<time>2025-03-11T09:02:02Z</time>
					</trkpt>
					<trkpt lat="48.939280" lon="1.767440">
						<ele>79</ele>
						<time>2025-03-11T09:02:34Z</time>
					</trkpt>
					<trkpt lat="48.936250" lon="1.769330">
						<ele>76</ele>
						<time>2025-03-11T09:05:17Z</time>
					</trkpt>
					<trkpt lat="48.936070" lon="1.769850">
						<ele>77</ele>
						<time>2025-03-11T09:05:37Z</time>
					</trkpt>
					<trkpt lat="48.936190" lon="1.770430">
						<ele>83</ele>
						<time>2025-03-11T09:05:57Z</time>
					</trkpt>
					<trkpt lat="48.936740" lon="1.770810">
						<ele>94</ele>
						<time>2025-03-11T09:06:27Z</time>
					</trkpt>
					<trkpt lat="48.937000" lon="1.771580">
						<ele>105</ele>
						<time>2025-03-11T09:06:55Z</time>
					</trkpt>
					<trkpt lat="48.936940" lon="1.772530">
						<ele>115</ele>
						<time>2025-03-11T09:07:27Z</time>
					</trkpt>
					<trkpt lat="48.937410" lon="1.773310">
						<ele>132</ele>
						<time>2025-03-11T09:08:02Z</time>
					</trkpt>
					<trkpt lat="48.937650" lon="1.774230">
						<ele>140</ele>
						<time>2025-03-11T09:08:34Z</time>
					</trkpt>
					<trkpt lat="48.937330" lon="1.774190">
						<ele>137</ele>
						<time>2025-03-11T09:08:50Z</time>
					</trkpt>
					<trkpt lat="48.935120" lon="1.771690">
						<ele>75</ele>
						<time>2025-03-11T09:11:08Z</time>
					</trkpt>
					<trkpt lat="48.934710" lon="1.772700">
						<ele>78</ele>
						<time>2025-03-11T09:11:47Z</time>
					</trkpt>
					<trkpt lat="48.934260" lon="1.773330">
						<ele>78</ele>
						<time>2025-03-11T09:12:18Z</time>
					</trkpt>
					<trkpt lat="48.933700" lon="1.773740">
						<ele>82</ele>
						<time>2025-03-11T09:12:49Z</time>
					</trkpt>
					<trkpt lat="48.933500" lon="1.773270">
						<ele>75</ele>
						<time>2025-03-11T09:13:07Z</time>
					</trkpt>
					<trkpt lat="48.933310" lon="1.771470">
						<ele>78</ele>
						<time>2025-03-11T09:14:07Z</time>
					</trkpt>
					<trkpt lat="48.932360" lon="1.768580">
						<ele>104</ele>
						<time>2025-03-11T09:15:53Z</time>
					</trkpt>
					<trkpt lat="48.931780" lon="1.767460">
						<ele>114</ele>
						<time>2025-03-11T09:16:40Z</time>
					</trkpt>
					<trkpt lat="48.931460" lon="1.766230">
						<ele>124</ele>
						<time>2025-03-11T09:17:24Z</time>
					</trkpt>
					<trkpt lat="48.931330" lon="1.764820">
						<ele>130</ele>
						<time>2025-03-11T09:18:10Z</time>
					</trkpt>
					<trkpt lat="48.931470" lon="1.764310">
						<ele>131</ele>
						<time>2025-03-11T09:18:29Z</time>
					</trkpt>
					<trkpt lat="48.928800" lon="1.766060">
						<ele>122</ele>
						<time>2025-03-11T09:20:54Z</time>
					</trkpt>
					<trkpt lat="48.926830" lon="1.764710">
						<ele>130</ele>
						<time>2025-03-11T09:22:42Z</time>
					</trkpt>
					<trkpt lat="48.925760" lon="1.767700">
						<ele>132</ele>
						<time>2025-03-11T09:24:34Z</time>
					</trkpt>
					<trkpt lat="48.925030" lon="1.767830">
						<ele>132</ele>
						<time>2025-03-11T09:25:11Z</time>
					</trkpt>
					<trkpt lat="48.922540" lon="1.766440">
						<ele>116</ele>
						<time>2025-03-11T09:27:24Z</time>
					</trkpt>
					<trkpt lat="48.921740" lon="1.766640">
						<ele>104</ele>
						<time>2025-03-11T09:28:04Z</time>
					</trkpt>
					<trkpt lat="48.920880" lon="1.766910">
						<ele>93</ele>
						<time>2025-03-11T09:28:48Z</time>
					</trkpt>
					<trkpt lat="48.920730" lon="1.766310">
						<ele>94</ele>
						<time>2025-03-11T09:29:09Z</time>
					</trkpt>
					<trkpt lat="48.920540" lon="1.765880">
						<ele>94</ele>
						<time>2025-03-11T09:29:26Z</time>
					</trkpt>
					<trkpt lat="48.919850" lon="1.764940">
						<ele>95</ele>
						<time>2025-03-11T09:30:13Z</time>
					</trkpt>
					<trkpt lat="48.919040" lon="1.763900">
						<ele>98</ele>
						<time>2025-03-11T09:31:06Z</time>
					</trkpt>
					<trkpt lat="48.918790" lon="1.762880">
						<ele>101</ele>
						<time>2025-03-11T09:31:41Z</time>
					</trkpt>
					<trkpt lat="48.917240" lon="1.761880">
						<ele>101</ele>
						<time>2025-03-11T09:33:06Z</time>
					</trkpt>
					<trkpt lat="48.916580" lon="1.761550">
						<ele>101</ele>
						<time>2025-03-11T09:33:40Z</time>
					</trkpt>
					<trkpt lat="48.915350" lon="1.762020">
						<ele>107</ele>
						<time>2025-03-11T09:34:44Z</time>
					</trkpt>
					<trkpt lat="48.914550" lon="1.761950">
						<ele>108</ele>
						<time>2025-03-11T09:35:24Z</time>
					</trkpt>
					<trkpt lat="48.912890" lon="1.760920">
						<ele>118</ele>
						<time>2025-03-11T09:36:54Z</time>
					</trkpt>
					<trkpt lat="48.911370" lon="1.759430">
						<ele>121</ele>
						<time>2025-03-11T09:38:24Z</time>
					</trkpt>
					<trkpt lat="48.909360" lon="1.758420">
						<ele>129</ele>
						<time>2025-03-11T09:40:10Z</time>
					</trkpt>
					<trkpt lat="48.908160" lon="1.759600">
						<ele>129</ele>
						<time>2025-03-11T09:41:22Z</time>
					</trkpt>
					<trkpt lat="48.906380" lon="1.756610">
						<ele>135</ele>
						<time>2025-03-11T09:43:34Z</time>
					</trkpt>
					<trkpt lat="48.905870" lon="1.755640">
						<ele>132</ele>
						<time>2025-03-11T09:44:15Z</time>
					</trkpt>
					<trkpt lat="48.905400" lon="1.754670">
						<ele>129</ele>
						<time>2025-03-11T09:44:55Z</time>
					</trkpt>
					<trkpt lat="48.904970" lon="1.753910">
						<ele>129</ele>
						<time>2025-03-11T09:45:28Z</time>
					</trkpt>
					<trkpt lat="48.901600" lon="1.748290">
						<ele>133</ele>
						<time>2025-03-11T09:49:38Z</time>
					</trkpt>
					<trkpt lat="48.900200" lon="1.745500">
						<ele>132</ele>
						<time>2025-03-11T09:51:34Z</time>
					</trkpt>
					<trkpt lat="48.899980" lon="1.744940">
						<ele>132</ele>
						<time>2025-03-11T09:51:55Z</time>
					</trkpt>
					<trkpt lat="48.899610" lon="1.744600">
						<ele>131</ele>
						<time>2025-03-11T09:52:17Z</time>
					</trkpt>
					<trkpt lat="48.898940" lon="1.745290">
						<ele>132</ele>
						<time>2025-03-11T09:52:57Z</time>
					</trkpt>
					<trkpt lat="48.898320" lon="1.746100">
						<ele>134</ele>
						<time>2025-03-11T09:53:38Z</time>
					</trkpt>
					<trkpt lat="48.898070" lon="1.746140">
						<ele>134</ele>
						<time>2025-03-11T09:53:51Z</time>
					</trkpt>
					<trkpt lat="48.897270" lon="1.745890">
						<ele>135</ele>
						<time>2025-03-11T09:54:31Z</time>
					</trkpt>
					<trkpt lat="48.894570" lon="1.746110">
						<ele>139</ele>
						<time>2025-03-11T09:56:47Z</time>
					</trkpt>
					<trkpt lat="48.894220" lon="1.746260">
						<ele>140</ele>
						<time>2025-03-11T09:57:05Z</time>
					</trkpt>
					<trkpt lat="48.893740" lon="1.746650">
						<ele>141</ele>
						<time>2025-03-11T09:57:32Z</time>
					</trkpt>
					<trkpt lat="48.892560" lon="1.748000">
						<ele>140</ele>
						<time>2025-03-11T09:58:46Z</time>
					</trkpt>
					<trkpt lat="48.891490" lon="1.750330">
						<ele>137</ele>
						<time>2025-03-11T10:00:20Z</time>
					</trkpt>
					<trkpt lat="48.891280" lon="1.750760">
						<ele>136</ele>
						<time>2025-03-11T10:00:37Z</time>
					</trkpt>
					<trkpt lat="48.891090" lon="1.751020">
						<ele>136</ele>
						<time>2025-03-11T10:00:50Z</time>
					</trkpt>
					<trkpt lat="48.890510" lon="1.751450">
						<ele>136</ele>
						<time>2025-03-11T10:01:22Z</time>
					</trkpt>
					<trkpt lat="48.889670" lon="1.751720">
						<ele>136</ele>
						<time>2025-03-11T10:02:05Z</time>
					</trkpt>
					<trkpt lat="48.889270" lon="1.751990">
						<ele>137</ele>
						<time>2025-03-11T10:02:27Z</time>
					</trkpt>
					<trkpt lat="48.888910" lon="1.752370">
						<ele>137</ele>
						<time>2025-03-11T10:02:49Z</time>
					</trkpt>
					<trkpt lat="48.886660" lon="1.748300">
						<ele>148</ele>
						<time>2025-03-11T10:05:44Z</time>
					</trkpt>
					<trkpt lat="48.886830" lon="1.747910">
						<ele>149</ele>
						<time>2025-03-11T10:05:59Z</time>
					</trkpt>
					<trkpt lat="48.885940" lon="1.747290">
						<ele>153</ele>
						<time>2025-03-11T10:06:48Z</time>
					</trkpt>
					<trkpt lat="48.885620" lon="1.747260">
						<ele>155</ele>
						<time>2025-03-11T10:07:04Z</time>
					</trkpt>
					<trkpt lat="48.884180" lon="1.747510">
						<ele>164</ele>
						<time>2025-03-11T10:08:17Z</time>
					</trkpt>
					<trkpt lat="48.883540" lon="1.747500">
						<ele>169</ele>
						<time>2025-03-11T10:08:49Z</time>
					</trkpt>
					<trkpt lat="48.883000" lon="1.747720">
						<ele>170</ele>
						<time>2025-03-11T10:09:17Z</time>
					</trkpt>
					<trkpt lat="48.882150" lon="1.747990">
						<ele>172</ele>
						<time>2025-03-11T10:10:00Z</time>
					</trkpt>
					<trkpt lat="48.881440" lon="1.748290">
						<ele>174</ele>
						<time>2025-03-11T10:10:37Z</time>
					</trkpt>
					<trkpt lat="48.880550" lon="1.749130">
						<ele>174</ele>
						<time>2025-03-11T10:11:30Z</time>
					</trkpt>
					<trkpt lat="48.879700" lon="1.750410">
						<ele>176</ele>
						<time>2025-03-11T10:12:30Z</time>
					</trkpt>
					<trkpt lat="48.879420" lon="1.748240">
						<ele>179</ele>
						<time>2025-03-11T10:13:42Z</time>
					</trkpt>
					<trkpt lat="48.878920" lon="1.747190">
						<ele>179</ele>
						<time>2025-03-11T10:14:25Z</time>
					</trkpt>
					<trkpt lat="48.878540" lon="1.746670">
						<ele>177</ele>
						<time>2025-03-11T10:14:51Z</time>
					</trkpt>
					<trkpt lat="48.878050" lon="1.746400">
						<ele>173</ele>
						<time>2025-03-11T10:15:17Z</time>
					</trkpt>
					<trkpt lat="48.877920" lon="1.746250">
						<ele>171</ele>
						<time>2025-03-11T10:15:25Z</time>
					</trkpt>
					<trkpt lat="48.877840" lon="1.746090">
						<ele>170</ele>
						<time>2025-03-11T10:15:32Z</time>
					</trkpt>
					<trkpt lat="48.877610" lon="1.744960">
						<ele>166</ele>
						<time>2025-03-11T10:16:10Z</time>
					</trkpt>
					<trkpt lat="48.877460" lon="1.744030">
						<ele>162</ele>
						<time>2025-03-11T10:16:42Z</time>
					</trkpt>
					<trkpt lat="48.876780" lon="1.744780">
						<ele>157</ele>
						<time>2025-03-11T10:17:24Z</time>
					</trkpt>
					<trkpt lat="48.874910" lon="1.741010">
						<ele>141</ele>
						<time>2025-03-11T10:19:59Z</time>
					</trkpt>
					<trkpt lat="48.873130" lon="1.740890">
						<ele>133</ele>
						<time>2025-03-11T10:21:29Z</time>
					</trkpt>
					<trkpt lat="48.871330" lon="1.739740">
						<ele>129</ele>
						<time>2025-03-11T10:23:06Z</time>
					</trkpt>
					<trkpt lat="48.866870" lon="1.742560">
						<ele>125</ele>
						<time>2025-03-11T10:27:08Z</time>
					</trkpt>
					<trkpt lat="48.864800" lon="1.743100">
						<ele>123</ele>
						<time>2025-03-11T10:28:53Z</time>
					</trkpt>
					<trkpt lat="48.862030" lon="1.741390">
						<ele>123</ele>
						<time>2025-03-11T10:31:23Z</time>
					</trkpt>
					<trkpt lat="48.861690" lon="1.741640">
						<ele>123</ele>
						<time>2025-03-11T10:31:42Z</time>
					</trkpt>
					<trkpt lat="48.860700" lon="1.740590">
						<ele>121</ele>
						<time>2025-03-11T10:32:42Z</time>
					</trkpt>
					<trkpt lat="48.860580" lon="1.741710">
						<ele>121</ele>
						<time>2025-03-11T10:33:19Z</time>
					</trkpt>
					<trkpt lat="48.859720" lon="1.742650">
						<ele>121</ele>
						<time>2025-03-11T10:34:12Z</time>
					</trkpt>
					<trkpt lat="48.858230" lon="1.741360">
						<ele>120</ele>
						<time>2025-03-11T10:35:38Z</time>
					</trkpt>
					<trkpt lat="48.857590" lon="1.741410">
						<ele>119</ele>
						<time>2025-03-11T10:36:10Z</time>
					</trkpt>
					<trkpt lat="48.856740" lon="1.740740">
						<ele>121</ele>
						<time>2025-03-11T10:36:58Z</time>
					</trkpt>
					<trkpt lat="48.855200" lon="1.742630">
						<ele>117</ele>
						<time>2025-03-11T10:38:37Z</time>
					</trkpt>
					<trkpt lat="48.854370" lon="1.745190">
						<ele>114</ele>
						<time>2025-03-11T10:40:11Z</time>
					</trkpt>
					<trkpt lat="48.852300" lon="1.743830">
						<ele>113</ele>
						<time>2025-03-11T10:42:04Z</time>
					</trkpt>
					<trkpt lat="48.851740" lon="1.745100">
						<ele>110</ele>
						<time>2025-03-11T10:42:54Z</time>
					</trkpt>
					<trkpt lat="48.850970" lon="1.746160">
						<ele>113</ele>
						<time>2025-03-11T10:43:46Z</time>
					</trkpt>
					<trkpt lat="48.850420" lon="1.747090">
						<ele>121</ele>
						<time>2025-03-11T10:44:28Z</time>
					</trkpt>
					<trkpt lat="48.849100" lon="1.746500">
						<ele>119</ele>
						<time>2025-03-11T10:45:36Z</time>
					</trkpt>
					<trkpt lat="48.848210" lon="1.746490">
						<ele>113</ele>
						<time>2025-03-11T10:46:21Z</time>
					</trkpt>
					<trkpt lat="48.847810" lon="1.746920">
						<ele>114</ele>
						<time>2025-03-11T10:46:46Z</time>
					</trkpt>
					<trkpt lat="48.846110" lon="1.747460">
						<ele>122</ele>
						<time>2025-03-11T10:48:12Z</time>
					</trkpt>
					<trkpt lat="48.845000" lon="1.749050">
						<ele>124</ele>
						<time>2025-03-11T10:49:29Z</time>
					</trkpt>
					<trkpt lat="48.842260" lon="1.744710">
						<ele>121</ele>
						<time>2025-03-11T10:52:47Z</time>
					</trkpt>
					<trkpt lat="48.838220" lon="1.739680">
						<ele>124</ele>
						<time>2025-03-11T10:57:08Z</time>
					</trkpt>
					<trkpt lat="48.836660" lon="1.737360">
						<ele>122</ele>
						<time>2025-03-11T10:58:57Z</time>
					</trkpt>
					<trkpt lat="48.836330" lon="1.737890">
						<ele>123</ele>
						<time>2025-03-11T10:59:21Z</time>
					</trkpt>
					<trkpt lat="48.833580" lon="1.733140">
						<ele>125</ele>
						<time>2025-03-11T11:02:50Z</time>
					</trkpt>
					<trkpt lat="48.830120" lon="1.729900">
						<ele>128</ele>
						<time>2025-03-11T11:06:13Z</time>
					</trkpt>
					<trkpt lat="48.829390" lon="1.729590">
						<ele>128</ele>
						<time>2025-03-11T11:06:51Z</time>
					</trkpt>
					<trkpt lat="48.829200" lon="1.729240">
						<ele>129</ele>
						<time>2025-03-11T11:07:06Z</time>
					</trkpt>
					<trkpt lat="48.828210" lon="1.728550">
						<ele>128</ele>
						<time>2025-03-11T11:08:01Z</time>
					</trkpt>
					<trkpt lat="48.823700" lon="1.723970">
						<ele>133</ele>
						<time>2025-03-11T11:12:32Z</time>
					</trkpt>
					<trkpt lat="48.823440" lon="1.721500">
						<ele>137</ele>
						<time>2025-03-11T11:13:55Z</time>
					</trkpt>
					<trkpt lat="48.823640" lon="1.718600">
						<ele>136</ele>
						<time>2025-03-11T11:15:31Z</time>
					</trkpt>
					<trkpt lat="48.822650" lon="1.717850">
						<ele>135</ele>
						<time>2025-03-11T11:16:26Z</time>
					</trkpt>
					<trkpt lat="48.822340" lon="1.718630">
						<ele>135</ele>
						<time>2025-03-11T11:16:56Z</time>
					</trkpt>
					<trkpt lat="48.821750" lon="1.718890">
						<ele>135</ele>
						<time>2025-03-11T11:17:27Z</time>
					</trkpt>
					<trkpt lat="48.819720" lon="1.718920">
						<ele>142</ele>
						<time>2025-03-11T11:19:08Z</time>
					</trkpt>
					<trkpt lat="48.818320" lon="1.717520">
						<ele>143</ele>
						<time>2025-03-11T11:20:32Z</time>
					</trkpt>
					<trkpt lat="48.816970" lon="1.716050">
						<ele>144</ele>
						<time>2025-03-11T11:21:55Z</time>
					</trkpt>
					<trkpt lat="48.816710" lon="1.715280">
						<ele>145</ele>
						<time>2025-03-11T11:22:24Z</time>
					</trkpt>
					<trkpt lat="48.815610" lon="1.714970">
						<ele>140</ele>
						<time>2025-03-11T11:23:20Z</time>
					</trkpt>
					<trkpt lat="48.815580" lon="1.712990">
						<ele>140</ele>
						<time>2025-03-11T11:24:25Z</time>
					</trkpt>
					<trkpt lat="48.815210" lon="1.712070">
						<ele>143</ele>
						<time>2025-03-11T11:25:01Z</time>
					</trkpt>
					<trkpt lat="48.814560" lon="1.708420">
						<ele>156</ele>
						<time>2025-03-11T11:27:05Z</time>
					</trkpt>
					<trkpt lat="48.813920" lon="1.706520">
						<ele>169</ele>
						<time>2025-03-11T11:28:16Z</time>
					</trkpt>
					<trkpt lat="48.813130" lon="1.705360">
						<ele>181</ele>
						<time>2025-03-11T11:29:11Z</time>
					</trkpt>
					<trkpt lat="48.812410" lon="1.702430">
						<ele>189</ele>
						<time>2025-03-11T11:30:54Z</time>
					</trkpt>
					<trkpt lat="48.813610" lon="1.701550">
						<ele>186</ele>
						<time>2025-03-11T11:32:00Z</time>
					</trkpt>
					<trkpt lat="48.811150" lon="1.697650">
						<ele>184</ele>
						<time>2025-03-11T11:34:58Z</time>
					</trkpt>
					<trkpt lat="48.810970" lon="1.697430">
						<ele>184</ele>
						<time>2025-03-11T11:35:10Z</time>
					</trkpt>
					<trkpt lat="48.810500" lon="1.697040">
						<ele>183</ele>
						<time>2025-03-11T11:35:37Z</time>
					</trkpt>
					<trkpt lat="48.809730" lon="1.696580">
						<ele>182</ele>
						<time>2025-03-11T11:36:18Z</time>
					</trkpt>
					<trkpt lat="48.809130" lon="1.696090">
						<ele>182</ele>
						<time>2025-03-11T11:36:52Z</time>
					</trkpt>
					<trkpt lat="48.808170" lon="1.695390">
						<ele>180</ele>
						<time>2025-03-11T11:37:45Z</time>
					</trkpt>
					<trkpt lat="48.806410" lon="1.694240">
						<ele>176</ele>
						<time>2025-03-11T11:39:21Z</time>
					</trkpt>
					<trkpt lat="48.806210" lon="1.694030">
						<ele>176</ele>
						<time>2025-03-11T11:39:33Z</time>
					</trkpt>
					<trkpt lat="48.806070" lon="1.693410">
						<ele>176</ele>
						<time>2025-03-11T11:39:55Z</time>
					</trkpt>
					<trkpt lat="48.805850" lon="1.692920">
						<ele>175</ele>
						<time>2025-03-11T11:40:15Z</time>
					</trkpt>
					<trkpt lat="48.803430" lon="1.689610">
						<ele>187</ele>
						<time>2025-03-11T11:42:58Z</time>
					</trkpt>
					<trkpt lat="48.802960" lon="1.689370">
						<ele>188</ele>
						<time>2025-03-11T11:43:22Z</time>
					</trkpt>
					<trkpt lat="48.802150" lon="1.688690">
						<ele>187</ele>
						<time>2025-03-11T11:44:09Z</time>
					</trkpt>
					<trkpt lat="48.800860" lon="1.687510">
						<ele>189</ele>
						<time>2025-03-11T11:45:24Z</time>
					</trkpt>
					<trkpt lat="48.799670" lon="1.686580">
						<ele>181</ele>
						<time>2025-03-11T11:46:31Z</time>
					</trkpt>
					<trkpt lat="48.798930" lon="1.686580">
						<ele>174</ele>
						<time>2025-03-11T11:47:08Z</time>
					</trkpt>
					<trkpt lat="48.798570" lon="1.686480">
						<ele>169</ele>
						<time>2025-03-11T11:47:26Z</time>
					</trkpt>
					<trkpt lat="48.798190" lon="1.686240">
						<ele>162</ele>
						<time>2025-03-11T11:47:47Z</time>
					</trkpt>
					<trkpt lat="48.797760" lon="1.685720">
						<ele>154</ele>
						<time>2025-03-11T11:48:15Z</time>
					</trkpt>
					<trkpt lat="48.797680" lon="1.685530">
						<ele>153</ele>
						<time>2025-03-11T11:48:22Z</time>
					</trkpt>
					<trkpt lat="48.797450" lon="1.685240">
						<ele>151</ele>
						<time>2025-03-11T11:48:37Z</time>
					</trkpt>
					<trkpt lat="48.796810" lon="1.685240">
						<ele>146</ele>
						<time>2025-03-11T11:49:09Z</time>
					</trkpt>
					<trkpt lat="48.796710" lon="1.685280">
						<ele>146</ele>
						<time>2025-03-11T11:49:14Z</time>
					</trkpt>
					<trkpt lat="48.796640" lon="1.685480">
						<ele>145</ele>
						<time>2025-03-11T11:49:22Z</time>
					</trkpt>
					<trkpt lat="48.796610" lon="1.685190">
						<ele>145</ele>
						<time>2025-03-11T11:49:31Z</time>
					</trkpt>
					<trkpt lat="48.796640" lon="1.684320">
						<ele>144</ele>
						<time>2025-03-11T11:50:00Z</time>
					</trkpt>
					<trkpt lat="48.796600" lon="1.684080">
						<ele>143</ele>
						<time>2025-03-11T11:50:08Z</time>
					</trkpt>
					<trkpt lat="48.795510" lon="1.682230">
						<ele>136</ele>
						<time>2025-03-11T11:51:30Z</time>
					</trkpt>
					<trkpt lat="48.795060" lon="1.682870">
						<ele>133</ele>
						<time>2025-03-11T11:52:01Z</time>
					</trkpt>
					<trkpt lat="48.794610" lon="1.683890">
						<ele>132</ele>
						<time>2025-03-11T11:52:41Z</time>
					</trkpt>
					<trkpt lat="48.793170" lon="1.685830">
						<ele>132</ele>
						<time>2025-03-11T11:54:18Z</time>
					</trkpt>
					<trkpt lat="48.792790" lon="1.684920">
						<ele>129</ele>
						<time>2025-03-11T11:54:53Z</time>
					</trkpt>
					<trkpt lat="48.792030" lon="1.685190">
						<ele>129</ele>
						<time>2025-03-11T11:55:32Z</time>
					</trkpt>
					<trkpt lat="48.791700" lon="1.685040">
						<ele>129</ele>
						<time>2025-03-11T11:55:49Z</time>
					</trkpt>
					<trkpt lat="48.791570" lon="1.685060">
						<ele>129</ele>
						<time>2025-03-11T11:55:56Z</time>
					</trkpt>
					<trkpt lat="48.783930" lon="1.688750">
						<ele>143</ele>
						<time>2025-03-11T12:02:37Z</time>
					</trkpt>
					<trkpt lat="48.783730" lon="1.688730">
						<ele>143</ele>
						<time>2025-03-11T12:02:47Z</time>
					</trkpt>
					<trkpt lat="48.783160" lon="1.689070">
						<ele>141</ele>
						<time>2025-03-11T12:03:18Z</time>
					</trkpt>
					<trkpt lat="48.782260" lon="1.690240">
						<ele>133</ele>
						<time>2025-03-11T12:04:17Z</time>
					</trkpt>
					<trkpt lat="48.782110" lon="1.690120">
						<ele>133</ele>
						<time>2025-03-11T12:04:26Z</time>
					</trkpt>
					<trkpt lat="48.780950" lon="1.690940">
						<ele>128</ele>
						<time>2025-03-11T12:05:30Z</time>
					</trkpt>
					<trkpt lat="48.780380" lon="1.691910">
						<ele>127</ele>
						<time>2025-03-11T12:06:13Z</time>
					</trkpt>
					<trkpt lat="48.779680" lon="1.694190">
						<ele>120</ele>
						<time>2025-03-11T12:07:36Z</time>
					</trkpt>
					<trkpt lat="48.778750" lon="1.695920">
						<ele>116</ele>
						<time>2025-03-11T12:08:49Z</time>
					</trkpt>
					<trkpt lat="48.778450" lon="1.696380">
						<ele>116</ele>
						<time>2025-03-11T12:09:10Z</time>
					</trkpt>
					<trkpt lat="48.778140" lon="1.697150">
						<ele>115</ele>
						<time>2025-03-11T12:09:40Z</time>
					</trkpt>
					<trkpt lat="48.777440" lon="1.698660">
						<ele>112</ele>
						<time>2025-03-11T12:10:41Z</time>
					</trkpt>
					<trkpt lat="48.776360" lon="1.700520">
						<ele>120</ele>
						<time>2025-03-11T12:12:03Z</time>
					</trkpt>
					<trkpt lat="48.776270" lon="1.701330">
						<ele>126</ele>
						<time>2025-03-11T12:12:30Z</time>
					</trkpt>
					<trkpt lat="48.776640" lon="1.702280">
						<ele>131</ele>
						<time>2025-03-11T12:13:06Z</time>
					</trkpt>
					<trkpt lat="48.776070" lon="1.702530">
						<ele>131</ele>
						<time>2025-03-11T12:13:36Z</time>
					</trkpt>
					<trkpt lat="48.774740" lon="1.705550">
						<ele>130</ele>
						<time>2025-03-11T12:15:36Z</time>
					</trkpt>
					<trkpt lat="48.775370" lon="1.706060">
						<ele>131</ele>
						<time>2025-03-11T12:16:12Z</time>
					</trkpt>
					<trkpt lat="48.778020" lon="1.708520">
						<ele>138</ele>
						<time>2025-03-11T12:18:47Z</time>
					</trkpt>
					<trkpt lat="48.778500" lon="1.709520">
						<ele>142</ele>
						<time>2025-03-11T12:19:28Z</time>
					</trkpt>
					<trkpt lat="48.776860" lon="1.711950">
						<ele>144</ele>
						<time>2025-03-11T12:21:23Z</time>
					</trkpt>
					<trkpt lat="48.773160" lon="1.717890">
						<ele>163</ele>
						<time>2025-03-11T12:25:52Z</time>
					</trkpt>
					<trkpt lat="48.769990" lon="1.720610">
						<ele>149</ele>
						<time>2025-03-11T12:28:54Z</time>
					</trkpt>
					<trkpt lat="48.768230" lon="1.721590">
						<ele>158</ele>
						<time>2025-03-11T12:30:28Z</time>
					</trkpt>
					<trkpt lat="48.767110" lon="1.721700">
						<ele>150</ele>
						<time>2025-03-11T12:31:24Z</time>
					</trkpt>
					<trkpt lat="48.766610" lon="1.721630">
						<ele>147</ele>
						<time>2025-03-11T12:31:49Z</time>
					</trkpt>
					<trkpt lat="48.764960" lon="1.721940">
						<ele>140</ele>
						<time>2025-03-11T12:33:13Z</time>
					</trkpt>
					<trkpt lat="48.762470" lon="1.722340">
						<ele>129</ele>
						<time>2025-03-11T12:35:18Z</time>
					</trkpt>
					<trkpt lat="48.760520" lon="1.722230">
						<ele>124</ele>
						<time>2025-03-11T12:36:56Z</time>
					</trkpt>
					<trkpt lat="48.758790" lon="1.722390">
						<ele>137</ele>
						<time>2025-03-11T12:38:22Z</time>
					</trkpt>
					<trkpt lat="48.756840" lon="1.720370">
						<ele>161</ele>
						<time>2025-03-11T12:40:20Z</time>
					</trkpt>
					<trkpt lat="48.750120" lon="1.720910">
						<ele>184</ele>
						<time>2025-03-11T12:45:57Z</time>
					</trkpt>
					<trkpt lat="48.749810" lon="1.719160">
						<ele>181</ele>
						<time>2025-03-11T12:46:57Z</time>
					</trkpt>
					<trkpt lat="48.743770" lon="1.720460">
						<ele>142</ele>
						<time>2025-03-11T12:52:02Z</time>
					</trkpt>
					<trkpt lat="48.742980" lon="1.721480">
						<ele>143</ele>
						<time>2025-03-11T12:52:54Z</time>
					</trkpt>
					<trkpt lat="48.736260" lon="1.711510">
						<ele>127</ele>
						<time>2025-03-11T13:00:45Z</time>
					</trkpt>
					<trkpt lat="48.731450" lon="1.711530">
						<ele>124</ele>
						<time>2025-03-11T13:04:45Z</time>
					</trkpt>
					<trkpt lat="48.730070" lon="1.711560">
						<ele>120</ele>
						<time>2025-03-11T13:05:54Z</time>
					</trkpt>
					<trkpt lat="48.729860" lon="1.711520">
						<ele>120</ele>
						<time>2025-03-11T13:06:05Z</time>
					</trkpt>
					<trkpt lat="48.727140" lon="1.710130">
						<ele>120</ele>
						<time>2025-03-11T13:08:29Z</time>
					</trkpt>
					<trkpt lat="48.725810" lon="1.710080">
						<ele>121</ele>
						<time>2025-03-11T13:09:35Z</time>
					</trkpt>
					<trkpt lat="48.719110" lon="1.712600">
						<ele>127</ele>
						<time>2025-03-11T13:15:21Z</time>
					</trkpt>
					<trkpt lat="48.720570" lon="1.721550">
						<ele>128</ele>
						<time>2025-03-11T13:20:25Z</time>
					</trkpt>
					<trkpt lat="48.720390" lon="1.721420">
						<ele>130</ele>
						<time>2025-03-11T13:20:35Z</time>
					</trkpt>
					<trkpt lat="48.717480" lon="1.719710">
						<ele>134</ele>
						<time>2025-03-11T13:23:11Z</time>
					</trkpt>
					<trkpt lat="48.715950" lon="1.718920">
						<ele>142</ele>
						<time>2025-03-11T13:24:32Z</time>
					</trkpt>
					<trkpt lat="48.713330" lon="1.718340">
						<ele>150</ele>
						<time>2025-03-11T13:26:45Z</time>
					</trkpt>
					<trkpt lat="48.712720" lon="1.718040">
						<ele>156</ele>
						<time>2025-03-11T13:27:17Z</time>
					</trkpt>
					<trkpt lat="48.712230" lon="1.717870">
						<ele>162</ele>
						<time>2025-03-11T13:27:42Z</time>
					</trkpt>
					<trkpt lat="48.711710" lon="1.717530">
						<ele>169</ele>
						<time>2025-03-11T13:28:10Z</time>
					</trkpt>
					<trkpt lat="48.711150" lon="1.716800">
						<ele>171</ele>
						<time>2025-03-11T13:28:47Z</time>
					</trkpt>
					<trkpt lat="48.710510" lon="1.716310">
						<ele>178</ele>
						<time>2025-03-11T13:29:23Z</time>
					</trkpt>
					<trkpt lat="48.709980" lon="1.716040">
						<ele>184</ele>
						<time>2025-03-11T13:29:51Z</time>
					</trkpt>
					<trkpt lat="48.711680" lon="1.721160">
						<ele>167</ele>
						<time>2025-03-11T13:33:00Z</time>
					</trkpt>
					<trkpt lat="48.712500" lon="1.723740">
						<ele>177</ele>
						<time>2025-03-11T13:34:35Z</time>
					</trkpt>
					<trkpt lat="48.712790" lon="1.724500">
						<ele>172</ele>
						<time>2025-03-11T13:35:04Z</time>
					</trkpt>
					<trkpt lat="48.713500" lon="1.729790">
						<ele>176</ele>
						<time>2025-03-11T13:38:02Z</time>
					</trkpt>
					<trkpt lat="48.713430" lon="1.730290">
						<ele>177</ele>
						<time>2025-03-11T13:38:19Z</time>
					</trkpt>
					<trkpt lat="48.713400" lon="1.730720">
						<ele>175</ele>
						<time>2025-03-11T13:38:33Z</time>
					</trkpt>
					<trkpt lat="48.713230" lon="1.731180">
						<ele>174</ele>
						<time>2025-03-11T13:38:51Z</time>
					</trkpt>
					<trkpt lat="48.713180" lon="1.731470">
						<ele>172</ele>
						<time>2025-03-11T13:39:01Z</time>
					</trkpt>
					<trkpt lat="48.713260" lon="1.732190">
						<ele>168</ele>
						<time>2025-03-11T13:39:25Z</time>
					</trkpt>
					<trkpt lat="48.713420" lon="1.732850">
						<ele>164</ele>
						<time>2025-03-11T13:39:48Z</time>
					</trkpt>
					<trkpt lat="48.713690" lon="1.733400">
						<ele>161</ele>
						<time>2025-03-11T13:40:11Z</time>
					</trkpt>
					<trkpt lat="48.713920" lon="1.733780">
						<ele>159</ele>
						<time>2025-03-11T13:40:28Z</time>
					</trkpt>
					<trkpt lat="48.714140" lon="1.733880">
						<ele>156</ele>
						<time>2025-03-11T13:40:39Z</time>
					</trkpt>
					<trkpt lat="48.714300" lon="1.733990">
						<ele>155</ele>
						<time>2025-03-11T13:40:48Z</time>
					</trkpt>
					<trkpt lat="48.714330" lon="1.734320">
						<ele>157</ele>
						<time>2025-03-11T13:40:59Z</time>
					</trkpt>
					<trkpt lat="48.714600" lon="1.734850">
						<ele>158</ele>
						<time>2025-03-11T13:41:21Z</time>
					</trkpt>
					<trkpt lat="48.714580" lon="1.735670">
						<ele>159</ele>
						<time>2025-03-11T13:41:48Z</time>
					</trkpt>
					<trkpt lat="48.715070" lon="1.735580">
						<ele>153</ele>
						<time>2025-03-11T13:42:13Z</time>
					</trkpt>
					<trkpt lat="48.717550" lon="1.734900">
						<ele>137</ele>
						<time>2025-03-11T13:44:19Z</time>
					</trkpt>
					<trkpt lat="48.719490" lon="1.734540">
						<ele>131</ele>
						<time>2025-03-11T13:45:57Z</time>
					</trkpt>
					<trkpt lat="48.721330" lon="1.733910">
						<ele>128</ele>
						<time>2025-03-11T13:47:31Z</time>
					</trkpt>
					<trkpt lat="48.722780" lon="1.733910">
						<ele>128</ele>
						<time>2025-03-11T13:48:44Z</time>
					</trkpt>
					<trkpt lat="48.725390" lon="1.734720">
						<ele>128</ele>
						<time>2025-03-11T13:50:57Z</time>
					</trkpt>
					<trkpt lat="48.730790" lon="1.740180">
						<ele>137</ele>
						<time>2025-03-11T13:56:22Z</time>
					</trkpt>
					<trkpt lat="48.732550" lon="1.742020">
						<ele>142</ele>
						<time>2025-03-11T13:58:09Z</time>
					</trkpt>
					<trkpt lat="48.732990" lon="1.742420">
						<ele>141</ele>
						<time>2025-03-11T13:58:34Z</time>
					</trkpt>
					<trkpt lat="48.734090" lon="1.739500">
						<ele>141</ele>
						<time>2025-03-11T14:00:25Z</time>
					</trkpt>
					<trkpt lat="48.735630" lon="1.742320">
						<ele>141</ele>
						<time>2025-03-11T14:02:26Z</time>
					</trkpt>
					<trkpt lat="48.738870" lon="1.738200">
						<ele>180</ele>
						<time>2025-03-11T14:05:58Z</time>
					</trkpt>
					<trkpt lat="48.740260" lon="1.749920">
						<ele>185</ele>
						<time>2025-03-11T14:12:31Z</time>
					</trkpt>
					<trkpt lat="48.741050" lon="1.751260">
						<ele>185</ele>
						<time>2025-03-11T14:13:30Z</time>
					</trkpt>
					<trkpt lat="48.743280" lon="1.751250">
						<ele>178</ele>
						<time>2025-03-11T14:15:22Z</time>
					</trkpt>
					<trkpt lat="48.741460" lon="1.758670">
						<ele>173</ele>
						<time>2025-03-11T14:19:43Z</time>
					</trkpt>
					<trkpt lat="48.740410" lon="1.763530">
						<ele>178</ele>
						<time>2025-03-11T14:22:32Z</time>
					</trkpt>
					<trkpt lat="48.741630" lon="1.763540">
						<ele>165</ele>
						<time>2025-03-11T14:23:33Z</time>
					</trkpt>
					<trkpt lat="48.742210" lon="1.763800">
						<ele>156</ele>
						<time>2025-03-11T14:24:03Z</time>
					</trkpt>
					<trkpt lat="48.742160" lon="1.764520">
						<ele>154</ele>
						<time>2025-03-11T14:24:27Z</time>
					</trkpt>
					<trkpt lat="48.742430" lon="1.765410">
						<ele>151</ele>
						<time>2025-03-11T14:24:59Z</time>
					</trkpt>
					<trkpt lat="48.741910" lon="1.767650">
						<ele>152</ele>
						<time>2025-03-11T14:26:18Z</time>
					</trkpt>
					<trkpt lat="48.742570" lon="1.772990">
						<ele>180</ele>
						<time>2025-03-11T14:29:17Z</time>
					</trkpt>
					<trkpt lat="48.741600" lon="1.773010">
						<ele>172</ele>
						<time>2025-03-11T14:30:06Z</time>
					</trkpt>
					<trkpt lat="48.740590" lon="1.775090">
						<ele>166</ele>
						<time>2025-03-11T14:31:31Z</time>
					</trkpt>
					<trkpt lat="48.739110" lon="1.775200">
						<ele>168</ele>
						<time>2025-03-11T14:32:45Z</time>
					</trkpt>
					<trkpt lat="48.738180" lon="1.773900">
						<ele>167</ele>
						<time>2025-03-11T14:33:48Z</time>
					</trkpt>
					<trkpt lat="48.735970" lon="1.779230">
						<ele>166</ele>
						<time>2025-03-11T14:37:16Z</time>
					</trkpt>
					<trkpt lat="48.737260" lon="1.783830">
						<ele>180</ele>
						<time>2025-03-11T14:40:01Z</time>
					</trkpt>
					<trkpt lat="48.738500" lon="1.790440">
						<ele>191</ele>
						<time>2025-03-11T14:43:48Z</time>
					</trkpt>
					<trkpt lat="48.735220" lon="1.794020">
						<ele>192</ele>
						<time>2025-03-11T14:47:10Z</time>
					</trkpt>
					<trkpt lat="48.732800" lon="1.794400">
						<ele>183</ele>
						<time>2025-03-11T14:49:12Z</time>
					</trkpt>
					<trkpt lat="48.731480" lon="1.797520">
						<ele>179</ele>
						<time>2025-03-11T14:51:14Z</time>
					</trkpt>
					<trkpt lat="48.732320" lon="1.794340">
						<ele>179</ele>
						<time>2025-03-11T14:53:07Z</time>
					</trkpt>
					<trkpt lat="48.732430" lon="1.793800">
						<ele>179</ele>
						<time>2025-03-11T14:53:26Z</time>
					</trkpt>
					<trkpt lat="48.732490" lon="1.793240">
						<ele>180</ele>
						<time>2025-03-11T14:53:45Z</time>
					</trkpt>
					<trkpt lat="48.732370" lon="1.792460">
						<ele>179</ele>
						<time>2025-03-11T14:54:11Z</time>
					</trkpt>
					<trkpt lat="48.733070" lon="1.790440">
						<ele>174</ele>
						<time>2025-03-11T14:55:26Z</time>
					</trkpt>
					<trkpt lat="48.732050" lon="1.788200">
						<ele>179</ele>
						<time>2025-03-11T14:56:56Z</time>
					</trkpt>
					<trkpt lat="48.730880" lon="1.783610">
						<ele>183</ele>
						<time>2025-03-11T14:59:39Z</time>
					</trkpt>
					<trkpt lat="48.729550" lon="1.782530">
						<ele>180</ele>
						<time>2025-03-11T15:00:54Z</time>
					</trkpt>
					<trkpt lat="48.727840" lon="1.781030">
						<ele>180</ele>
						<time>2025-03-11T15:02:33Z</time>
					</trkpt>
					<trkpt lat="48.726560" lon="1.779640">
						<ele>182</ele>
						<time>2025-03-11T15:03:52Z</time>
					</trkpt>
					<trkpt lat="48.724350" lon="1.787030">
						<ele>176</ele>
						<time>2025-03-11T15:08:20Z</time>
					</trkpt>
					<trkpt lat="48.723610" lon="1.786510">
						<ele>174</ele>
						<time>2025-03-11T15:09:00Z</time>
					</trkpt>
					<trkpt lat="48.722890" lon="1.785260">
						<ele>166</ele>
						<time>2025-03-11T15:09:55Z</time>
					</trkpt>
					<trkpt lat="48.721750" lon="1.784890">
						<ele>163</ele>
						<time>2025-03-11T15:10:54Z</time>
					</trkpt>
					<trkpt lat="48.721460" lon="1.784320">
						<ele>167</ele>
						<time>2025-03-11T15:11:17Z</time>
					</trkpt>
					<trkpt lat="48.721430" lon="1.783430">
						<ele>177</ele>
						<time>2025-03-11T15:11:47Z</time>
					</trkpt>
					<trkpt lat="48.720550" lon="1.784020">
						<ele>175</ele>
						<time>2025-03-11T15:12:35Z</time>
					</trkpt>
					<trkpt lat="48.717430" lon="1.785780">
						<ele>179</ele>
						<time>2025-03-11T15:15:22Z</time>
					</trkpt>
					<trkpt lat="48.716620" lon="1.784950">
						<ele>183</ele>
						<time>2025-03-11T15:16:10Z</time>
					</trkpt>
					<trkpt lat="48.716360" lon="1.783680">
						<ele>178</ele>
						<time>2025-03-11T15:16:54Z</time>
					</trkpt>
					<trkpt lat="48.712820" lon="1.782060">
						<ele>177</ele>
						<time>2025-03-11T15:19:59Z</time>
					</trkpt>
					<trkpt lat="48.711290" lon="1.780040">
						<ele>172</ele>
						<time>2025-03-11T15:21:41Z</time>
					</trkpt>
					<trkpt lat="48.711000" lon="1.781420">
						<ele>173</ele>
						<time>2025-03-11T15:22:29Z</time>
					</trkpt>
					<trkpt lat="48.710670" lon="1.782210">
						<ele>173</ele>
						<time>2025-03-11T15:23:00Z</time>
					</trkpt>
					<trkpt lat="48.710360" lon="1.782370">
						<ele>173</ele>
						<time>2025-03-11T15:23:16Z</time>
					</trkpt>
					<trkpt lat="48.710050" lon="1.782240">
						<ele>173</ele>
						<time>2025-03-11T15:23:32Z</time>
					</trkpt>
					<trkpt lat="48.709130" lon="1.783860">
						<ele>174</ele>
						<time>2025-03-11T15:24:43Z</time>
					</trkpt>
					<trkpt lat="48.708270" lon="1.785850">
						<ele>179</ele>
						<time>2025-03-11T15:26:01Z</time>
					</trkpt>
					<trkpt lat="48.707960" lon="1.786080">
						<ele>182</ele>
						<time>2025-03-11T15:26:19Z</time>
					</trkpt>
					<trkpt lat="48.706120" lon="1.785890">
						<ele>188</ele>
						<time>2025-03-11T15:27:51Z</time>
					</trkpt>
					<trkpt lat="48.703440" lon="1.785530">
						<ele>189</ele>
						<time>2025-03-11T15:30:05Z</time>
					</trkpt>
					<trkpt lat="48.702350" lon="1.785460">
						<ele>185</ele>
						<time>2025-03-11T15:31:00Z</time>
					</trkpt>
					<trkpt lat="48.702510" lon="1.788170">
						<ele>187</ele>
						<time>2025-03-11T15:32:30Z</time>
					</trkpt>
					<trkpt lat="48.699240" lon="1.788090">
						<ele>186</ele>
						<time>2025-03-11T15:35:14Z</time>
					</trkpt>
					<trkpt lat="48.699570" lon="1.795650">
						<ele>187</ele>
						<time>2025-03-11T15:39:24Z</time>
					</trkpt>
					<trkpt lat="48.699890" lon="1.800430">
						<ele>187</ele>
						<time>2025-03-11T15:42:03Z</time>
					</trkpt>
					<trkpt lat="48.697010" lon="1.804330">
						<ele>181</ele>
						<time>2025-03-11T15:45:16Z</time>
					</trkpt>
					<trkpt lat="48.696580" lon="1.804980">
						<ele>183</ele>
						<time>2025-03-11T15:45:46Z</time>
					</trkpt>
					<trkpt lat="48.695510" lon="1.805800">
						<ele>183</ele>
						<time>2025-03-11T15:46:46Z</time>
					</trkpt>
					<trkpt lat="48.694960" lon="1.806760">
						<ele>184</ele>
						<time>2025-03-11T15:47:28Z</time>
					</trkpt>
					<trkpt lat="48.694680" lon="1.806900">
						<ele>184</ele>
						<time>2025-03-11T15:47:43Z</time>
					</trkpt>
					<trkpt lat="48.694490" lon="1.806850">
						<ele>184</ele>
						<time>2025-03-11T15:47:53Z</time>
					</trkpt>
					<trkpt lat="48.694170" lon="1.806860">
						<ele>184</ele>
						<time>2025-03-11T15:48:09Z</time>
					</trkpt>
					<trkpt lat="48.694030" lon="1.807030">
						<ele>183</ele>
						<time>2025-03-11T15:48:18Z</time>
					</trkpt>
					<trkpt lat="48.693480" lon="1.807570">
						<ele>182</ele>
						<time>2025-03-11T15:48:50Z</time>
					</trkpt>
					<trkpt lat="48.691580" lon="1.809600">
						<ele>184</ele>
						<time>2025-03-11T15:50:47Z</time>
					</trkpt>
					<trkpt lat="48.689420" lon="1.808760">
						<ele>184</ele>
						<time>2025-03-11T15:52:38Z</time>
					</trkpt>
					<trkpt lat="48.688200" lon="1.812460">
						<ele>180</ele>
						<time>2025-03-11T15:54:55Z</time>
					</trkpt>
					<trkpt lat="48.685110" lon="1.812920">
						<ele>182</ele>
						<time>2025-03-11T15:57:30Z</time>
					</trkpt>
					<trkpt lat="48.685140" lon="1.812290">
						<ele>180</ele>
						<time>2025-03-11T15:57:51Z</time>
					</trkpt>
					<trkpt lat="48.685270" lon="1.811020">
						<ele>178</ele>
						<time>2025-03-11T15:58:34Z</time>
					</trkpt>
					<trkpt lat="48.680340" lon="1.812130">
						<ele>175</ele>
						<time>2025-03-11T16:02:43Z</time>
					</trkpt>
					<trkpt lat="48.679960" lon="1.811990">
						<ele>174</ele>
						<time>2025-03-11T16:03:03Z</time>
					</trkpt>
					<trkpt lat="48.679730" lon="1.812770">
						<ele>177</ele>
						<time>2025-03-11T16:03:31Z</time>
					</trkpt>
					<trkpt lat="48.678630" lon="1.812820">
						<ele>179</ele>
						<time>2025-03-11T16:04:26Z</time>
					</trkpt>
					<trkpt lat="48.678400" lon="1.812920">
						<ele>179</ele>
						<time>2025-03-11T16:04:38Z</time>
					</trkpt>
					<trkpt lat="48.678150" lon="1.813250">
						<ele>179</ele>
						<time>2025-03-11T16:04:55Z</time>
					</trkpt>
					<trkpt lat="48.678010" lon="1.813510">
						<ele>178</ele>
						<time>2025-03-11T16:05:06Z</time>
					</trkpt>
					<trkpt lat="48.677980" lon="1.813740">
						<ele>178</ele>
						<time>2025-03-11T16:05:13Z</time>
					</trkpt>
					<trkpt lat="48.677890" lon="1.813880">
						<ele>178</ele>
						<time>2025-03-11T16:05:20Z</time>
					</trkpt>
					<trkpt lat="48.677600" lon="1.814660">
						<ele>177</ele>
						<time>2025-03-11T16:05:49Z</time>
					</trkpt>
					<trkpt lat="48.677520" lon="1.814670">
						<ele>176</ele>
						<time>2025-03-11T16:05:53Z</time>
					</trkpt>
					<trkpt lat="48.677480" lon="1.815010">
						<ele>177</ele>
						<time>2025-03-11T16:06:05Z</time>
					</trkpt>
					<trkpt lat="48.677390" lon="1.815340">
						<ele>177</ele>
						<time>2025-03-11T16:06:17Z</time>
					</trkpt>
					<trkpt lat="48.677370" lon="1.815790">
						<ele>178</ele>
						<time>2025-03-11T16:06:32Z</time>
					</trkpt>
					<trkpt lat="48.677190" lon="1.816560">
						<ele>177</ele>
						<time>2025-03-11T16:06:59Z</time>
					</trkpt>
					<trkpt lat="48.677670" lon="1.817240">
						<ele>177</ele>
						<time>2025-03-11T16:07:31Z</time>
					</trkpt>
					<trkpt lat="48.678310" lon="1.817870">
						<ele>178</ele>
						<time>2025-03-11T16:08:10Z</time>
					</trkpt>
					<trkpt lat="48.677700" lon="1.819870">
						<ele>173</ele>
						<time>2025-03-11T16:09:22Z</time>
					</trkpt>
					<trkpt lat="48.678550" lon="1.820630">
						<ele>173</ele>
						<time>2025-03-11T16:10:12Z</time>
					</trkpt>
					<trkpt lat="48.678940" lon="1.820450">
						<ele>174</ele>
						<time>2025-03-11T16:10:32Z</time>
					</trkpt>
					<trkpt lat="48.679350" lon="1.820430">
						<ele>174</ele>
						<time>2025-03-11T16:10:53Z</time>
					</trkpt>
					<trkpt lat="48.679540" lon="1.820840">
						<ele>173</ele>
						<time>2025-03-11T16:11:09Z</time>
					</trkpt>
					<trkpt lat="48.679150" lon="1.822090">
						<ele>178</ele>
						<time>2025-03-11T16:11:55Z</time>
					</trkpt>
					<trkpt lat="48.679060" lon="1.822530">
						<ele>180</ele>
						<time>2025-03-11T16:12:10Z</time>
					</trkpt>
					<trkpt lat="48.680370" lon="1.822800">
						<ele>177</ele>
						<time>2025-03-11T16:13:16Z</time>
					</trkpt>
					<trkpt lat="48.681110" lon="1.824710">
						<ele>179</ele>
						<time>2025-03-11T16:14:30Z</time>
					</trkpt>
					<trkpt lat="48.681590" lon="1.826430">
						<ele>182</ele>
						<time>2025-03-11T16:15:31Z</time>
					</trkpt>
					<trkpt lat="48.683320" lon="1.829990">
						<ele>183</ele>
						<time>2025-03-11T16:17:57Z</time>
					</trkpt>
					<trkpt lat="48.682970" lon="1.832750">
						<ele>185</ele>
						<time>2025-03-11T16:19:30Z</time>
					</trkpt>
					<trkpt lat="48.682880" lon="1.833640">
						<ele>185</ele>
						<time>2025-03-11T16:20:00Z</time>
					</trkpt>
					<trkpt lat="48.681380" lon="1.836260">
						<ele>187</ele>
						<time>2025-03-11T16:21:54Z</time>
					</trkpt>
					<trkpt lat="48.681470" lon="1.837150">
						<ele>187</ele>
						<time>2025-03-11T16:22:24Z</time>
					</trkpt>
					<trkpt lat="48.681530" lon="1.839410">
						<ele>184</ele>
						<time>2025-03-11T16:23:39Z</time>
					</trkpt>
					<trkpt lat="48.681790" lon="1.840660">
						<ele>181</ele>
						<time>2025-03-11T16:24:22Z</time>
					</trkpt>
					<trkpt lat="48.681540" lon="1.841010">
						<ele>181</ele>
						<time>2025-03-11T16:24:39Z</time>
					</trkpt>
					<trkpt lat="48.680990" lon="1.841070">
						<ele>182</ele>
						<time>2025-03-11T16:25:07Z</time>
					</trkpt>
					<trkpt lat="48.680600" lon="1.840680">
						<ele>183</ele>
						<time>2025-03-11T16:25:30Z</time>
					</trkpt>
					<trkpt lat="48.680280" lon="1.840840">
						<ele>182</ele>
						<time>2025-03-11T16:25:47Z</time>
					</trkpt>
					<trkpt lat="48.680480" lon="1.842160">
						<ele>182</ele>
						<time>2025-03-11T16:26:32Z</time>
					</trkpt>
					<trkpt lat="48.680730" lon="1.842440">
						<ele>181</ele>
						<time>2025-03-11T16:26:47Z</time>
					</trkpt>
					<trkpt lat="48.681910" lon="1.842320">
						<ele>180</ele>
						<time>2025-03-11T16:27:47Z</time>
					</trkpt>
					<trkpt lat="48.681880" lon="1.842540">
						<ele>180</ele>
						<time>2025-03-11T16:27:54Z</time>
					</trkpt>
					<trkpt lat="48.678450" lon="1.848330">
						<ele>180</ele>
						<time>2025-03-11T16:32:11Z</time>
					</trkpt>
					<trkpt lat="48.674990" lon="1.846650">
						<ele>179</ele>
						<time>2025-03-11T16:35:13Z</time>
					</trkpt>
					<trkpt lat="48.667820" lon="1.842950">
						<ele>177</ele>
						<time>2025-03-11T16:41:32Z</time>
					</trkpt>
					<trkpt lat="48.667090" lon="1.857650">
						<ele>185</ele>
						<time>2025-03-11T16:49:39Z</time>
					</trkpt>
					<trkpt lat="48.670790" lon="1.859300">
						<ele>180</ele>
						<time>2025-03-11T16:52:52Z</time>
					</trkpt>
					<trkpt lat="48.670760" lon="1.859830">
						<ele>180</ele>
						<time>2025-03-11T16:53:10Z</time>
					</trkpt>
					<trkpt lat="48.674240" lon="1.861500">
						<ele>174</ele>
						<time>2025-03-11T16:56:12Z</time>
					</trkpt>
					<trkpt lat="48.674330" lon="1.861040">
						<ele>175</ele>
						<time>2025-03-11T16:56:28Z</time>
					</trkpt>
					<trkpt lat="48.677700" lon="1.862590">
						<ele>178</ele>
						<time>2025-03-11T16:59:25Z</time>
					</trkpt>
					<trkpt lat="48.677530" lon="1.865530">
						<ele>174</ele>
						<time>2025-03-11T17:01:02Z</time>
					</trkpt>
					<trkpt lat="48.677640" lon="1.865880">
						<ele>173</ele>
						<time>2025-03-11T17:01:15Z</time>
					</trkpt>
					<trkpt lat="48.677200" lon="1.870560">
						<ele>172</ele>
						<time>2025-03-11T17:03:51Z</time>
					</trkpt>
					<trkpt lat="48.677350" lon="1.871420">
						<ele>172</ele>
						<time>2025-03-11T17:04:20Z</time>
					</trkpt>
					<trkpt lat="48.679290" lon="1.871320">
						<ele>174</ele>
						<time>2025-03-11T17:05:58Z</time>
					</trkpt>
					<trkpt lat="48.680760" lon="1.870760">
						<ele>172</ele>
						<time>2025-03-11T17:07:13Z</time>
					</trkpt>
					<trkpt lat="48.686110" lon="1.885320">
						<ele>179</ele>
						<time>2025-03-11T17:16:24Z</time>
					</trkpt>
					<trkpt lat="48.686020" lon="1.891750">
						<ele>185</ele>
						<time>2025-03-11T17:19:56Z</time>
					</trkpt>
					<trkpt lat="48.687640" lon="1.893260">
						<ele>183</ele>
						<time>2025-03-11T17:21:32Z</time>
					</trkpt>
					<trkpt lat="48.689720" lon="1.893430">
						<ele>181</ele>
						<time>2025-03-11T17:23:16Z</time>
					</trkpt>
					<trkpt lat="48.695480" lon="1.896420">
						<ele>173</ele>
						<time>2025-03-11T17:28:21Z</time>
					</trkpt>
					<trkpt lat="48.694790" lon="1.897390">
						<ele>167</ele>
						<time>2025-03-11T17:29:08Z</time>
					</trkpt>
					<trkpt lat="48.695930" lon="1.901780">
						<ele>154</ele>
						<time>2025-03-11T17:31:43Z</time>
					</trkpt>
					<trkpt lat="48.695670" lon="1.903340">
						<ele>148</ele>
						<time>2025-03-11T17:32:37Z</time>
					</trkpt>
					<trkpt lat="48.694840" lon="1.905850">
						<ele>147</ele>
						<time>2025-03-11T17:34:09Z</time>
					</trkpt>
					<trkpt lat="48.694000" lon="1.907390">
						<ele>147</ele>
						<time>2025-03-11T17:35:15Z</time>
					</trkpt>
					<trkpt lat="48.693380" lon="1.907760">
						<ele>148</ele>
						<time>2025-03-11T17:35:49Z</time>
					</trkpt>
					<trkpt lat="48.692900" lon="1.907910">
						<ele>146</ele>
						<time>2025-03-11T17:36:13Z</time>
					</trkpt>
					<trkpt lat="48.691660" lon="1.909790">
						<ele>145</ele>
						<time>2025-03-11T17:37:41Z</time>
					</trkpt>
					<trkpt lat="48.691580" lon="1.908670">
						<ele>149</ele>
						<time>2025-03-11T17:38:18Z</time>
					</trkpt>
					<trkpt lat="48.690860" lon="1.908870">
						<ele>149</ele>
						<time>2025-03-11T17:38:55Z</time>
					</trkpt>
					<trkpt lat="48.689580" lon="1.907590">
						<ele>149</ele>
						<time>2025-03-11T17:40:12Z</time>
					</trkpt>
					<trkpt lat="48.686220" lon="1.907390">
						<ele>177</ele>
						<time>2025-03-11T17:43:00Z</time>
					</trkpt>
					<trkpt lat="48.685780" lon="1.909040">
						<ele>162</ele>
						<time>2025-03-11T17:43:59Z</time>
					</trkpt>
					<trkpt lat="48.686580" lon="1.910480">
						<ele>150</ele>
						<time>2025-03-11T17:45:01Z</time>
					</trkpt>
					<trkpt lat="48.686710" lon="1.912610">
						<ele>147</ele>
						<time>2025-03-11T17:46:12Z</time>
					</trkpt>
					<trkpt lat="48.686880" lon="1.913180">
						<ele>145</ele>
						<time>2025-03-11T17:46:32Z</time>
					</trkpt>
					<trkpt lat="48.686720" lon="1.914210">
						<ele>145</ele>
						<time>2025-03-11T17:47:07Z</time>
					</trkpt>
					<trkpt lat="48.686940" lon="1.915830">
						<ele>142</ele>
						<time>2025-03-11T17:48:02Z</time>
					</trkpt>
					<trkpt lat="48.687560" lon="1.916440">
						<ele>143</ele>
						<time>2025-03-11T17:48:39Z</time>
					</trkpt>
					<trkpt lat="48.687790" lon="1.917480">
						<ele>141</ele>
						<time>2025-03-11T17:49:15Z</time>
					</trkpt>
					<trkpt lat="48.687730" lon="1.919040">
						<ele>140</ele>
						<time>2025-03-11T17:50:07Z</time>
					</trkpt>
					<trkpt lat="48.687440" lon="1.919930">
						<ele>140</ele>
						<time>2025-03-11T17:50:39Z</time>
					</trkpt>
					<trkpt lat="48.687770" lon="1.920160">
						<ele>139</ele>
						<time>2025-03-11T17:50:58Z</time>
					</trkpt>
					<trkpt lat="48.686110" lon="1.922890">
						<ele>137</ele>
						<time>2025-03-11T17:53:00Z</time>
					</trkpt>
					<trkpt lat="48.684980" lon="1.926520">
						<ele>137</ele>
						<time>2025-03-11T17:55:13Z</time>
					</trkpt>
					<trkpt lat="48.684980" lon="1.927480">
						<ele>136</ele>
						<time>2025-03-11T17:55:45Z</time>
					</trkpt>
					<trkpt lat="48.684820" lon="1.927670">
						<ele>136</ele>
						<time>2025-03-11T17:55:55Z</time>
					</trkpt>
					<trkpt lat="48.685500" lon="1.928270">
						<ele>130</ele>
						<time>2025-03-11T17:56:34Z</time>
					</trkpt>
					<trkpt lat="48.685170" lon="1.929470">
						<ele>129</ele>
						<time>2025-03-11T17:57:17Z</time>
					</trkpt>
					<trkpt lat="48.685250" lon="1.930960">
						<ele>128</ele>
						<time>2025-03-11T17:58:06Z</time>
					</trkpt>
					<trkpt lat="48.685210" lon="1.931800">
						<ele>128</ele>
						<time>2025-03-11T17:58:34Z</time>
					</trkpt>
					<trkpt lat="48.685050" lon="1.932460">
						<ele>128</ele>
						<time>2025-03-11T17:58:57Z</time>
					</trkpt>
					<trkpt lat="48.684770" lon="1.933440">
						<ele>129</ele>
						<time>2025-03-11T17:59:33Z</time>
					</trkpt>
					<trkpt lat="48.684580" lon="1.933520">
						<ele>129</ele>
						<time>2025-03-11T17:59:43Z</time>
					</trkpt>
					<trkpt lat="48.684040" lon="1.934300">
						<ele>126</ele>
						<time>2025-03-11T18:00:20Z</time>
					</trkpt>
					<trkpt lat="48.684300" lon="1.935190">
						<ele>125</ele>
						<time>2025-03-11T18:00:52Z</time>
					</trkpt>
					<trkpt lat="48.685590" lon="1.935190">
						<ele>128</ele>
						<time>2025-03-11T18:01:57Z</time>
					</trkpt>
					<trkpt lat="48.685670" lon="1.935410">
						<ele>129</ele>
						<time>2025-03-11T18:02:05Z</time>
					</trkpt>
					<trkpt lat="48.685620" lon="1.935680">
						<ele>130</ele>
						<time>2025-03-11T18:02:14Z</time>
					</trkpt>
					<trkpt lat="48.685380" lon="1.936050">
						<ele>129</ele>
						<time>2025-03-11T18:02:31Z</time>
					</trkpt>
					<trkpt lat="48.685130" lon="1.936950">
						<ele>128</ele>
						<time>2025-03-11T18:03:04Z</time>
					</trkpt>
					<trkpt lat="48.685230" lon="1.937240">
						<ele>131</ele>
						<time>2025-03-11T18:03:14Z</time>
					</trkpt>
					<trkpt lat="48.685560" lon="1.937160">
						<ele>137</ele>
						<time>2025-03-11T18:03:31Z</time>
					</trkpt>
					<trkpt lat="48.685780" lon="1.937380">
						<ele>143</ele>
						<time>2025-03-11T18:03:44Z</time>
					</trkpt>
					<trkpt lat="48.685950" lon="1.937460">
						<ele>147</ele>
						<time>2025-03-11T18:03:53Z</time>
					</trkpt>
					<trkpt lat="48.685950" lon="1.937730">
						<ele>150</ele>
						<time>2025-03-11T18:04:02Z</time>
					</trkpt>
					<trkpt lat="48.685570" lon="1.938030">
						<ele>145</ele>
						<time>2025-03-11T18:04:24Z</time>
					</trkpt>
					<trkpt lat="48.685350" lon="1.938500">
						<ele>145</ele>
						<time>2025-03-11T18:04:43Z</time>
					</trkpt>
					<trkpt lat="48.684780" lon="1.939110">
						<ele>142</ele>
						<time>2025-03-11T18:05:18Z</time>
					</trkpt>
					<trkpt lat="48.684600" lon="1.939380">
						<ele>141</ele>
						<time>2025-03-11T18:05:30Z</time>
					</trkpt>
					<trkpt lat="48.684500" lon="1.939680">
						<ele>142</ele>
						<time>2025-03-11T18:05:41Z</time>
					</trkpt>
					<trkpt lat="48.684530" lon="1.939880">
						<ele>145</ele>
						<time>2025-03-11T18:05:48Z</time>
					</trkpt>
					<trkpt lat="48.684790" lon="1.940170">
						<ele>153</ele>
						<time>2025-03-11T18:06:04Z</time>
					</trkpt>
					<trkpt lat="48.684770" lon="1.940430">
						<ele>153</ele>
						<time>2025-03-11T18:06:13Z</time>
					</trkpt>
					<trkpt lat="48.684550" lon="1.940810">
						<ele>149</ele>
						<time>2025-03-11T18:06:30Z</time>
					</trkpt>
					<trkpt lat="48.684470" lon="1.941040">
						<ele>147</ele>
						<time>2025-03-11T18:06:38Z</time>
					</trkpt>
					<trkpt lat="48.684440" lon="1.941240">
						<ele>145</ele>
						<time>2025-03-11T18:06:45Z</time>
					</trkpt>
					<trkpt lat="48.684260" lon="1.941240">
						<ele>142</ele>
						<time>2025-03-11T18:06:54Z</time>
					</trkpt>
					<trkpt lat="48.683900" lon="1.941500">
						<ele>135</ele>
						<time>2025-03-11T18:07:14Z</time>
					</trkpt>
					<trkpt lat="48.683550" lon="1.941600">
						<ele>130</ele>
						<time>2025-03-11T18:07:32Z</time>
					</trkpt>
					<trkpt lat="48.683280" lon="1.941780">
						<ele>127</ele>
						<time>2025-03-11T18:07:47Z</time>
					</trkpt>
					<trkpt lat="48.683000" lon="1.942160">
						<ele>127</ele>
						<time>2025-03-11T18:08:05Z</time>
					</trkpt>
					<trkpt lat="48.682810" lon="1.942630">
						<ele>128</ele>
						<time>2025-03-11T18:08:24Z</time>
					</trkpt>
					<trkpt lat="48.682540" lon="1.943850">
						<ele>133</ele>
						<time>2025-03-11T18:09:06Z</time>
					</trkpt>
					<trkpt lat="48.682270" lon="1.944400">
						<ele>135</ele>
						<time>2025-03-11T18:09:29Z</time>
					</trkpt>
					<trkpt lat="48.682030" lon="1.944560">
						<ele>133</ele>
						<time>2025-03-11T18:09:42Z</time>
					</trkpt>
					<trkpt lat="48.681760" lon="1.944560">
						<ele>130</ele>
						<time>2025-03-11T18:09:55Z</time>
					</trkpt>
					<trkpt lat="48.681570" lon="1.944820">
						<ele>129</ele>
						<time>2025-03-11T18:10:08Z</time>
					</trkpt>
					<trkpt lat="48.681370" lon="1.945210">
						<ele>130</ele>
						<time>2025-03-11T18:10:24Z</time>
					</trkpt>
					<trkpt lat="48.681270" lon="1.945630">
						<ele>131</ele>
						<time>2025-03-11T18:10:39Z</time>
					</trkpt>
					<trkpt lat="48.681330" lon="1.946080">
						<ele>133</ele>
						<time>2025-03-11T18:10:54Z</time>
					</trkpt>
					<trkpt lat="48.681240" lon="1.947040">
						<ele>136</ele>
						<time>2025-03-11T18:11:26Z</time>
					</trkpt>
					<trkpt lat="48.681100" lon="1.947910">
						<ele>136</ele>
						<time>2025-03-11T18:11:56Z</time>
					</trkpt>
					<trkpt lat="48.680880" lon="1.948390">
						<ele>134</ele>
						<time>2025-03-11T18:12:15Z</time>
					</trkpt>
					<trkpt lat="48.680210" lon="1.948320">
						<ele>126</ele>
						<time>2025-03-11T18:12:49Z</time>
					</trkpt>
					<trkpt lat="48.678350" lon="1.947370">
						<ele>130</ele>
						<time>2025-03-11T18:14:27Z</time>
					</trkpt>
					<trkpt lat="48.676300" lon="1.946760">
						<ele>167</ele>
						<time>2025-03-11T18:16:12Z</time>
					</trkpt>
					<trkpt lat="48.675080" lon="1.946520">
						<ele>177</ele>
						<time>2025-03-11T18:17:13Z</time>
					</trkpt>
					<trkpt lat="48.674460" lon="1.948160">
						<ele>179</ele>
						<time>2025-03-11T18:18:16Z</time>
					</trkpt>
					<trkpt lat="48.673800" lon="1.951030">
						<ele>176</ele>
						<time>2025-03-11T18:19:56Z</time>
					</trkpt>
					<trkpt lat="48.670600" lon="1.954510">
						<ele>169</ele>
						<time>2025-03-11T18:23:13Z</time>
					</trkpt>
					<trkpt lat="48.670160" lon="1.955470">
						<ele>168</ele>
						<time>2025-03-11T18:23:52Z</time>
					</trkpt>
					<trkpt lat="48.670190" lon="1.956460">
						<ele>168</ele>
						<time>2025-03-11T18:24:25Z</time>
					</trkpt>
					<trkpt lat="48.669450" lon="1.956570">
						<ele>168</ele>
						<time>2025-03-11T18:25:02Z</time>
					</trkpt>
					<trkpt lat="48.669060" lon="1.955330">
						<ele>170</ele>
						<time>2025-03-11T18:25:47Z</time>
					</trkpt>
					<trkpt lat="48.667460" lon="1.954460">
						<ele>178</ele>
						<time>2025-03-11T18:27:12Z</time>
					</trkpt>
					<trkpt lat="48.666940" lon="1.956670">
						<ele>171</ele>
						<time>2025-03-11T18:28:30Z</time>
					</trkpt>
					<trkpt lat="48.662210" lon="1.954160">
						<ele>171</ele>
						<time>2025-03-11T18:32:41Z</time>
					</trkpt>
					<trkpt lat="48.660420" lon="1.953390">
						<ele>172</ele>
						<time>2025-03-11T18:34:14Z</time>
					</trkpt>
					<trkpt lat="48.660040" lon="1.954280">
						<ele>172</ele>
						<time>2025-03-11T18:34:49Z</time>
					</trkpt>
					<trkpt lat="48.659880" lon="1.954920">
						<ele>171</ele>
						<time>2025-03-11T18:35:11Z</time>
					</trkpt>
					<trkpt lat="48.659750" lon="1.955290">
						<ele>171</ele>
						<time>2025-03-11T18:35:25Z</time>
					</trkpt>
					<trkpt lat="48.659060" lon="1.956290">
						<ele>172</ele>
						<time>2025-03-11T18:36:13Z</time>
					</trkpt>
					<trkpt lat="48.658170" lon="1.957920">
						<ele>172</ele>
						<time>2025-03-11T18:37:23Z</time>
					</trkpt>
					<trkpt lat="48.657960" lon="1.958210">
						<ele>172</ele>
						<time>2025-03-11T18:37:37Z</time>
					</trkpt>
					<trkpt lat="48.657720" lon="1.958350">
						<ele>172</ele>
						<time>2025-03-11T18:37:50Z</time>
					</trkpt>
					<trkpt lat="48.657590" lon="1.958370">
						<ele>172</ele>
						<time>2025-03-11T18:37:57Z</time>
					</trkpt>
					<trkpt lat="48.656480" lon="1.958380">
						<ele>174</ele>
						<time>2025-03-11T18:38:52Z</time>
					</trkpt>
					<trkpt lat="48.656050" lon="1.958430">
						<ele>175</ele>
						<time>2025-03-11T18:39:14Z</time>
					</trkpt>
					<trkpt lat="48.655890" lon="1.958480">
						<ele>176</ele>
						<time>2025-03-11T18:39:22Z</time>
					</trkpt>
					<trkpt lat="48.655710" lon="1.958570">
						<ele>175</ele>
						<time>2025-03-11T18:39:31Z</time>
					</trkpt>
					<trkpt lat="48.655420" lon="1.958850">
						<ele>173</ele>
						<time>2025-03-11T18:39:49Z</time>
					</trkpt>
					<trkpt lat="48.655180" lon="1.959250">
						<ele>170</ele>
						<time>2025-03-11T18:40:07Z</time>
					</trkpt>
					<trkpt lat="48.653830" lon="1.958560">
						<ele>171</ele>
						<time>2025-03-11T18:41:18Z</time>
					</trkpt>
					<trkpt lat="48.653470" lon="1.958210">
						<ele>172</ele>
						<time>2025-03-11T18:41:39Z</time>
					</trkpt>
					<trkpt lat="48.653430" lon="1.957700">
						<ele>173</ele>
						<time>2025-03-11T18:41:56Z</time>
					</trkpt>
					<trkpt lat="48.653460" lon="1.957000">
						<ele>174</ele>
						<time>2025-03-11T18:42:19Z</time>
					</trkpt>
					<trkpt lat="48.653330" lon="1.956300">
						<ele>174</ele>
						<time>2025-03-11T18:42:43Z</time>
					</trkpt>
					<trkpt lat="48.653360" lon="1.955860">
						<ele>172</ele>
						<time>2025-03-11T18:42:58Z</time>
					</trkpt>
					<trkpt lat="48.653260" lon="1.954560">
						<ele>167</ele>
						<time>2025-03-11T18:43:41Z</time>
					</trkpt>
					<trkpt lat="48.653100" lon="1.954230">
						<ele>166</ele>
						<time>2025-03-11T18:43:55Z</time>
					</trkpt>
					<trkpt lat="48.652880" lon="1.953880">
						<ele>165</ele>
						<time>2025-03-11T18:44:11Z</time>
					</trkpt>
					<trkpt lat="48.652590" lon="1.953620">
						<ele>165</ele>
						<time>2025-03-11T18:44:28Z</time>
					</trkpt>
					<trkpt lat="48.652260" lon="1.953650">
						<ele>166</ele>
						<time>2025-03-11T18:44:44Z</time>
					</trkpt>
					<trkpt lat="48.651860" lon="1.953740">
						<ele>166</ele>
						<time>2025-03-11T18:45:05Z</time>
					</trkpt>
					<trkpt lat="48.651820" lon="1.953870">
						<ele>168</ele>
						<time>2025-03-11T18:45:09Z</time>
					</trkpt>
					<trkpt lat="48.651760" lon="1.953950">
						<ele>168</ele>
						<time>2025-03-11T18:45:13Z</time>
					</trkpt>
					<trkpt lat="48.651500" lon="1.954130">
						<ele>169</ele>
						<time>2025-03-11T18:45:28Z</time>
					</trkpt>
					<trkpt lat="48.650540" lon="1.954630">
						<ele>170</ele>
						<time>2025-03-11T18:46:18Z</time>
					</trkpt>
					<trkpt lat="48.650250" lon="1.954630">
						<ele>168</ele>
						<time>2025-03-11T18:46:33Z</time>
					</trkpt>
					<trkpt lat="48.650150" lon="1.954690">
						<ele>169</ele>
						<time>2025-03-11T18:46:38Z</time>
					</trkpt>
					<trkpt lat="48.650000" lon="1.954980">
						<ele>175</ele>
						<time>2025-03-11T18:46:50Z</time>
					</trkpt>
					<trkpt lat="48.649880" lon="1.955090">
						<ele>175</ele>
						<time>2025-03-11T18:46:57Z</time>
					</trkpt>
					<trkpt lat="48.649720" lon="1.955040">
						<ele>175</ele>
						<time>2025-03-11T18:47:06Z</time>
					</trkpt>
					<trkpt lat="48.649380" lon="1.954670">
						<ele>169</ele>
						<time>2025-03-11T18:47:27Z</time>
					</trkpt>
					<trkpt lat="48.649350" lon="1.954590">
						<ele>168</ele>
						<time>2025-03-11T18:47:30Z</time>
					</trkpt>
					<trkpt lat="48.649170" lon="1.954630">
						<ele>169</ele>
						<time>2025-03-11T18:47:39Z</time>
					</trkpt>
					<trkpt lat="48.648320" lon="1.954330">
						<ele>166</ele>
						<time>2025-03-11T18:48:22Z</time>
					</trkpt>
					<trkpt lat="48.648010" lon="1.954360">
						<ele>166</ele>
						<time>2025-03-11T18:48:38Z</time>
					</trkpt>
					<trkpt lat="48.647440" lon="1.954530">
						<ele>167</ele>
						<time>2025-03-11T18:49:07Z</time>
					</trkpt>
					<trkpt lat="48.647380" lon="1.954740">
						<ele>168</ele>
						<time>2025-03-11T18:49:15Z</time>
					</trkpt>
					<trkpt lat="48.647140" lon="1.955180">
						<ele>169</ele>
						<time>2025-03-11T18:49:33Z</time>
					</trkpt>
					<trkpt lat="48.646580" lon="1.955620">
						<ele>169</ele>
						<time>2025-03-11T18:50:05Z</time>
					</trkpt>
					<trkpt lat="48.646480" lon="1.955610">
						<ele>169</ele>
						<time>2025-03-11T18:50:10Z</time>
					</trkpt>
					<trkpt lat="48.646180" lon="1.955250">
						<ele>164</ele>
						<time>2025-03-11T18:50:29Z</time>
					</trkpt>
					<trkpt lat="48.646120" lon="1.955140">
						<ele>162</ele>
						<time>2025-03-11T18:50:34Z</time>
					</trkpt>
					<trkpt lat="48.646000" lon="1.955140">
						<ele>162</ele>
						<time>2025-03-11T18:50:40Z</time>
					</trkpt>
					<trkpt lat="48.645870" lon="1.955370">
						<ele>164</ele>
						<time>2025-03-11T18:50:50Z</time>
					</trkpt>
					<trkpt lat="48.645740" lon="1.955370">
						<ele>165</ele>
						<time>2025-03-11T18:50:56Z</time>
					</trkpt>
					<trkpt lat="48.645430" lon="1.955080">
						<ele>162</ele>
						<time>2025-03-11T18:51:15Z</time>
					</trkpt>
					<trkpt lat="48.645200" lon="1.955050">
						<ele>162</ele>
						<time>2025-03-11T18:51:26Z</time>
					</trkpt>
					<trkpt lat="48.645030" lon="1.955090">
						<ele>163</ele>
						<time>2025-03-11T18:51:35Z</time>
					</trkpt>
					<trkpt lat="48.644940" lon="1.955070">
						<ele>164</ele>
						<time>2025-03-11T18:51:39Z</time>
					</trkpt>
					<trkpt lat="48.644860" lon="1.954900">
						<ele>163</ele>
						<time>2025-03-11T18:51:46Z</time>
					</trkpt>
					<trkpt lat="48.644840" lon="1.954690">
						<ele>162</ele>
						<time>2025-03-11T18:51:53Z</time>
					</trkpt>
					<trkpt lat="48.644810" lon="1.954690">
						<ele>162</ele>
						<time>2025-03-11T18:51:55Z</time>
					</trkpt>
					<trkpt lat="48.644640" lon="1.954920">
						<ele>167</ele>
						<time>2025-03-11T18:52:06Z</time>
					</trkpt>
					<trkpt lat="48.644610" lon="1.954910">
						<ele>167</ele>
						<time>2025-03-11T18:52:08Z</time>
					</trkpt>
					<trkpt lat="48.644550" lon="1.954740">
						<ele>167</ele>
						<time>2025-03-11T18:52:14Z</time>
					</trkpt>
					<trkpt lat="48.644350" lon="1.954490">
						<ele>169</ele>
						<time>2025-03-11T18:52:27Z</time>
					</trkpt>
					<trkpt lat="48.644260" lon="1.954300">
						<ele>170</ele>
						<time>2025-03-11T18:52:35Z</time>
					</trkpt>
					<trkpt lat="48.644240" lon="1.954080">
						<ele>168</ele>
						<time>2025-03-11T18:52:42Z</time>
					</trkpt>
					<trkpt lat="48.644160" lon="1.953960">
						<ele>167</ele>
						<time>2025-03-11T18:52:48Z</time>
					</trkpt>
					<trkpt lat="48.644040" lon="1.953850">
						<ele>165</ele>
						<time>2025-03-11T18:52:55Z</time>
					</trkpt>
					<trkpt lat="48.643650" lon="1.953750">
						<ele>164</ele>
						<time>2025-03-11T18:53:15Z</time>
					</trkpt>
					<trkpt lat="48.643300" lon="1.953770">
						<ele>164</ele>
						<time>2025-03-11T18:53:32Z</time>
					</trkpt>
					<trkpt lat="48.643010" lon="1.953680">
						<ele>163</ele>
						<time>2025-03-11T18:53:47Z</time>
					</trkpt>
					<trkpt lat="48.642860" lon="1.953500">
						<ele>160</ele>
						<time>2025-03-11T18:53:57Z</time>
					</trkpt>
					<trkpt lat="48.642710" lon="1.953250">
						<ele>157</ele>
						<time>2025-03-11T18:54:08Z</time>
					</trkpt>
					<trkpt lat="48.642600" lon="1.953180">
						<ele>157</ele>
						<time>2025-03-11T18:54:14Z</time>
					</trkpt>
					<trkpt lat="48.642430" lon="1.953170">
						<ele>158</ele>
						<time>2025-03-11T18:54:22Z</time>
					</trkpt>
					<trkpt lat="48.642260" lon="1.953100">
						<ele>159</ele>
						<time>2025-03-11T18:54:31Z</time>
					</trkpt>
					<trkpt lat="48.642110" lon="1.952900">
						<ele>157</ele>
						<time>2025-03-11T18:54:41Z</time>
					</trkpt>
					<trkpt lat="48.641810" lon="1.952390">
						<ele>153</ele>
						<time>2025-03-11T18:55:04Z</time>
					</trkpt>
					<trkpt lat="48.640040" lon="1.950820">
						<ele>128</ele>
						<time>2025-03-11T18:56:46Z</time>
					</trkpt>
					<trkpt lat="48.639500" lon="1.952840">
						<ele>153</ele>
						<time>2025-03-11T18:57:58Z</time>
					</trkpt>
					<trkpt lat="48.639230" lon="1.953430">
						<ele>157</ele>
						<time>2025-03-11T18:58:22Z</time>
					</trkpt>
					<trkpt lat="48.639480" lon="1.953290">
						<ele>160</ele>
						<time>2025-03-11T18:58:35Z</time>
					</trkpt>
					<trkpt lat="48.639380" lon="1.953500">
						<ele>160</ele>
						<time>2025-03-11T18:58:44Z</time>
					</trkpt>
					<trkpt lat="48.639670" lon="1.953370">
						<ele>164</ele>
						<time>2025-03-11T18:58:59Z</time>
					</trkpt>
					<trkpt lat="48.639480" lon="1.953720">
						<ele>163</ele>
						<time>2025-03-11T18:59:14Z</time>
					</trkpt>
					<trkpt lat="48.639440" lon="1.954170">
						<ele>167</ele>
						<time>2025-03-11T18:59:29Z</time>
					</trkpt>
					<trkpt lat="48.639710" lon="1.954760">
						<ele>168</ele>
						<time>2025-03-11T18:59:53Z</time>
					</trkpt>
					<trkpt lat="48.639960" lon="1.954920">
						<ele>168</ele>
						<time>2025-03-11T19:00:06Z</time>
					</trkpt>
					<trkpt lat="48.640190" lon="1.955510">
						<ele>168</ele>
						<time>2025-03-11T19:00:29Z</time>
					</trkpt>
					<trkpt lat="48.639880" lon="1.955990">
						<ele>168</ele>
						<time>2025-03-11T19:00:51Z</time>
					</trkpt>
					<trkpt lat="48.641960" lon="1.960900">
						<ele>171</ele>
						<time>2025-03-11T19:04:04Z</time>
					</trkpt>
					<trkpt lat="48.642290" lon="1.962910">
						<ele>174</ele>
						<time>2025-03-11T19:05:13Z</time>
					</trkpt>
					<trkpt lat="48.642380" lon="1.963710">
						<ele>174</ele>
						<time>2025-03-11T19:05:39Z</time>
					</trkpt>
					<trkpt lat="48.642380" lon="1.964960">
						<ele>174</ele>
						<time>2025-03-11T19:06:21Z</time>
					</trkpt>
					<trkpt lat="48.642490" lon="1.965860">
						<ele>175</ele>
						<time>2025-03-11T19:06:51Z</time>
					</trkpt>
					<trkpt lat="48.642370" lon="1.965890">
						<ele>175</ele>
						<time>2025-03-11T19:06:57Z</time>
					</trkpt>
					<trkpt lat="48.642400" lon="1.966450">
						<ele>175</ele>
						<time>2025-03-11T19:07:16Z</time>
					</trkpt>
					<trkpt lat="48.642020" lon="1.967330">
						<ele>174</ele>
						<time>2025-03-11T19:07:50Z</time>
					</trkpt>
					<trkpt lat="48.641280" lon="1.968630">
						<ele>173</ele>
						<time>2025-03-11T19:08:47Z</time>
					</trkpt>
					<trkpt lat="48.639920" lon="1.968820">
						<ele>171</ele>
						<time>2025-03-11T19:09:56Z</time>
					</trkpt>
					<trkpt lat="48.638040" lon="1.969830">
						<ele>170</ele>
						<time>2025-03-11T19:11:35Z</time>
					</trkpt>
					<trkpt lat="48.637030" lon="1.970090">
						<ele>169</ele>
						<time>2025-03-11T19:12:27Z</time>
					</trkpt>
					<trkpt lat="48.635630" lon="1.971060">
						<ele>153</ele>
						<time>2025-03-11T19:13:44Z</time>
					</trkpt>
					<trkpt lat="48.634780" lon="1.971080">
						<ele>144</ele>
						<time>2025-03-11T19:14:26Z</time>
					</trkpt>
					<trkpt lat="48.633840" lon="1.971430">
						<ele>139</ele>
						<time>2025-03-11T19:15:15Z</time>
					</trkpt>
					<trkpt lat="48.632470" lon="1.972240">
						<ele>131</ele>
						<time>2025-03-11T19:16:28Z</time>
					</trkpt>
					<trkpt lat="48.630660" lon="1.972700">
						<ele>121</ele>
						<time>2025-03-11T19:18:00Z</time>
					</trkpt>
					<trkpt lat="48.630290" lon="1.972000">
						<ele>123</ele>
						<time>2025-03-11T19:18:30Z</time>
					</trkpt>
					<trkpt lat="48.629880" lon="1.971940">
						<ele>126</ele>
						<time>2025-03-11T19:18:50Z</time>
					</trkpt>
					<trkpt lat="48.628840" lon="1.972090">
						<ele>135</ele>
						<time>2025-03-11T19:19:43Z</time>
					</trkpt>
					<trkpt lat="48.628380" lon="1.972060">
						<ele>138</ele>
						<time>2025-03-11T19:20:06Z</time>
					</trkpt>
					<trkpt lat="48.628060" lon="1.971820">
						<ele>140</ele>
						<time>2025-03-11T19:20:24Z</time>
					</trkpt>
					<trkpt lat="48.627720" lon="1.971500">
						<ele>142</ele>
						<time>2025-03-11T19:20:44Z</time>
					</trkpt>
					<trkpt lat="48.626700" lon="1.971230">
						<ele>149</ele>
						<time>2025-03-11T19:21:35Z</time>
					</trkpt>
					<trkpt lat="48.624520" lon="1.970780">
						<ele>148</ele>
						<time>2025-03-11T19:23:26Z</time>
					</trkpt>
					<trkpt lat="48.623630" lon="1.971080">
						<ele>145</ele>
						<time>2025-03-11T19:24:11Z</time>
					</trkpt>
					<trkpt lat="48.622010" lon="1.970230">
						<ele>133</ele>
						<time>2025-03-11T19:25:37Z</time>
					</trkpt>
					<trkpt lat="48.621680" lon="1.969900">
						<ele>131</ele>
						<time>2025-03-11T19:25:57Z</time>
					</trkpt>
					<trkpt lat="48.621110" lon="1.969980">
						<ele>129</ele>
						<time>2025-03-11T19:26:25Z</time>
					</trkpt>
					<trkpt lat="48.620380" lon="1.970620">
						<ele>127</ele>
						<time>2025-03-11T19:27:08Z</time>
					</trkpt>
					<trkpt lat="48.619190" lon="1.970820">
						<ele>123</ele>
						<time>2025-03-11T19:28:08Z</time>
					</trkpt>
					<trkpt lat="48.617740" lon="1.969810">
						<ele>120</ele>
						<time>2025-03-11T19:29:27Z</time>
					</trkpt>
					<trkpt lat="48.614010" lon="1.963670">
						<ele>110</ele>
						<time>2025-03-11T19:34:03Z</time>
					</trkpt>
					<trkpt lat="48.612690" lon="1.962840">
						<ele>113</ele>
						<time>2025-03-11T19:35:15Z</time>
					</trkpt>
					<trkpt lat="48.612060" lon="1.962410">
						<ele>114</ele>
						<time>2025-03-11T19:35:49Z</time>
					</trkpt>
					<trkpt lat="48.611710" lon="1.961990">
						<ele>113</ele>
						<time>2025-03-11T19:36:12Z</time>
					</trkpt>
					<trkpt lat="48.612270" lon="1.961510">
						<ele>114</ele>
						<time>2025-03-11T19:36:44Z</time>
					</trkpt>
					<trkpt lat="48.612390" lon="1.960680">
						<ele>116</ele>
						<time>2025-03-11T19:37:12Z</time>
					</trkpt>
					<trkpt lat="48.612310" lon="1.959760">
						<ele>120</ele>
						<time>2025-03-11T19:37:43Z</time>
					</trkpt>
					<trkpt lat="48.612100" lon="1.958650">
						<ele>123</ele>
						<time>2025-03-11T19:38:21Z</time>
					</trkpt>
					<trkpt lat="48.612050" lon="1.958160">
						<ele>124</ele>
						<time>2025-03-11T19:38:37Z</time>
					</trkpt>
					<trkpt lat="48.612200" lon="1.957470">
						<ele>125</ele>
						<time>2025-03-11T19:39:01Z</time>
					</trkpt>
					<trkpt lat="48.613050" lon="1.955360">
						<ele>132</ele>
						<time>2025-03-11T19:40:23Z</time>
					</trkpt>
					<trkpt lat="48.613250" lon="1.954780">
						<ele>135</ele>
						<time>2025-03-11T19:40:45Z</time>
					</trkpt>
					<trkpt lat="48.613390" lon="1.954080">
						<ele>136</ele>
						<time>2025-03-11T19:41:09Z</time>
					</trkpt>
					<trkpt lat="48.613690" lon="1.951030">
						<ele>143</ele>
						<time>2025-03-11T19:42:51Z</time>
					</trkpt>
					<trkpt lat="48.613860" lon="1.949850">
						<ele>145</ele>
						<time>2025-03-11T19:43:31Z</time>
					</trkpt>
					<trkpt lat="48.613970" lon="1.949460">
						<ele>145</ele>
						<time>2025-03-11T19:43:45Z</time>
					</trkpt>
					<trkpt lat="48.614370" lon="1.948360">
						<ele>147</ele>
						<time>2025-03-11T19:44:27Z</time>
					</trkpt>
					<trkpt lat="48.614890" lon="1.947230">
						<ele>151</ele>
						<time>2025-03-11T19:45:12Z</time>
					</trkpt>
					<trkpt lat="48.614060" lon="1.946180">
						<ele>152</ele>
						<time>2025-03-11T19:46:06Z</time>
					</trkpt>
					<trkpt lat="48.617610" lon="1.938930">
						<ele>166</ele>
						<time>2025-03-11T19:51:05Z</time>
					</trkpt>
					<trkpt lat="48.613140" lon="1.934020">
						<ele>140</ele>
						<time>2025-03-11T19:55:41Z</time>
					</trkpt>
					<trkpt lat="48.612870" lon="1.934900">
						<ele>136</ele>
						<time>2025-03-11T19:56:13Z</time>
					</trkpt>
					<trkpt lat="48.612220" lon="1.937630">
						<ele>131</ele>
						<time>2025-03-11T19:57:49Z</time>
					</trkpt>
					<trkpt lat="48.614380" lon="1.940060">
						<ele>165</ele>
						<time>2025-03-11T20:00:04Z</time>
					</trkpt>
					<trkpt lat="48.613750" lon="1.941300">
						<ele>162</ele>
						<time>2025-03-11T20:00:56Z</time>
					</trkpt>
					<trkpt lat="48.613710" lon="1.941660">
						<ele>161</ele>
						<time>2025-03-11T20:01:08Z</time>
					</trkpt>
					<trkpt lat="48.613770" lon="1.941990">
						<ele>160</ele>
						<time>2025-03-11T20:01:19Z</time>
					</trkpt>
					<trkpt lat="48.613590" lon="1.943560">
						<ele>150</ele>
						<time>2025-03-11T20:02:12Z</time>
					</trkpt>
					<trkpt lat="48.613420" lon="1.944370">
						<ele>149</ele>
						<time>2025-03-11T20:02:40Z</time>
					</trkpt>
					<trkpt lat="48.613280" lon="1.944700">
						<ele>148</ele>
						<time>2025-03-11T20:02:53Z</time>
					</trkpt>
					<trkpt lat="48.613170" lon="1.945140">
						<ele>146</ele>
						<time>2025-03-11T20:03:09Z</time>
					</trkpt>
					<trkpt lat="48.610540" lon="1.942220">
						<ele>126</ele>
						<time>2025-03-11T20:05:52Z</time>
					</trkpt>
					<trkpt lat="48.608380" lon="1.946420">
						<ele>124</ele>
						<time>2025-03-11T20:08:48Z</time>
					</trkpt>
					<trkpt lat="48.606850" lon="1.949560">
						<ele>120</ele>
						<time>2025-03-11T20:10:57Z</time>
					</trkpt>
					<trkpt lat="48.605820" lon="1.951790">
						<ele>120</ele>
						<time>2025-03-11T20:12:27Z</time>
					</trkpt>
					<trkpt lat="48.603630" lon="1.956080">
						<ele>118</ele>
						<time>2025-03-11T20:15:26Z</time>
					</trkpt>
					<trkpt lat="48.601410" lon="1.960590">
						<ele>135</ele>
						<time>2025-03-11T20:18:32Z</time>
					</trkpt>
					<trkpt lat="48.601530" lon="1.961400">
						<ele>137</ele>
						<time>2025-03-11T20:19:00Z</time>
					</trkpt>
					<trkpt lat="48.601470" lon="1.962180">
						<ele>139</ele>
						<time>2025-03-11T20:19:26Z</time>
					</trkpt>
					<trkpt lat="48.603070" lon="1.963750">
						<ele>145</ele>
						<time>2025-03-11T20:21:01Z</time>
					</trkpt>
					<trkpt lat="48.604950" lon="1.965710">
						<ele>146</ele>
						<time>2025-03-11T20:22:55Z</time>
					</trkpt>
					<trkpt lat="48.607090" lon="1.967840">
						<ele>121</ele>
						<time>2025-03-11T20:25:04Z</time>
					</trkpt>
					<trkpt lat="48.608810" lon="1.969470">
						<ele>113</ele>
						<time>2025-03-11T20:26:45Z</time>
					</trkpt>
					<trkpt lat="48.608600" lon="1.969970">
						<ele>114</ele>
						<time>2025-03-11T20:27:05Z</time>
					</trkpt>
					<trkpt lat="48.608110" lon="1.971340">
						<ele>113</ele>
						<time>2025-03-11T20:27:56Z</time>
					</trkpt>
					<trkpt lat="48.607900" lon="1.973150">
						<ele>111</ele>
						<time>2025-03-11T20:28:57Z</time>
					</trkpt>
					<trkpt lat="48.607840" lon="1.974390">
						<ele>109</ele>
						<time>2025-03-11T20:29:38Z</time>
					</trkpt>
					<trkpt lat="48.607280" lon="1.974630">
						<ele>110</ele>
						<time>2025-03-11T20:30:07Z</time>
					</trkpt>
					<trkpt lat="48.606880" lon="1.974710">
						<ele>112</ele>
						<time>2025-03-11T20:30:28Z</time>
					</trkpt>
					<trkpt lat="48.606530" lon="1.974410">
						<ele>112</ele>
						<time>2025-03-11T20:30:48Z</time>
					</trkpt>
					<trkpt lat="48.605610" lon="1.973260">
						<ele>116</ele>
						<time>2025-03-11T20:31:48Z</time>
					</trkpt>
					<trkpt lat="48.605160" lon="1.972900">
						<ele>119</ele>
						<time>2025-03-11T20:32:13Z</time>
					</trkpt>
					<trkpt lat="48.604700" lon="1.972640">
						<ele>121</ele>
						<time>2025-03-11T20:32:38Z</time>
					</trkpt>
					<trkpt lat="48.604190" lon="1.972170">
						<ele>122</ele>
						<time>2025-03-11T20:33:07Z</time>
					</trkpt>
					<trkpt lat="48.603830" lon="1.971680">
						<ele>124</ele>
						<time>2025-03-11T20:33:32Z</time>
					</trkpt>
					<trkpt lat="48.603370" lon="1.971170">
						<ele>124</ele>
						<time>2025-03-11T20:34:00Z</time>
					</trkpt>
					<trkpt lat="48.603130" lon="1.970790">
						<ele>125</ele>
						<time>2025-03-11T20:34:18Z</time>
					</trkpt>
					<trkpt lat="48.602980" lon="1.970100">
						<ele>127</ele>
						<time>2025-03-11T20:34:42Z</time>
					</trkpt>
					<trkpt lat="48.602530" lon="1.971150">
						<ele>127</ele>
						<time>2025-03-11T20:35:23Z</time>
					</trkpt>
					<trkpt lat="48.601930" lon="1.970870">
						<ele>133</ele>
						<time>2025-03-11T20:35:54Z</time>
					</trkpt>
					<trkpt lat="48.601190" lon="1.970650">
						<ele>140</ele>
						<time>2025-03-11T20:36:32Z</time>
					</trkpt>
					<trkpt lat="48.600410" lon="1.971130">
						<ele>144</ele>
						<time>2025-03-11T20:37:14Z</time>
					</trkpt>
					<trkpt lat="48.599670" lon="1.971420">
						<ele>141</ele>
						<time>2025-03-11T20:37:53Z</time>
					</trkpt>
					<trkpt lat="48.597300" lon="1.969030">
						<ele>146</ele>
						<time>2025-03-11T20:40:15Z</time>
					</trkpt>
					<trkpt lat="48.598850" lon="1.965760">
						<ele>156</ele>
						<time>2025-03-11T20:42:28Z</time>
					</trkpt>
					<trkpt lat="48.595890" lon="1.962870">
						<ele>153</ele>
						<time>2025-03-11T20:45:25Z</time>
					</trkpt>
					<trkpt lat="48.591080" lon="1.973240">
						<ele>125</ele>
						<time>2025-03-11T20:52:24Z</time>
					</trkpt>
					<trkpt lat="48.592030" lon="1.974100">
						<ele>129</ele>
						<time>2025-03-11T20:53:19Z</time>
					</trkpt>
					<trkpt lat="48.592250" lon="1.974260">
						<ele>130</ele>
						<time>2025-03-11T20:53:31Z</time>
					</trkpt>
					<trkpt lat="48.592510" lon="1.974270">
						<ele>130</ele>
						<time>2025-03-11T20:53:44Z</time>
					</trkpt>
					<trkpt lat="48.593480" lon="1.974230">
						<ele>136</ele>
						<time>2025-03-11T20:54:33Z</time>
					</trkpt>
					<trkpt lat="48.594780" lon="1.974290">
						<ele>141</ele>
						<time>2025-03-11T20:55:38Z</time>
					</trkpt>
					<trkpt lat="48.595190" lon="1.974470">
						<ele>140</ele>
						<time>2025-03-11T20:56:00Z</time>
					</trkpt>
					<trkpt lat="48.597620" lon="1.976150">
						<ele>127</ele>
						<time>2025-03-11T20:58:13Z</time>
					</trkpt>
					<trkpt lat="48.598690" lon="1.976850">
						<ele>122</ele>
						<time>2025-03-11T20:59:12Z</time>
					</trkpt>
					<trkpt lat="48.599300" lon="1.976800">
						<ele>121</ele>
						<time>2025-03-11T20:59:42Z</time>
					</trkpt>
					<trkpt lat="48.599760" lon="1.977070">
						<ele>120</ele>
						<time>2025-03-11T21:00:07Z</time>
					</trkpt>
					<trkpt lat="48.598610" lon="1.979860">
						<ele>142</ele>
						<time>2025-03-11T21:01:56Z</time>
					</trkpt>
					<trkpt lat="48.597770" lon="1.978970">
						<ele>134</ele>
						<time>2025-03-11T21:02:47Z</time>
					</trkpt>
					<trkpt lat="48.597060" lon="1.978460">
						<ele>133</ele>
						<time>2025-03-11T21:03:26Z</time>
					</trkpt>
					<trkpt lat="48.596910" lon="1.978220">
						<ele>134</ele>
						<time>2025-03-11T21:03:37Z</time>
					</trkpt>
					<trkpt lat="48.596280" lon="1.977480">
						<ele>140</ele>
						<time>2025-03-11T21:04:17Z</time>
					</trkpt>
					<trkpt lat="48.595890" lon="1.977330">
						<ele>143</ele>
						<time>2025-03-11T21:04:37Z</time>
					</trkpt>
					<trkpt lat="48.595500" lon="1.977110">
						<ele>146</ele>
						<time>2025-03-11T21:04:58Z</time>
					</trkpt>
					<trkpt lat="48.594290" lon="1.976340">
						<ele>152</ele>
						<time>2025-03-11T21:06:04Z</time>
					</trkpt>
					<trkpt lat="48.594290" lon="1.976900">
						<ele>155</ele>
						<time>2025-03-11T21:06:22Z</time>
					</trkpt>
					<trkpt lat="48.594430" lon="1.977430">
						<ele>156</ele>
						<time>2025-03-11T21:06:41Z</time>
					</trkpt>
					<trkpt lat="48.594270" lon="1.977420">
						<ele>158</ele>
						<time>2025-03-11T21:06:49Z</time>
					</trkpt>
					<trkpt lat="48.593990" lon="1.977270">
						<ele>158</ele>
						<time>2025-03-11T21:07:04Z</time>
					</trkpt>
					<trkpt lat="48.593760" lon="1.977090">
						<ele>157</ele>
						<time>2025-03-11T21:07:17Z</time>
					</trkpt>
					<trkpt lat="48.593540" lon="1.977160">
						<ele>157</ele>
						<time>2025-03-11T21:07:28Z</time>
					</trkpt>
					<trkpt lat="48.593370" lon="1.977610">
						<ele>158</ele>
						<time>2025-03-11T21:07:45Z</time>
					</trkpt>
					<trkpt lat="48.593350" lon="1.977840">
						<ele>157</ele>
						<time>2025-03-11T21:07:53Z</time>
					</trkpt>
					<trkpt lat="48.593600" lon="1.978670">
						<ele>156</ele>
						<time>2025-03-11T21:08:23Z</time>
					</trkpt>
					<trkpt lat="48.593670" lon="1.979090">
						<ele>156</ele>
						<time>2025-03-11T21:08:38Z</time>
					</trkpt>
					<trkpt lat="48.593680" lon="1.979490">
						<ele>156</ele>
						<time>2025-03-11T21:08:51Z</time>
					</trkpt>
					<trkpt lat="48.593550" lon="1.980100">
						<ele>155</ele>
						<time>2025-03-11T21:09:12Z</time>
					</trkpt>
					<trkpt lat="48.593600" lon="1.980380">
						<ele>155</ele>
						<time>2025-03-11T21:09:22Z</time>
					</trkpt>
					<trkpt lat="48.593880" lon="1.980760">
						<ele>156</ele>
						<time>2025-03-11T21:09:41Z</time>
					</trkpt>
					<trkpt lat="48.594110" lon="1.980920">
						<ele>156</ele>
						<time>2025-03-11T21:09:53Z</time>
					</trkpt>
					<trkpt lat="48.594310" lon="1.980830">
						<ele>159</ele>
						<time>2025-03-11T21:10:04Z</time>
					</trkpt>
					<trkpt lat="48.594720" lon="1.980200">
						<ele>162</ele>
						<time>2025-03-11T21:10:33Z</time>
					</trkpt>
					<trkpt lat="48.594950" lon="1.979980">
						<ele>164</ele>
						<time>2025-03-11T21:10:47Z</time>
					</trkpt>
					<trkpt lat="48.595130" lon="1.979850">
						<ele>162</ele>
						<time>2025-03-11T21:10:57Z</time>
					</trkpt>
					<trkpt lat="48.595830" lon="1.980580">
						<ele>160</ele>
						<time>2025-03-11T21:11:39Z</time>
					</trkpt>
					<trkpt lat="48.596720" lon="1.981610">
						<ele>154</ele>
						<time>2025-03-11T21:12:35Z</time>
					</trkpt>
					<trkpt lat="48.597510" lon="1.982080">
						<ele>145</ele>
						<time>2025-03-11T21:13:18Z</time>
					</trkpt>
					<trkpt lat="48.598920" lon="1.983010">
						<ele>135</ele>
						<time>2025-03-11T21:14:35Z</time>
					</trkpt>
					<trkpt lat="48.598430" lon="1.984200">
						<ele>131</ele>
						<time>2025-03-11T21:15:21Z</time>
					</trkpt>
					<trkpt lat="48.598520" lon="1.984800">
						<ele>131</ele>
						<time>2025-03-11T21:15:41Z</time>
					</trkpt>
					<trkpt lat="48.597030" lon="1.985900">
						<ele>145</ele>
						<time>2025-03-11T21:17:04Z</time>
					</trkpt>
					<trkpt lat="48.597010" lon="1.986410">
						<ele>140</ele>
						<time>2025-03-11T21:17:21Z</time>
					</trkpt>
					<trkpt lat="48.596720" lon="1.986890">
						<ele>134</ele>
						<time>2025-03-11T21:17:43Z</time>
					</trkpt>
					<trkpt lat="48.596360" lon="1.986940">
						<ele>132</ele>
						<time>2025-03-11T21:18:01Z</time>
					</trkpt>
					<trkpt lat="48.596110" lon="1.987220">
						<ele>130</ele>
						<time>2025-03-11T21:18:16Z</time>
					</trkpt>
					<trkpt lat="48.595620" lon="1.987960">
						<ele>128</ele>
						<time>2025-03-11T21:18:51Z</time>
					</trkpt>
					<trkpt lat="48.595000" lon="1.988040">
						<ele>125</ele>
						<time>2025-03-11T21:19:22Z</time>
					</trkpt>
					<trkpt lat="48.594240" lon="1.988100">
						<ele>122</ele>
						<time>2025-03-11T21:20:00Z</time>
					</trkpt>
					<trkpt lat="48.593420" lon="1.988270">
						<ele>121</ele>
						<time>2025-03-11T21:20:42Z</time>
					</trkpt>
					<trkpt lat="48.592560" lon="1.988690">
						<ele>119</ele>
						<time>2025-03-11T21:21:27Z</time>
					</trkpt>
					<trkpt lat="48.592420" lon="1.988810">
						<ele>119</ele>
						<time>2025-03-11T21:21:35Z</time>
					</trkpt>
					<trkpt lat="48.591980" lon="1.989690">
						<ele>120</ele>
						<time>2025-03-11T21:22:12Z</time>
					</trkpt>
					<trkpt lat="48.588680" lon="1.985610">
						<ele>113</ele>
						<time>2025-03-11T21:25:45Z</time>
					</trkpt>
					</trkseg>
				</trk>
			</gpx>