<?xml version="1.0" encoding="UTF-8" ?>
<gpx version="1.1" xmlns:xsi="http://www.w3.org/2001/XMLSchema-instance" 
    xmlns="http://www.topografix.com/GPX/1/1" 
    xsi:schemaLocation="http://www.topografix.com/GPX/1/1 http://www.topografix.com/GPX/1/1/gpx.xsd" 
    creator="Openrunner - https://www.openrunner.com" >
				<wpt lat="48.859150" lon="2.292910">
				 	<ele>0</ele>
				 	<name><![CDATA[P4]]></name>
				 	<desc><![CDATA[]]></desc>
					<sym>5</sym>
				</wpt>
			
				<wpt lat="48.858960" lon="2.292365">
				 	<ele>0</ele>
				 	<name><![CDATA[P3]]></name>
				 	<desc><![CDATA[]]></desc>
					<sym>5</sym>
				</wpt>
			
				<wpt lat="48.854919" lon="2.288490">
				 	<ele>0</ele>
				 	<name><![CDATA[P2]]></name>
				 	<desc><![CDATA[]]></desc>
					<sym>5</sym>
				</wpt>
			
				<wpt lat="48.855571" lon="2.287628">
				 	<ele>0</ele>
				 	<name><![CDATA[P1]]></name>
				 	<desc><![CDATA[]]></desc>
					<sym>5</sym>
				</wpt>
			
				<wpt lat="48.829757" lon="2.260703">
				 	<ele>0</ele>
				 	<name><![CDATA[IM1]]></name>
				 	<desc><![CDATA[]]></desc>
					<sym>5</sym>
				</wpt>
			
				<wpt lat="48.821258" lon="2.248840">
				 	<ele>0</ele>
				 	<name><![CDATA[M4]]></name>
				 	<desc><![CDATA[]]></desc>
					<sym>5</sym>
				</wpt>
			
				<wpt lat="48.829518" lon="2.223221">
				 	<ele>0</ele>
				 	<name><![CDATA[S1]]></name>
				 	<desc><![CDATA[]]></desc>
					<sym>5</sym>
				</wpt>
			
				<wpt lat="48.829663" lon="2.218149">
				 	<ele>0</ele>
				 	<name><![CDATA[SC11]]></name>
				 	<desc><![CDATA[]]></desc>
					<sym>5</sym>
				</wpt>
			
				<wpt lat="48.831173" lon="2.217910">
				 	<ele>0</ele>
				 	<name><![CDATA[SC10]]></name>
				 	<desc><![CDATA[]]></desc>
					<sym>5</sym>
				</wpt>
			
				<wpt lat="48.831857" lon="2.217787">
				 	<ele>0</ele>
				 	<name><![CDATA[SC9]]></name>
				 	<desc><![CDATA[]]></desc>
					<sym>5</sym>
				</wpt>
			
				<wpt lat="48.835424" lon="2.217047">
				 	<ele>0</ele>
				 	<name><![CDATA[SC8]]></name>
				 	<desc><![CDATA[]]></desc>
					<sym>5</sym>
				</wpt>
			
				<wpt lat="48.835133" lon="2.214585">
				 	<ele>0</ele>
				 	<name><![CDATA[SC7]]></name>
				 	<desc><![CDATA[]]></desc>
					<sym>5</sym>
				</wpt>
			
				<wpt lat="48.835738" lon="2.209684">
				 	<ele>0</ele>
				 	<name><![CDATA[SC5]]></name>
				 	<desc><![CDATA[]]></desc>
					<sym>5</sym>
				</wpt>
			
				<wpt lat="48.835905" lon="2.209878">
				 	<ele>0</ele>
				 	<name><![CDATA[SC6]]></name>
				 	<desc><![CDATA[]]></desc>
					<sym>5</sym>
				</wpt>
			
				<wpt lat="48.831871" lon="2.180854">
				 	<ele>0</ele>
				 	<name><![CDATA[SC4]]></name>
				 	<desc><![CDATA[]]></desc>
					<sym>5</sym>
				</wpt>
			
				<wpt lat="48.835376" lon="2.170148">
				 	<ele>0</ele>
				 	<name><![CDATA[MC4]]></name>
				 	<desc><![CDATA[]]></desc>
					<sym>5</sym>
				</wpt>
			
				<wpt lat="48.823254" lon="2.165875">
				 	<ele>0</ele>
				 	<name><![CDATA[VA3]]></name>
				 	<desc><![CDATA[]]></desc>
					<sym>5</sym>
				</wpt>
			
				<wpt lat="48.818472" lon="2.166181">
				 	<ele>0</ele>
				 	<name><![CDATA[VA2]]></name>
				 	<desc><![CDATA[]]></desc>
					<sym>5</sym>
				</wpt>
			
				<wpt lat="48.817450" lon="2.192671">
				 	<ele>0</ele>
				 	<name><![CDATA[C9]]></name>
				 	<desc><![CDATA[]]></desc>
					<sym>5</sym>
				</wpt>
			
				<wpt lat="48.817211" lon="2.193130">
				 	<ele>0</ele>
				 	<name><![CDATA[C8]]></name>
				 	<desc><![CDATA[]]></desc>
					<sym>5</sym>
				</wpt>
			
				<wpt lat="48.816599" lon="2.193843">
				 	<ele>0</ele>
				 	<name><![CDATA[C7]]></name>
				 	<desc><![CDATA[]]></desc>
					<sym>5</sym>
				</wpt>
			
				<wpt lat="48.816426" lon="2.194723">
				 	<ele>0</ele>
				 	<name><![CDATA[C6]]></name>
				 	<desc><![CDATA[]]></desc>
					<sym>5</sym>
				</wpt>
			
				<wpt lat="48.815819" lon="2.195620">
				 	<ele>0</ele>
				 	<name><![CDATA[C5]]></name>
				 	<desc><![CDATA[]]></desc>
					<sym>5</sym>
				</wpt>
			
				<wpt lat="48.815141" lon="2.196750">
				 	<ele>0</ele>
				 	<name><![CDATA[C4]]></name>
				 	<desc><![CDATA[]]></desc>
					<sym>5</sym>
				</wpt>
			
				<wpt lat="48.808581" lon="2.195804">
				 	<ele>0</ele>
				 	<name><![CDATA[C3]]></name>
				 	<desc><![CDATA[]]></desc>
					<sym>5</sym>
				</wpt>
			
				<wpt lat="48.808442" lon="2.195603">
				 	<ele>0</ele>
				 	<name><![CDATA[C2]]></name>
				 	<desc><![CDATA[]]></desc>
					<sym>5</sym>
				</wpt>
			
				<wpt lat="48.803563" lon="2.194591">
				 	<ele>0</ele>
				 	<name><![CDATA[C1]]></name>
				 	<desc><![CDATA[]]></desc>
					<sym>5</sym>
				</wpt>
			
				<wpt lat="48.798020" lon="2.218597">
				 	<ele>0</ele>
				 	<name><![CDATA[M3]]></name>
				 	<desc><![CDATA[]]></desc>
					<sym>1</sym>
				</wpt>
			
				<wpt lat="48.830963" lon="2.222428">
				 	<ele>0</ele>
				 	<name><![CDATA[Ravitaillement - ST-CLOUD]]></name>
				 	<desc><![CDATA[]]></desc>
					<sym>3</sym>
				</wpt>
			
				<wpt lat="48.848966" lon="2.280460">
				 	<ele>0</ele>
				 	<name><![CDATA[P0(1)]]></name>
				 	<desc><![CDATA[]]></desc>
					<sym>5</sym>
				</wpt>
			
				<wpt lat="48.850322" lon="2.282338">
				 	<ele>0</ele>
				 	<name><![CDATA[P0(2)]]></name>
				 	<desc><![CDATA[]]></desc>
					<sym>5</sym>
				</wpt>
			
				<wpt lat="48.849685" lon="2.281399">
				 	<ele>0</ele>
				 	<name><![CDATA[P0(3)]]></name>
				 	<desc><![CDATA[]]></desc>
					<sym>5</sym>
				</wpt>
			
				<wpt lat="48.850379" lon="2.280226">
				 	<ele>0</ele>
				 	<name><![CDATA[P0(4)]]></name>
				 	<desc><![CDATA[]]></desc>
					<sym>5</sym>
				</wpt>
				<trk>
						<name>ETP25_30km_V4-20907622</name>
						<trkseg>
					<trkpt lat="48.807210" lon="2.232410">
						<ele>150</ele>
						<time>2025-03-17T10:54:54Z</time>
					</trkpt>
					<trkpt lat="48.806630" lon="2.232550">
						<ele>151</ele>
						<time>2025-03-17T10:55:23Z</time>
					</trkpt>
					<trkpt lat="48.805600" lon="2.231580">
						<ele>155</ele>
						<time>2025-03-17T10:56:24Z</time>
					</trkpt>
					<trkpt lat="48.804240" lon="2.230930">
						<ele>158</ele>
						<time>2025-03-17T10:57:35Z</time>
					</trkpt>
					<trkpt lat="48.803740" lon="2.230660">
						<ele>163</ele>
						<time>2025-03-17T10:58:02Z</time>
					</trkpt>
					<trkpt lat="48.803620" lon="2.230540">
						<ele>165</ele>
						<time>2025-03-17T10:58:09Z</time>
					</trkpt>
					<trkpt lat="48.803700" lon="2.230490">
						<ele>165</ele>
						<time>2025-03-17T10:58:13Z</time>
					</trkpt>
					<trkpt lat="48.803800" lon="2.230490">
						<ele>164</ele>
						<time>2025-03-17T10:58:18Z</time>
					</trkpt>
					<trkpt lat="48.804390" lon="2.230730">
						<ele>160</ele>
						<time>2025-03-17T10:58:49Z</time>
					</trkpt>
					<trkpt lat="48.804480" lon="2.230710">
						<ele>161</ele>
						<time>2025-03-17T10:58:54Z</time>
					</trkpt>
					<trkpt lat="48.804540" lon="2.230660">
						<ele>161</ele>
						<time>2025-03-17T10:58:57Z</time>
					</trkpt>
					<trkpt lat="48.804450" lon="2.230550">
						<ele>162</ele>
						<time>2025-03-17T10:59:03Z</time>
					</trkpt>
					<trkpt lat="48.803740" lon="2.230280">
						<ele>166</ele>
						<time>2025-03-17T10:59:39Z</time>
					</trkpt>
					<trkpt lat="48.803330" lon="2.230050">
						<ele>170</ele>
						<time>2025-03-17T11:00:01Z</time>
					</trkpt>
					<trkpt lat="48.802360" lon="2.229670">
						<ele>173</ele>
						<time>2025-03-17T11:00:51Z</time>
					</trkpt>
					<trkpt lat="48.800860" lon="2.228910">
						<ele>172</ele>
						<time>2025-03-17T11:02:11Z</time>
					</trkpt>
					<trkpt lat="48.799930" lon="2.228520">
						<ele>172</ele>
						<time>2025-03-17T11:02:59Z</time>
					</trkpt>
					<trkpt lat="48.799530" lon="2.228770">
						<ele>169</ele>
						<time>2025-03-17T11:03:20Z</time>
					</trkpt>
					<trkpt lat="48.799380" lon="2.228620">
						<ele>170</ele>
						<time>2025-03-17T11:03:29Z</time>
					</trkpt>
					<trkpt lat="48.799320" lon="2.228380">
						<ele>171</ele>
						<time>2025-03-17T11:03:38Z</time>
					</trkpt>
					<trkpt lat="48.799360" lon="2.228060">
						<ele>172</ele>
						<time>2025-03-17T11:03:49Z</time>
					</trkpt>
					<trkpt lat="48.799580" lon="2.227870">
						<ele>173</ele>
						<time>2025-03-17T11:04:01Z</time>
					</trkpt>
					<trkpt lat="48.799620" lon="2.227720">
						<ele>174</ele>
						<time>2025-03-17T11:04:07Z</time>
					</trkpt>
					<trkpt lat="48.799760" lon="2.227670">
						<ele>174</ele>
						<time>2025-03-17T11:04:14Z</time>
					</trkpt>
					<trkpt lat="48.800010" lon="2.227440">
						<ele>176</ele>
						<time>2025-03-17T11:04:29Z</time>
					</trkpt>
					<trkpt lat="48.801140" lon="2.226580">
						<ele>179</ele>
						<time>2025-03-17T11:05:32Z</time>
					</trkpt>
					<trkpt lat="48.801220" lon="2.226470">
						<ele>179</ele>
						<time>2025-03-17T11:05:37Z</time>
					</trkpt>
					<trkpt lat="48.801580" lon="2.226240">
						<ele>179</ele>
						<time>2025-03-17T11:05:57Z</time>
					</trkpt>
					<trkpt lat="48.802750" lon="2.225350">
						<ele>176</ele>
						<time>2025-03-17T11:07:02Z</time>
					</trkpt>
					<trkpt lat="48.802780" lon="2.225140">
						<ele>176</ele>
						<time>2025-03-17T11:07:09Z</time>
					</trkpt>
					<trkpt lat="48.802760" lon="2.225010">
						<ele>176</ele>
						<time>2025-03-17T11:07:14Z</time>
					</trkpt>
					<trkpt lat="48.802790" lon="2.224820">
						<ele>175</ele>
						<time>2025-03-17T11:07:20Z</time>
					</trkpt>
					<trkpt lat="48.802890" lon="2.224670">
						<ele>175</ele>
						<time>2025-03-17T11:07:27Z</time>
					</trkpt>
					<trkpt lat="48.801810" lon="2.221240">
						<ele>182</ele>
						<time>2025-03-17T11:09:32Z</time>
					</trkpt>
					<trkpt lat="48.802910" lon="2.220350">
						<ele>182</ele>
						<time>2025-03-17T11:10:35Z</time>
					</trkpt>
					<trkpt lat="48.804060" lon="2.221830">
						<ele>177</ele>
						<time>2025-03-17T11:11:50Z</time>
					</trkpt>
					<trkpt lat="48.805340" lon="2.223400">
						<ele>174</ele>
						<time>2025-03-17T11:13:13Z</time>
					</trkpt>
					<trkpt lat="48.805430" lon="2.223390">
						<ele>175</ele>
						<time>2025-03-17T11:13:17Z</time>
					</trkpt>
					<trkpt lat="48.805510" lon="2.223510">
						<ele>175</ele>
						<time>2025-03-17T11:13:23Z</time>
					</trkpt>
					<trkpt lat="48.805830" lon="2.224520">
						<ele>174</ele>
						<time>2025-03-17T11:14:00Z</time>
					</trkpt>
					<trkpt lat="48.805950" lon="2.225020">
						<ele>173</ele>
						<time>2025-03-17T11:14:17Z</time>
					</trkpt>
					<trkpt lat="48.806030" lon="2.225140">
						<ele>173</ele>
						<time>2025-03-17T11:14:23Z</time>
					</trkpt>
					<trkpt lat="48.806110" lon="2.225030">
						<ele>173</ele>
						<time>2025-03-17T11:14:28Z</time>
					</trkpt>
					<trkpt lat="48.806090" lon="2.224890">
						<ele>174</ele>
						<time>2025-03-17T11:14:33Z</time>
					</trkpt>
					<trkpt lat="48.806000" lon="2.224820">
						<ele>174</ele>
						<time>2025-03-17T11:14:38Z</time>
					</trkpt>
					<trkpt lat="48.805960" lon="2.224660">
						<ele>174</ele>
						<time>2025-03-17T11:14:44Z</time>
					</trkpt>
					<trkpt lat="48.805710" lon="2.224000">
						<ele>175</ele>
						<time>2025-03-17T11:15:09Z</time>
					</trkpt>
					<trkpt lat="48.805670" lon="2.223820">
						<ele>175</ele>
						<time>2025-03-17T11:15:15Z</time>
					</trkpt>
					<trkpt lat="48.805600" lon="2.223660">
						<ele>175</ele>
						<time>2025-03-17T11:15:21Z</time>
					</trkpt>
					<trkpt lat="48.805480" lon="2.223130">
						<ele>175</ele>
						<time>2025-03-17T11:15:40Z</time>
					</trkpt>
					<trkpt lat="48.805140" lon="2.222910">
						<ele>174</ele>
						<time>2025-03-17T11:15:58Z</time>
					</trkpt>
					<trkpt lat="48.804670" lon="2.222300">
						<ele>175</ele>
						<time>2025-03-17T11:16:29Z</time>
					</trkpt>
					<trkpt lat="48.804590" lon="2.222160">
						<ele>176</ele>
						<time>2025-03-17T11:16:35Z</time>
					</trkpt>
					<trkpt lat="48.803960" lon="2.221440">
						<ele>177</ele>
						<time>2025-03-17T11:17:15Z</time>
					</trkpt>
					<trkpt lat="48.803880" lon="2.221280">
						<ele>177</ele>
						<time>2025-03-17T11:17:21Z</time>
					</trkpt>
					<trkpt lat="48.803770" lon="2.221180">
						<ele>177</ele>
						<time>2025-03-17T11:17:28Z</time>
					</trkpt>
					<trkpt lat="48.803710" lon="2.221050">
						<ele>177</ele>
						<time>2025-03-17T11:17:33Z</time>
					</trkpt>
					<trkpt lat="48.803510" lon="2.220810">
						<ele>178</ele>
						<time>2025-03-17T11:17:46Z</time>
					</trkpt>
					<trkpt lat="48.803160" lon="2.220310">
						<ele>181</ele>
						<time>2025-03-17T11:18:10Z</time>
					</trkpt>
					<trkpt lat="48.802930" lon="2.220080">
						<ele>182</ele>
						<time>2025-03-17T11:18:24Z</time>
					</trkpt>
					<trkpt lat="48.802870" lon="2.220150">
						<ele>182</ele>
						<time>2025-03-17T11:18:28Z</time>
					</trkpt>
					<trkpt lat="48.802660" lon="2.220240">
						<ele>184</ele>
						<time>2025-03-17T11:18:38Z</time>
					</trkpt>
					<trkpt lat="48.802280" lon="2.220550">
						<ele>184</ele>
						<time>2025-03-17T11:19:00Z</time>
					</trkpt>
					<trkpt lat="48.802170" lon="2.220610">
						<ele>184</ele>
						<time>2025-03-17T11:19:06Z</time>
					</trkpt>
					<trkpt lat="48.801970" lon="2.220790">
						<ele>183</ele>
						<time>2025-03-17T11:19:17Z</time>
					</trkpt>
					<trkpt lat="48.801850" lon="2.220870">
						<ele>183</ele>
						<time>2025-03-17T11:19:24Z</time>
					</trkpt>
					<trkpt lat="48.801720" lon="2.220910">
						<ele>183</ele>
						<time>2025-03-17T11:19:31Z</time>
					</trkpt>
					<trkpt lat="48.799900" lon="2.222330">
						<ele>178</ele>
						<time>2025-03-17T11:21:13Z</time>
					</trkpt>
					<trkpt lat="48.799640" lon="2.222660">
						<ele>176</ele>
						<time>2025-03-17T11:21:30Z</time>
					</trkpt>
					<trkpt lat="48.799500" lon="2.227570">
						<ele>173</ele>
						<time>2025-03-17T11:24:12Z</time>
					</trkpt>
					<trkpt lat="48.799220" lon="2.228130">
						<ele>171</ele>
						<time>2025-03-17T11:24:35Z</time>
					</trkpt>
					<trkpt lat="48.799110" lon="2.228180">
						<ele>170</ele>
						<time>2025-03-17T11:24:41Z</time>
					</trkpt>
					<trkpt lat="48.798110" lon="2.227710">
						<ele>147</ele>
						<time>2025-03-17T11:25:33Z</time>
					</trkpt>
					<trkpt lat="48.797910" lon="2.227770">
						<ele>143</ele>
						<time>2025-03-17T11:25:44Z</time>
					</trkpt>
					<trkpt lat="48.797770" lon="2.227770">
						<ele>140</ele>
						<time>2025-03-17T11:25:51Z</time>
					</trkpt>
					<trkpt lat="48.797600" lon="2.227660">
						<ele>137</ele>
						<time>2025-03-17T11:26:00Z</time>
					</trkpt>
					<trkpt lat="48.797570" lon="2.227380">
						<ele>137</ele>
						<time>2025-03-17T11:26:09Z</time>
					</trkpt>
					<trkpt lat="48.797690" lon="2.226750">
						<ele>139</ele>
						<time>2025-03-17T11:26:31Z</time>
					</trkpt>
					<trkpt lat="48.797750" lon="2.224870">
						<ele>145</ele>
						<time>2025-03-17T11:27:33Z</time>
					</trkpt>
					<trkpt lat="48.797620" lon="2.224800">
						<ele>143</ele>
						<time>2025-03-17T11:27:40Z</time>
					</trkpt>
					<trkpt lat="48.797710" lon="2.223930">
						<ele>151</ele>
						<time>2025-03-17T11:28:09Z</time>
					</trkpt>
					<trkpt lat="48.797060" lon="2.221840">
						<ele>164</ele>
						<time>2025-03-17T11:29:25Z</time>
					</trkpt>
					<trkpt lat="48.797790" lon="2.219510">
						<ele>163</ele>
						<time>2025-03-17T11:30:50Z</time>
					</trkpt>
					<trkpt lat="48.798000" lon="2.218550">
						<ele>165</ele>
						<time>2025-03-17T11:31:23Z</time>
					</trkpt>
					<trkpt lat="48.798160" lon="2.216510">
						<ele>170</ele>
						<time>2025-03-17T11:32:31Z</time>
					</trkpt>
					<trkpt lat="48.798250" lon="2.215720">
						<ele>173</ele>
						<time>2025-03-17T11:32:57Z</time>
					</trkpt>
					<trkpt lat="48.798600" lon="2.214960">
						<ele>178</ele>
						<time>2025-03-17T11:33:28Z</time>
					</trkpt>
					<trkpt lat="48.798710" lon="2.214650">
						<ele>179</ele>
						<time>2025-03-17T11:33:40Z</time>
					</trkpt>
					<trkpt lat="48.798980" lon="2.214290">
						<ele>179</ele>
						<time>2025-03-17T11:33:58Z</time>
					</trkpt>
					<trkpt lat="48.799180" lon="2.213560">
						<ele>179</ele>
						<time>2025-03-17T11:34:24Z</time>
					</trkpt>
					<trkpt lat="48.799170" lon="2.213400">
						<ele>180</ele>
						<time>2025-03-17T11:34:29Z</time>
					</trkpt>
					<trkpt lat="48.799100" lon="2.213260">
						<ele>181</ele>
						<time>2025-03-17T11:34:35Z</time>
					</trkpt>
					<trkpt lat="48.798930" lon="2.212620">
						<ele>184</ele>
						<time>2025-03-17T11:34:58Z</time>
					</trkpt>
					<trkpt lat="48.798730" lon="2.212110">
						<ele>184</ele>
						<time>2025-03-17T11:35:17Z</time>
					</trkpt>
					<trkpt lat="48.798690" lon="2.211930">
						<ele>183</ele>
						<time>2025-03-17T11:35:23Z</time>
					</trkpt>
					<trkpt lat="48.798400" lon="2.211120">
						<ele>178</ele>
						<time>2025-03-17T11:35:54Z</time>
					</trkpt>
					<trkpt lat="48.798160" lon="2.210340">
						<ele>175</ele>
						<time>2025-03-17T11:36:22Z</time>
					</trkpt>
					<trkpt lat="48.798130" lon="2.210180">
						<ele>175</ele>
						<time>2025-03-17T11:36:28Z</time>
					</trkpt>
					<trkpt lat="48.797700" lon="2.208820">
						<ele>181</ele>
						<time>2025-03-17T11:37:17Z</time>
					</trkpt>
					<trkpt lat="48.797630" lon="2.208650">
						<ele>181</ele>
						<time>2025-03-17T11:37:24Z</time>
					</trkpt>
					<trkpt lat="48.797530" lon="2.208520">
						<ele>182</ele>
						<time>2025-03-17T11:37:31Z</time>
					</trkpt>
					<trkpt lat="48.797050" lon="2.207110">
						<ele>181</ele>
						<time>2025-03-17T11:38:23Z</time>
					</trkpt>
					<trkpt lat="48.796810" lon="2.206520">
						<ele>180</ele>
						<time>2025-03-17T11:38:46Z</time>
					</trkpt>
					<trkpt lat="48.796800" lon="2.206390">
						<ele>180</ele>
						<time>2025-03-17T11:38:50Z</time>
					</trkpt>
					<trkpt lat="48.797390" lon="2.205790">
						<ele>181</ele>
						<time>2025-03-17T11:39:26Z</time>
					</trkpt>
					<trkpt lat="48.797750" lon="2.205290">
						<ele>180</ele>
						<time>2025-03-17T11:39:50Z</time>
					</trkpt>
					<trkpt lat="48.798260" lon="2.205020">
						<ele>180</ele>
						<time>2025-03-17T11:40:17Z</time>
					</trkpt>
					<trkpt lat="48.798900" lon="2.205050">
						<ele>179</ele>
						<time>2025-03-17T11:40:49Z</time>
					</trkpt>
					<trkpt lat="48.799500" lon="2.204890">
						<ele>177</ele>
						<time>2025-03-17T11:41:20Z</time>
					</trkpt>
					<trkpt lat="48.799250" lon="2.204430">
						<ele>175</ele>
						<time>2025-03-17T11:41:39Z</time>
					</trkpt>
					<trkpt lat="48.799780" lon="2.204570">
						<ele>173</ele>
						<time>2025-03-17T11:42:06Z</time>
					</trkpt>
					<trkpt lat="48.800610" lon="2.204470">
						<ele>174</ele>
						<time>2025-03-17T11:42:48Z</time>
					</trkpt>
					<trkpt lat="48.800890" lon="2.204180">
						<ele>172</ele>
						<time>2025-03-17T11:43:05Z</time>
					</trkpt>
					<trkpt lat="48.801240" lon="2.203150">
						<ele>168</ele>
						<time>2025-03-17T11:43:43Z</time>
					</trkpt>
					<trkpt lat="48.801380" lon="2.203090">
						<ele>170</ele>
						<time>2025-03-17T11:43:50Z</time>
					</trkpt>
					<trkpt lat="48.801490" lon="2.203200">
						<ele>172</ele>
						<time>2025-03-17T11:43:57Z</time>
					</trkpt>
					<trkpt lat="48.801610" lon="2.203020">
						<ele>173</ele>
						<time>2025-03-17T11:44:05Z</time>
					</trkpt>
					<trkpt lat="48.801570" lon="2.202510">
						<ele>171</ele>
						<time>2025-03-17T11:44:22Z</time>
					</trkpt>
					<trkpt lat="48.801800" lon="2.201960">
						<ele>169</ele>
						<time>2025-03-17T11:44:44Z</time>
					</trkpt>
					<trkpt lat="48.802230" lon="2.201610">
						<ele>169</ele>
						<time>2025-03-17T11:45:08Z</time>
					</trkpt>
					<trkpt lat="48.802770" lon="2.201400">
						<ele>168</ele>
						<time>2025-03-17T11:45:36Z</time>
					</trkpt>
					<trkpt lat="48.803050" lon="2.201180">
						<ele>166</ele>
						<time>2025-03-17T11:45:52Z</time>
					</trkpt>
					<trkpt lat="48.803260" lon="2.200860">
						<ele>165</ele>
						<time>2025-03-17T11:46:07Z</time>
					</trkpt>
					<trkpt lat="48.803270" lon="2.200620">
						<ele>162</ele>
						<time>2025-03-17T11:46:15Z</time>
					</trkpt>
					<trkpt lat="48.803190" lon="2.200380">
						<ele>159</ele>
						<time>2025-03-17T11:46:23Z</time>
					</trkpt>
					<trkpt lat="48.802640" lon="2.199840">
						<ele>151</ele>
						<time>2025-03-17T11:46:56Z</time>
					</trkpt>
					<trkpt lat="48.802280" lon="2.199550">
						<ele>146</ele>
						<time>2025-03-17T11:47:17Z</time>
					</trkpt>
					<trkpt lat="48.801070" lon="2.198470">
						<ele>132</ele>
						<time>2025-03-17T11:48:27Z</time>
					</trkpt>
					<trkpt lat="48.799940" lon="2.197410">
						<ele>116</ele>
						<time>2025-03-17T11:49:33Z</time>
					</trkpt>
					<trkpt lat="48.800250" lon="2.197170">
						<ele>118</ele>
						<time>2025-03-17T11:49:51Z</time>
					</trkpt>
					<trkpt lat="48.800530" lon="2.197030">
						<ele>121</ele>
						<time>2025-03-17T11:50:05Z</time>
					</trkpt>
					<trkpt lat="48.801070" lon="2.196540">
						<ele>127</ele>
						<time>2025-03-17T11:50:37Z</time>
					</trkpt>
					<trkpt lat="48.801360" lon="2.196380">
						<ele>130</ele>
						<time>2025-03-17T11:50:52Z</time>
					</trkpt>
					<trkpt lat="48.801620" lon="2.196160">
						<ele>132</ele>
						<time>2025-03-17T11:51:07Z</time>
					</trkpt>
					<trkpt lat="48.801720" lon="2.196040">
						<ele>133</ele>
						<time>2025-03-17T11:51:14Z</time>
					</trkpt>
					<trkpt lat="48.802120" lon="2.195730">
						<ele>135</ele>
						<time>2025-03-17T11:51:36Z</time>
					</trkpt>
					<trkpt lat="48.802190" lon="2.195630">
						<ele>135</ele>
						<time>2025-03-17T11:51:41Z</time>
					</trkpt>
					<trkpt lat="48.802550" lon="2.195430">
						<ele>136</ele>
						<time>2025-03-17T11:52:00Z</time>
					</trkpt>
					<trkpt lat="48.802600" lon="2.195360">
						<ele>137</ele>
						<time>2025-03-17T11:52:04Z</time>
					</trkpt>
					<trkpt lat="48.803590" lon="2.194550">
						<ele>141</ele>
						<time>2025-03-17T11:53:00Z</time>
					</trkpt>
					<trkpt lat="48.804000" lon="2.194180">
						<ele>143</ele>
						<time>2025-03-17T11:53:24Z</time>
					</trkpt>
					<trkpt lat="48.803890" lon="2.193790">
						<ele>142</ele>
						<time>2025-03-17T11:53:38Z</time>
					</trkpt>
					<trkpt lat="48.803920" lon="2.193490">
						<ele>142</ele>
						<time>2025-03-17T11:53:48Z</time>
					</trkpt>
					<trkpt lat="48.804160" lon="2.193600">
						<ele>142</ele>
						<time>2025-03-17T11:54:00Z</time>
					</trkpt>
					<trkpt lat="48.804150" lon="2.193900">
						<ele>143</ele>
						<time>2025-03-17T11:54:10Z</time>
					</trkpt>
					<trkpt lat="48.804170" lon="2.194010">
						<ele>143</ele>
						<time>2025-03-17T11:54:14Z</time>
					</trkpt>
					<trkpt lat="48.804040" lon="2.194150">
						<ele>143</ele>
						<time>2025-03-17T11:54:22Z</time>
					</trkpt>
					<trkpt lat="48.804380" lon="2.194900">
						<ele>142</ele>
						<time>2025-03-17T11:54:52Z</time>
					</trkpt>
					<trkpt lat="48.804430" lon="2.194970">
						<ele>142</ele>
						<time>2025-03-17T11:54:55Z</time>
					</trkpt>
					<trkpt lat="48.805390" lon="2.195170">
						<ele>142</ele>
						<time>2025-03-17T11:55:44Z</time>
					</trkpt>
					<trkpt lat="48.806160" lon="2.195300">
						<ele>139</ele>
						<time>2025-03-17T11:56:23Z</time>
					</trkpt>
					<trkpt lat="48.806520" lon="2.195310">
						<ele>137</ele>
						<time>2025-03-17T11:56:41Z</time>
					</trkpt>
					<trkpt lat="48.807350" lon="2.195490">
						<ele>128</ele>
						<time>2025-03-17T11:57:23Z</time>
					</trkpt>
					<trkpt lat="48.807390" lon="2.195480">
						<ele>128</ele>
						<time>2025-03-17T11:57:25Z</time>
					</trkpt>
					<trkpt lat="48.808360" lon="2.195660">
						<ele>115</ele>
						<time>2025-03-17T11:58:13Z</time>
					</trkpt>
					<trkpt lat="48.808500" lon="2.195570">
						<ele>114</ele>
						<time>2025-03-17T11:58:21Z</time>
					</trkpt>
					<trkpt lat="48.808640" lon="2.195720">
						<ele>114</ele>
						<time>2025-03-17T11:58:30Z</time>
					</trkpt>
					<trkpt lat="48.808750" lon="2.195740">
						<ele>113</ele>
						<time>2025-03-17T11:58:35Z</time>
					</trkpt>
					<trkpt lat="48.808790" lon="2.195900">
						<ele>114</ele>
						<time>2025-03-17T11:58:41Z</time>
					</trkpt>
					<trkpt lat="48.808720" lon="2.196270">
						<ele>116</ele>
						<time>2025-03-17T11:58:54Z</time>
					</trkpt>
					<trkpt lat="48.808800" lon="2.196440">
						<ele>117</ele>
						<time>2025-03-17T11:59:00Z</time>
					</trkpt>
					<trkpt lat="48.808870" lon="2.196850">
						<ele>120</ele>
						<time>2025-03-17T11:59:14Z</time>
					</trkpt>
					<trkpt lat="48.808860" lon="2.196960">
						<ele>120</ele>
						<time>2025-03-17T11:59:18Z</time>
					</trkpt>
					<trkpt lat="48.808930" lon="2.197060">
						<ele>121</ele>
						<time>2025-03-17T11:59:23Z</time>
					</trkpt>
					<trkpt lat="48.808980" lon="2.197240">
						<ele>123</ele>
						<time>2025-03-17T11:59:29Z</time>
					</trkpt>
					<trkpt lat="48.809080" lon="2.197330">
						<ele>125</ele>
						<time>2025-03-17T11:59:35Z</time>
					</trkpt>
					<trkpt lat="48.809130" lon="2.197460">
						<ele>126</ele>
						<time>2025-03-17T11:59:40Z</time>
					</trkpt>
					<trkpt lat="48.809270" lon="2.197710">
						<ele>131</ele>
						<time>2025-03-17T11:59:51Z</time>
					</trkpt>
					<trkpt lat="48.809340" lon="2.197780">
						<ele>132</ele>
						<time>2025-03-17T11:59:55Z</time>
					</trkpt>
					<trkpt lat="48.809370" lon="2.197860">
						<ele>133</ele>
						<time>2025-03-17T11:59:58Z</time>
					</trkpt>
					<trkpt lat="48.809440" lon="2.197900">
						<ele>135</ele>
						<time>2025-03-17T12:00:02Z</time>
					</trkpt>
					<trkpt lat="48.809510" lon="2.198110">
						<ele>138</ele>
						<time>2025-03-17T12:00:10Z</time>
					</trkpt>
					<trkpt lat="48.809500" lon="2.198340">
						<ele>140</ele>
						<time>2025-03-17T12:00:17Z</time>
					</trkpt>
					<trkpt lat="48.809340" lon="2.198580">
						<ele>140</ele>
						<time>2025-03-17T12:00:28Z</time>
					</trkpt>
					<trkpt lat="48.809350" lon="2.198920">
						<ele>144</ele>
						<time>2025-03-17T12:00:40Z</time>
					</trkpt>
					<trkpt lat="48.809290" lon="2.199160">
						<ele>145</ele>
						<time>2025-03-17T12:00:48Z</time>
					</trkpt>
					<trkpt lat="48.809350" lon="2.199300">
						<ele>147</ele>
						<time>2025-03-17T12:00:54Z</time>
					</trkpt>
					<trkpt lat="48.809360" lon="2.199540">
						<ele>149</ele>
						<time>2025-03-17T12:01:02Z</time>
					</trkpt>
					<trkpt lat="48.809310" lon="2.199600">
						<ele>149</ele>
						<time>2025-03-17T12:01:05Z</time>
					</trkpt>
					<trkpt lat="48.809270" lon="2.199710">
						<ele>149</ele>
						<time>2025-03-17T12:01:09Z</time>
					</trkpt>
					<trkpt lat="48.809310" lon="2.199830">
						<ele>151</ele>
						<time>2025-03-17T12:01:13Z</time>
					</trkpt>
					<trkpt lat="48.809370" lon="2.199810">
						<ele>152</ele>
						<time>2025-03-17T12:01:16Z</time>
					</trkpt>
					<trkpt lat="48.809440" lon="2.199860">
						<ele>153</ele>
						<time>2025-03-17T12:01:20Z</time>
					</trkpt>
					<trkpt lat="48.809560" lon="2.199850">
						<ele>155</ele>
						<time>2025-03-17T12:01:26Z</time>
					</trkpt>
					<trkpt lat="48.809590" lon="2.199930">
						<ele>156</ele>
						<time>2025-03-17T12:01:29Z</time>
					</trkpt>
					<trkpt lat="48.809690" lon="2.200020">
						<ele>158</ele>
						<time>2025-03-17T12:01:35Z</time>
					</trkpt>
					<trkpt lat="48.809960" lon="2.200150">
						<ele>163</ele>
						<time>2025-03-17T12:01:49Z</time>
					</trkpt>
					<trkpt lat="48.810070" lon="2.200290">
						<ele>165</ele>
						<time>2025-03-17T12:01:56Z</time>
					</trkpt>
					<trkpt lat="48.810160" lon="2.200330">
						<ele>166</ele>
						<time>2025-03-17T12:02:01Z</time>
					</trkpt>
					<trkpt lat="48.810220" lon="2.200390">
						<ele>166</ele>
						<time>2025-03-17T12:02:05Z</time>
					</trkpt>
					<trkpt lat="48.811630" lon="2.200920">
						<ele>170</ele>
						<time>2025-03-17T12:03:17Z</time>
					</trkpt>
					<trkpt lat="48.811790" lon="2.200930">
						<ele>168</ele>
						<time>2025-03-17T12:03:25Z</time>
					</trkpt>
					<trkpt lat="48.812190" lon="2.201040">
						<ele>164</ele>
						<time>2025-03-17T12:03:46Z</time>
					</trkpt>
					<trkpt lat="48.812310" lon="2.201000">
						<ele>162</ele>
						<time>2025-03-17T12:03:52Z</time>
					</trkpt>
					<trkpt lat="48.812380" lon="2.200840">
						<ele>161</ele>
						<time>2025-03-17T12:03:58Z</time>
					</trkpt>
					<trkpt lat="48.812620" lon="2.200490">
						<ele>156</ele>
						<time>2025-03-17T12:04:15Z</time>
					</trkpt>
					<trkpt lat="48.813050" lon="2.199970">
						<ele>148</ele>
						<time>2025-03-17T12:04:42Z</time>
					</trkpt>
					<trkpt lat="48.813590" lon="2.199240">
						<ele>136</ele>
						<time>2025-03-17T12:05:19Z</time>
					</trkpt>
					<trkpt lat="48.813820" lon="2.198870">
						<ele>132</ele>
						<time>2025-03-17T12:05:35Z</time>
					</trkpt>
					<trkpt lat="48.814070" lon="2.198530">
						<ele>127</ele>
						<time>2025-03-17T12:05:52Z</time>
					</trkpt>
					<trkpt lat="48.814160" lon="2.198190">
						<ele>122</ele>
						<time>2025-03-17T12:06:04Z</time>
					</trkpt>
					<trkpt lat="48.814410" lon="2.197810">
						<ele>116</ele>
						<time>2025-03-17T12:06:22Z</time>
					</trkpt>
					<trkpt lat="48.814540" lon="2.197670">
						<ele>114</ele>
						<time>2025-03-17T12:06:30Z</time>
					</trkpt>
					<trkpt lat="48.814680" lon="2.197590">
						<ele>112</ele>
						<time>2025-03-17T12:06:37Z</time>
					</trkpt>
					<trkpt lat="48.814860" lon="2.197560">
						<ele>110</ele>
						<time>2025-03-17T12:06:46Z</time>
					</trkpt>
					<trkpt lat="48.814910" lon="2.197580">
						<ele>110</ele>
						<time>2025-03-17T12:06:49Z</time>
					</trkpt>
					<trkpt lat="48.815220" lon="2.197780">
						<ele>110</ele>
						<time>2025-03-17T12:07:06Z</time>
					</trkpt>
					<trkpt lat="48.815530" lon="2.198210">
						<ele>112</ele>
						<time>2025-03-17T12:07:27Z</time>
					</trkpt>
					<trkpt lat="48.815610" lon="2.198200">
						<ele>111</ele>
						<time>2025-03-17T12:07:31Z</time>
					</trkpt>
					<trkpt lat="48.815790" lon="2.197890">
						<ele>105</ele>
						<time>2025-03-17T12:07:45Z</time>
					</trkpt>
					<trkpt lat="48.815820" lon="2.197710">
						<ele>103</ele>
						<time>2025-03-17T12:07:51Z</time>
					</trkpt>
					<trkpt lat="48.815730" lon="2.197570">
						<ele>103</ele>
						<time>2025-03-17T12:07:57Z</time>
					</trkpt>
					<trkpt lat="48.815500" lon="2.197400">
						<ele>103</ele>
						<time>2025-03-17T12:08:10Z</time>
					</trkpt>
					<trkpt lat="48.815150" lon="2.197060">
						<ele>102</ele>
						<time>2025-03-17T12:08:31Z</time>
					</trkpt>
					<trkpt lat="48.815110" lon="2.196850">
						<ele>99</ele>
						<time>2025-03-17T12:08:38Z</time>
					</trkpt>
					<trkpt lat="48.815140" lon="2.196570">
						<ele>97</ele>
						<time>2025-03-17T12:08:47Z</time>
					</trkpt>
					<trkpt lat="48.815730" lon="2.195750">
						<ele>86</ele>
						<time>2025-03-17T12:09:27Z</time>
					</trkpt>
					<trkpt lat="48.816320" lon="2.194890">
						<ele>75</ele>
						<time>2025-03-17T12:10:08Z</time>
					</trkpt>
					<trkpt lat="48.816410" lon="2.194720">
						<ele>75</ele>
						<time>2025-03-17T12:10:15Z</time>
					</trkpt>
					<trkpt lat="48.816360" lon="2.194550">
						<ele>76</ele>
						<time>2025-03-17T12:10:22Z</time>
					</trkpt>
					<trkpt lat="48.816320" lon="2.194500">
						<ele>76</ele>
						<time>2025-03-17T12:10:24Z</time>
					</trkpt>
					<trkpt lat="48.816330" lon="2.194460">
						<ele>76</ele>
						<time>2025-03-17T12:10:26Z</time>
					</trkpt>
					<trkpt lat="48.816290" lon="2.194410">
						<ele>77</ele>
						<time>2025-03-17T12:10:28Z</time>
					</trkpt>
					<trkpt lat="48.816430" lon="2.194190">
						<ele>77</ele>
						<time>2025-03-17T12:10:38Z</time>
					</trkpt>
					<trkpt lat="48.816530" lon="2.193920">
						<ele>81</ele>
						<time>2025-03-17T12:10:48Z</time>
					</trkpt>
					<trkpt lat="48.816660" lon="2.193790">
						<ele>83</ele>
						<time>2025-03-17T12:10:56Z</time>
					</trkpt>
					<trkpt lat="48.816750" lon="2.193730">
						<ele>85</ele>
						<time>2025-03-17T12:11:01Z</time>
					</trkpt>
					<trkpt lat="48.816810" lon="2.193720">
						<ele>86</ele>
						<time>2025-03-17T12:11:04Z</time>
					</trkpt>
					<trkpt lat="48.816990" lon="2.193380">
						<ele>92</ele>
						<time>2025-03-17T12:11:19Z</time>
					</trkpt>
					<trkpt lat="48.817170" lon="2.193150">
						<ele>96</ele>
						<time>2025-03-17T12:11:30Z</time>
					</trkpt>
					<trkpt lat="48.817280" lon="2.192850">
						<ele>100</ele>
						<time>2025-03-17T12:11:42Z</time>
					</trkpt>
					<trkpt lat="48.817460" lon="2.192690">
						<ele>103</ele>
						<time>2025-03-17T12:11:52Z</time>
					</trkpt>
					<trkpt lat="48.817320" lon="2.192350">
						<ele>104</ele>
						<time>2025-03-17T12:12:05Z</time>
					</trkpt>
					<trkpt lat="48.817220" lon="2.192240">
						<ele>103</ele>
						<time>2025-03-17T12:12:11Z</time>
					</trkpt>
					<trkpt lat="48.817210" lon="2.192190">
						<ele>103</ele>
						<time>2025-03-17T12:12:13Z</time>
					</trkpt>
					<trkpt lat="48.817240" lon="2.192180">
						<ele>103</ele>
						<time>2025-03-17T12:12:15Z</time>
					</trkpt>
					<trkpt lat="48.817300" lon="2.192230">
						<ele>104</ele>
						<time>2025-03-17T12:12:18Z</time>
					</trkpt>
					<trkpt lat="48.817750" lon="2.192200">
						<ele>109</ele>
						<time>2025-03-17T12:12:41Z</time>
					</trkpt>
					<trkpt lat="48.817820" lon="2.192050">
						<ele>111</ele>
						<time>2025-03-17T12:12:47Z</time>
					</trkpt>
					<trkpt lat="48.817850" lon="2.191390">
						<ele>114</ele>
						<time>2025-03-17T12:13:09Z</time>
					</trkpt>
					<trkpt lat="48.817820" lon="2.190620">
						<ele>121</ele>
						<time>2025-03-17T12:13:34Z</time>
					</trkpt>
					<trkpt lat="48.817830" lon="2.189910">
						<ele>128</ele>
						<time>2025-03-17T12:13:57Z</time>
					</trkpt>
					<trkpt lat="48.818060" lon="2.189800">
						<ele>134</ele>
						<time>2025-03-17T12:14:09Z</time>
					</trkpt>
					<trkpt lat="48.818190" lon="2.189710">
						<ele>137</ele>
						<time>2025-03-17T12:14:17Z</time>
					</trkpt>
					<trkpt lat="48.818240" lon="2.189530">
						<ele>140</ele>
						<time>2025-03-17T12:14:23Z</time>
					</trkpt>
					<trkpt lat="48.818460" lon="2.189200">
						<ele>146</ele>
						<time>2025-03-17T12:14:38Z</time>
					</trkpt>
					<trkpt lat="48.819330" lon="2.188480">
						<ele>150</ele>
						<time>2025-03-17T12:15:28Z</time>
					</trkpt>
					<trkpt lat="48.819170" lon="2.188130">
						<ele>151</ele>
						<time>2025-03-17T12:15:42Z</time>
					</trkpt>
					<trkpt lat="48.818600" lon="2.187100">
						<ele>154</ele>
						<time>2025-03-17T12:16:26Z</time>
					</trkpt>
					<trkpt lat="48.818370" lon="2.186780">
						<ele>156</ele>
						<time>2025-03-17T12:16:42Z</time>
					</trkpt>
					<trkpt lat="48.818100" lon="2.186300">
						<ele>156</ele>
						<time>2025-03-17T12:17:03Z</time>
					</trkpt>
					<trkpt lat="48.818030" lon="2.185900">
						<ele>156</ele>
						<time>2025-03-17T12:17:16Z</time>
					</trkpt>
					<trkpt lat="48.818210" lon="2.185870">
						<ele>155</ele>
						<time>2025-03-17T12:17:26Z</time>
					</trkpt>
					<trkpt lat="48.820300" lon="2.184930">
						<ele>128</ele>
						<time>2025-03-17T12:19:15Z</time>
					</trkpt>
					<trkpt lat="48.820400" lon="2.184750">
						<ele>127</ele>
						<time>2025-03-17T12:19:22Z</time>
					</trkpt>
					<trkpt lat="48.820390" lon="2.184550">
						<ele>127</ele>
						<time>2025-03-17T12:19:29Z</time>
					</trkpt>
					<trkpt lat="48.820460" lon="2.184300">
						<ele>126</ele>
						<time>2025-03-17T12:19:38Z</time>
					</trkpt>
					<trkpt lat="48.820290" lon="2.183760">
						<ele>127</ele>
						<time>2025-03-17T12:19:58Z</time>
					</trkpt>
					<trkpt lat="48.820250" lon="2.183320">
						<ele>127</ele>
						<time>2025-03-17T12:20:12Z</time>
					</trkpt>
					<trkpt lat="48.820300" lon="2.182950">
						<ele>125</ele>
						<time>2025-03-17T12:20:25Z</time>
					</trkpt>
					<trkpt lat="48.820250" lon="2.182330">
						<ele>124</ele>
						<time>2025-03-17T12:20:45Z</time>
					</trkpt>
					<trkpt lat="48.820260" lon="2.182040">
						<ele>124</ele>
						<time>2025-03-17T12:20:55Z</time>
					</trkpt>
					<trkpt lat="48.820200" lon="2.181690">
						<ele>125</ele>
						<time>2025-03-17T12:21:07Z</time>
					</trkpt>
					<trkpt lat="48.820090" lon="2.181350">
						<ele>124</ele>
						<time>2025-03-17T12:21:19Z</time>
					</trkpt>
					<trkpt lat="48.819630" lon="2.180450">
						<ele>126</ele>
						<time>2025-03-17T12:21:57Z</time>
					</trkpt>
					<trkpt lat="48.819490" lon="2.180070">
						<ele>127</ele>
						<time>2025-03-17T12:22:11Z</time>
					</trkpt>
					<trkpt lat="48.819380" lon="2.179490">
						<ele>129</ele>
						<time>2025-03-17T12:22:31Z</time>
					</trkpt>
					<trkpt lat="48.819570" lon="2.178970">
						<ele>130</ele>
						<time>2025-03-17T12:22:51Z</time>
					</trkpt>
					<trkpt lat="48.819890" lon="2.178380">
						<ele>129</ele>
						<time>2025-03-17T12:23:16Z</time>
					</trkpt>
					<trkpt lat="48.820050" lon="2.177870">
						<ele>130</ele>
						<time>2025-03-17T12:23:34Z</time>
					</trkpt>
					<trkpt lat="48.820020" lon="2.177770">
						<ele>131</ele>
						<time>2025-03-17T12:23:38Z</time>
					</trkpt>
					<trkpt lat="48.819960" lon="2.177710">
						<ele>132</ele>
						<time>2025-03-17T12:23:42Z</time>
					</trkpt>
					<trkpt lat="48.820020" lon="2.177340">
						<ele>132</ele>
						<time>2025-03-17T12:23:54Z</time>
					</trkpt>
					<trkpt lat="48.820190" lon="2.176700">
						<ele>130</ele>
						<time>2025-03-17T12:24:17Z</time>
					</trkpt>
					<trkpt lat="48.820290" lon="2.176120">
						<ele>131</ele>
						<time>2025-03-17T12:24:37Z</time>
					</trkpt>
					<trkpt lat="48.820340" lon="2.175520">
						<ele>132</ele>
						<time>2025-03-17T12:24:57Z</time>
					</trkpt>
					<trkpt lat="48.820320" lon="2.174810">
						<ele>134</ele>
						<time>2025-03-17T12:25:20Z</time>
					</trkpt>
					<trkpt lat="48.819960" lon="2.173360">
						<ele>133</ele>
						<time>2025-03-17T12:26:11Z</time>
					</trkpt>
					<trkpt lat="48.819680" lon="2.172680">
						<ele>136</ele>
						<time>2025-03-17T12:26:38Z</time>
					</trkpt>
					<trkpt lat="48.819210" lon="2.171660">
						<ele>137</ele>
						<time>2025-03-17T12:27:19Z</time>
					</trkpt>
					<trkpt lat="48.818810" lon="2.171190">
						<ele>137</ele>
						<time>2025-03-17T12:27:44Z</time>
					</trkpt>
					<trkpt lat="48.817630" lon="2.170380">
						<ele>143</ele>
						<time>2025-03-17T12:28:49Z</time>
					</trkpt>
					<trkpt lat="48.815990" lon="2.169330">
						<ele>146</ele>
						<time>2025-03-17T12:30:18Z</time>
					</trkpt>
					<trkpt lat="48.818180" lon="2.166180">
						<ele>136</ele>
						<time>2025-03-17T12:32:49Z</time>
					</trkpt>
					<trkpt lat="48.818980" lon="2.166190">
						<ele>135</ele>
						<time>2025-03-17T12:33:29Z</time>
					</trkpt>
					<trkpt lat="48.820170" lon="2.166080">
						<ele>142</ele>
						<time>2025-03-17T12:34:28Z</time>
					</trkpt>
					<trkpt lat="48.821250" lon="2.165940">
						<ele>151</ele>
						<time>2025-03-17T12:35:23Z</time>
					</trkpt>
					<trkpt lat="48.823280" lon="2.165870">
						<ele>175</ele>
						<time>2025-03-17T12:37:04Z</time>
					</trkpt>
					<trkpt lat="48.827910" lon="2.165590">
						<ele>175</ele>
						<time>2025-03-17T12:40:56Z</time>
					</trkpt>
					<trkpt lat="48.830730" lon="2.165350">
						<ele>171</ele>
						<time>2025-03-17T12:43:17Z</time>
					</trkpt>
					<trkpt lat="48.832920" lon="2.165280">
						<ele>164</ele>
						<time>2025-03-17T12:45:07Z</time>
					</trkpt>
					<trkpt lat="48.832970" lon="2.165910">
						<ele>159</ele>
						<time>2025-03-17T12:45:28Z</time>
					</trkpt>
					<trkpt lat="48.832750" lon="2.166410">
						<ele>157</ele>
						<time>2025-03-17T12:45:48Z</time>
					</trkpt>
					<trkpt lat="48.832560" lon="2.167240">
						<ele>154</ele>
						<time>2025-03-17T12:46:17Z</time>
					</trkpt>
					<trkpt lat="48.832570" lon="2.167850">
						<ele>152</ele>
						<time>2025-03-17T12:46:37Z</time>
					</trkpt>
					<trkpt lat="48.832660" lon="2.168390">
						<ele>149</ele>
						<time>2025-03-17T12:46:55Z</time>
					</trkpt>
					<trkpt lat="48.832840" lon="2.168910">
						<ele>146</ele>
						<time>2025-03-17T12:47:15Z</time>
					</trkpt>
					<trkpt lat="48.833570" lon="2.169630">
						<ele>142</ele>
						<time>2025-03-17T12:47:58Z</time>
					</trkpt>
					<trkpt lat="48.834170" lon="2.169450">
						<ele>141</ele>
						<time>2025-03-17T12:48:29Z</time>
					</trkpt>
					<trkpt lat="48.834290" lon="2.170430">
						<ele>141</ele>
						<time>2025-03-17T12:49:02Z</time>
					</trkpt>
					<trkpt lat="48.835370" lon="2.170060">
						<ele>132</ele>
						<time>2025-03-17T12:49:57Z</time>
					</trkpt>
					<trkpt lat="48.835380" lon="2.170210">
						<ele>132</ele>
						<time>2025-03-17T12:50:02Z</time>
					</trkpt>
					<trkpt lat="48.835460" lon="2.170180">
						<ele>132</ele>
						<time>2025-03-17T12:50:06Z</time>
					</trkpt>
					<trkpt lat="48.835500" lon="2.170340">
						<ele>132</ele>
						<time>2025-03-17T12:50:12Z</time>
					</trkpt>
					<trkpt lat="48.835620" lon="2.170360">
						<ele>132</ele>
						<time>2025-03-17T12:50:18Z</time>
					</trkpt>
					<trkpt lat="48.835880" lon="2.170610">
						<ele>132</ele>
						<time>2025-03-17T12:50:33Z</time>
					</trkpt>
					<trkpt lat="48.835970" lon="2.171520">
						<ele>130</ele>
						<time>2025-03-17T12:51:03Z</time>
					</trkpt>
					<trkpt lat="48.836220" lon="2.171950">
						<ele>128</ele>
						<time>2025-03-17T12:51:22Z</time>
					</trkpt>
					<trkpt lat="48.836140" lon="2.172140">
						<ele>128</ele>
						<time>2025-03-17T12:51:30Z</time>
					</trkpt>
					<trkpt lat="48.836180" lon="2.172350">
						<ele>127</ele>
						<time>2025-03-17T12:51:37Z</time>
					</trkpt>
					<trkpt lat="48.836320" lon="2.172380">
						<ele>126</ele>
						<time>2025-03-17T12:51:44Z</time>
					</trkpt>
					<trkpt lat="48.836350" lon="2.172500">
						<ele>125</ele>
						<time>2025-03-17T12:51:48Z</time>
					</trkpt>
					<trkpt lat="48.836420" lon="2.172580">
						<ele>125</ele>
						<time>2025-03-17T12:51:53Z</time>
					</trkpt>
					<trkpt lat="48.836640" lon="2.172640">
						<ele>124</ele>
						<time>2025-03-17T12:52:04Z</time>
					</trkpt>
					<trkpt lat="48.836680" lon="2.173810">
						<ele>126</ele>
						<time>2025-03-17T12:52:42Z</time>
					</trkpt>
					<trkpt lat="48.836530" lon="2.174550">
						<ele>126</ele>
						<time>2025-03-17T12:53:08Z</time>
					</trkpt>
					<trkpt lat="48.836540" lon="2.174780">
						<ele>125</ele>
						<time>2025-03-17T12:53:16Z</time>
					</trkpt>
					<trkpt lat="48.836430" lon="2.175160">
						<ele>125</ele>
						<time>2025-03-17T12:53:29Z</time>
					</trkpt>
					<trkpt lat="48.836250" lon="2.175400">
						<ele>125</ele>
						<time>2025-03-17T12:53:41Z</time>
					</trkpt>
					<trkpt lat="48.836110" lon="2.175830">
						<ele>124</ele>
						<time>2025-03-17T12:53:57Z</time>
					</trkpt>
					<trkpt lat="48.836050" lon="2.176500">
						<ele>123</ele>
						<time>2025-03-17T12:54:19Z</time>
					</trkpt>
					<trkpt lat="48.836050" lon="2.176930">
						<ele>123</ele>
						<time>2025-03-17T12:54:33Z</time>
					</trkpt>
					<trkpt lat="48.836000" lon="2.177260">
						<ele>123</ele>
						<time>2025-03-17T12:54:45Z</time>
					</trkpt>
					<trkpt lat="48.835340" lon="2.177470">
						<ele>126</ele>
						<time>2025-03-17T12:55:18Z</time>
					</trkpt>
					<trkpt lat="48.834930" lon="2.177870">
						<ele>128</ele>
						<time>2025-03-17T12:55:43Z</time>
					</trkpt>
					<trkpt lat="48.833980" lon="2.178250">
						<ele>130</ele>
						<time>2025-03-17T12:56:32Z</time>
					</trkpt>
					<trkpt lat="48.833420" lon="2.178230">
						<ele>132</ele>
						<time>2025-03-17T12:57:00Z</time>
					</trkpt>
					<trkpt lat="48.831920" lon="2.177390">
						<ele>138</ele>
						<time>2025-03-17T12:58:20Z</time>
					</trkpt>
					<trkpt lat="48.831940" lon="2.177570">
						<ele>138</ele>
						<time>2025-03-17T12:58:26Z</time>
					</trkpt>
					<trkpt lat="48.832250" lon="2.178120">
						<ele>139</ele>
						<time>2025-03-17T12:58:50Z</time>
					</trkpt>
					<trkpt lat="48.832420" lon="2.178520">
						<ele>140</ele>
						<time>2025-03-17T12:59:05Z</time>
					</trkpt>
					<trkpt lat="48.832510" lon="2.178640">
						<ele>140</ele>
						<time>2025-03-17T12:59:11Z</time>
					</trkpt>
					<trkpt lat="48.832630" lon="2.179050">
						<ele>139</ele>
						<time>2025-03-17T12:59:26Z</time>
					</trkpt>
					<trkpt lat="48.832640" lon="2.179310">
						<ele>140</ele>
						<time>2025-03-17T12:59:35Z</time>
					</trkpt>
					<trkpt lat="48.832610" lon="2.179650">
						<ele>141</ele>
						<time>2025-03-17T12:59:46Z</time>
					</trkpt>
					<trkpt lat="48.832530" lon="2.179950">
						<ele>142</ele>
						<time>2025-03-17T12:59:57Z</time>
					</trkpt>
					<trkpt lat="48.832470" lon="2.180060">
						<ele>143</ele>
						<time>2025-03-17T13:00:01Z</time>
					</trkpt>
					<trkpt lat="48.832110" lon="2.180420">
						<ele>145</ele>
						<time>2025-03-17T13:00:23Z</time>
					</trkpt>
					<trkpt lat="48.831840" lon="2.180760">
						<ele>148</ele>
						<time>2025-03-17T13:00:41Z</time>
					</trkpt>
					<trkpt lat="48.832070" lon="2.181450">
						<ele>148</ele>
						<time>2025-03-17T13:01:06Z</time>
					</trkpt>
					<trkpt lat="48.832590" lon="2.182340">
						<ele>145</ele>
						<time>2025-03-17T13:01:45Z</time>
					</trkpt>
					<trkpt lat="48.832890" lon="2.183320">
						<ele>142</ele>
						<time>2025-03-17T13:02:21Z</time>
					</trkpt>
					<trkpt lat="48.832950" lon="2.185930">
						<ele>139</ele>
						<time>2025-03-17T13:03:47Z</time>
					</trkpt>
					<trkpt lat="48.833080" lon="2.186850">
						<ele>137</ele>
						<time>2025-03-17T13:04:18Z</time>
					</trkpt>
					<trkpt lat="48.833020" lon="2.187410">
						<ele>138</ele>
						<time>2025-03-17T13:04:37Z</time>
					</trkpt>
					<trkpt lat="48.832860" lon="2.187650">
						<ele>140</ele>
						<time>2025-03-17T13:04:48Z</time>
					</trkpt>
					<trkpt lat="48.832790" lon="2.188110">
						<ele>141</ele>
						<time>2025-03-17T13:05:03Z</time>
					</trkpt>
					<trkpt lat="48.833040" lon="2.188460">
						<ele>142</ele>
						<time>2025-03-17T13:05:20Z</time>
					</trkpt>
					<trkpt lat="48.833270" lon="2.188570">
						<ele>142</ele>
						<time>2025-03-17T13:05:32Z</time>
					</trkpt>
					<trkpt lat="48.833700" lon="2.188690">
						<ele>141</ele>
						<time>2025-03-17T13:05:54Z</time>
					</trkpt>
					<trkpt lat="48.834100" lon="2.188900">
						<ele>141</ele>
						<time>2025-03-17T13:06:16Z</time>
					</trkpt>
					<trkpt lat="48.834640" lon="2.189610">
						<ele>137</ele>
						<time>2025-03-17T13:06:51Z</time>
					</trkpt>
					<trkpt lat="48.835660" lon="2.190870">
						<ele>128</ele>
						<time>2025-03-17T13:07:57Z</time>
					</trkpt>
					<trkpt lat="48.835690" lon="2.191190">
						<ele>128</ele>
						<time>2025-03-17T13:08:08Z</time>
					</trkpt>
					<trkpt lat="48.835610" lon="2.191310">
						<ele>128</ele>
						<time>2025-03-17T13:08:13Z</time>
					</trkpt>
					<trkpt lat="48.833910" lon="2.191550">
						<ele>142</ele>
						<time>2025-03-17T13:09:39Z</time>
					</trkpt>
					<trkpt lat="48.833740" lon="2.193390">
						<ele>131</ele>
						<time>2025-03-17T13:10:40Z</time>
					</trkpt>
					<trkpt lat="48.833510" lon="2.195090">
						<ele>126</ele>
						<time>2025-03-17T13:11:37Z</time>
					</trkpt>
					<trkpt lat="48.833700" lon="2.195590">
						<ele>123</ele>
						<time>2025-03-17T13:11:56Z</time>
					</trkpt>
					<trkpt lat="48.833820" lon="2.195990">
						<ele>121</ele>
						<time>2025-03-17T13:12:11Z</time>
					</trkpt>
					<trkpt lat="48.833900" lon="2.196380">
						<ele>119</ele>
						<time>2025-03-17T13:12:24Z</time>
					</trkpt>
					<trkpt lat="48.834460" lon="2.198160">
						<ele>114</ele>
						<time>2025-03-17T13:13:29Z</time>
					</trkpt>
					<trkpt lat="48.834630" lon="2.198870">
						<ele>112</ele>
						<time>2025-03-17T13:13:54Z</time>
					</trkpt>
					<trkpt lat="48.834700" lon="2.199020">
						<ele>112</ele>
						<time>2025-03-17T13:14:00Z</time>
					</trkpt>
					<trkpt lat="48.834740" lon="2.199050">
						<ele>112</ele>
						<time>2025-03-17T13:14:02Z</time>
					</trkpt>
					<trkpt lat="48.834920" lon="2.199060">
						<ele>110</ele>
						<time>2025-03-17T13:14:11Z</time>
					</trkpt>
					<trkpt lat="48.835320" lon="2.199010">
						<ele>109</ele>
						<time>2025-03-17T13:14:31Z</time>
					</trkpt>
					<trkpt lat="48.835470" lon="2.199020">
						<ele>108</ele>
						<time>2025-03-17T13:14:39Z</time>
					</trkpt>
					<trkpt lat="48.836230" lon="2.198970">
						<ele>106</ele>
						<time>2025-03-17T13:15:17Z</time>
					</trkpt>
					<trkpt lat="48.836290" lon="2.198990">
						<ele>106</ele>
						<time>2025-03-17T13:15:20Z</time>
					</trkpt>
					<trkpt lat="48.836340" lon="2.199120">
						<ele>106</ele>
						<time>2025-03-17T13:15:25Z</time>
					</trkpt>
					<trkpt lat="48.836390" lon="2.199970">
						<ele>105</ele>
						<time>2025-03-17T13:15:53Z</time>
					</trkpt>
					<trkpt lat="48.836460" lon="2.200580">
						<ele>103</ele>
						<time>2025-03-17T13:16:13Z</time>
					</trkpt>
					<trkpt lat="48.836500" lon="2.201510">
						<ele>103</ele>
						<time>2025-03-17T13:16:44Z</time>
					</trkpt>
					<trkpt lat="48.836540" lon="2.201720">
						<ele>103</ele>
						<time>2025-03-17T13:16:51Z</time>
					</trkpt>
					<trkpt lat="48.836580" lon="2.202290">
						<ele>101</ele>
						<time>2025-03-17T13:17:10Z</time>
					</trkpt>
					<trkpt lat="48.836650" lon="2.203550">
						<ele>100</ele>
						<time>2025-03-17T13:17:52Z</time>
					</trkpt>
					<trkpt lat="48.836550" lon="2.203910">
						<ele>101</ele>
						<time>2025-03-17T13:18:05Z</time>
					</trkpt>
					<trkpt lat="48.836360" lon="2.204340">
						<ele>102</ele>
						<time>2025-03-17T13:18:22Z</time>
					</trkpt>
					<trkpt lat="48.836230" lon="2.204750">
						<ele>103</ele>
						<time>2025-03-17T13:18:37Z</time>
					</trkpt>
					<trkpt lat="48.836110" lon="2.204940">
						<ele>104</ele>
						<time>2025-03-17T13:18:45Z</time>
					</trkpt>
					<trkpt lat="48.835870" lon="2.205190">
						<ele>105</ele>
						<time>2025-03-17T13:19:00Z</time>
					</trkpt>
					<trkpt lat="48.835770" lon="2.205390">
						<ele>105</ele>
						<time>2025-03-17T13:19:08Z</time>
					</trkpt>
					<trkpt lat="48.835640" lon="2.205500">
						<ele>105</ele>
						<time>2025-03-17T13:19:16Z</time>
					</trkpt>
					<trkpt lat="48.835390" lon="2.205650">
						<ele>106</ele>
						<time>2025-03-17T13:19:29Z</time>
					</trkpt>
					<trkpt lat="48.835330" lon="2.205740">
						<ele>107</ele>
						<time>2025-03-17T13:19:33Z</time>
					</trkpt>
					<trkpt lat="48.834870" lon="2.206920">
						<ele>107</ele>
						<time>2025-03-17T13:20:19Z</time>
					</trkpt>
					<trkpt lat="48.834940" lon="2.207030">
						<ele>107</ele>
						<time>2025-03-17T13:20:24Z</time>
					</trkpt>
					<trkpt lat="48.834880" lon="2.207520">
						<ele>107</ele>
						<time>2025-03-17T13:20:40Z</time>
					</trkpt>
					<trkpt lat="48.834550" lon="2.207560">
						<ele>109</ele>
						<time>2025-03-17T13:20:57Z</time>
					</trkpt>
					<trkpt lat="48.834490" lon="2.207690">
						<ele>110</ele>
						<time>2025-03-17T13:21:02Z</time>
					</trkpt>
					<trkpt lat="48.834490" lon="2.208040">
						<ele>110</ele>
						<time>2025-03-17T13:21:13Z</time>
					</trkpt>
					<trkpt lat="48.834550" lon="2.208260">
						<ele>110</ele>
						<time>2025-03-17T13:21:21Z</time>
					</trkpt>
					<trkpt lat="48.834940" lon="2.208720">
						<ele>107</ele>
						<time>2025-03-17T13:21:46Z</time>
					</trkpt>
					<trkpt lat="48.835460" lon="2.209390">
						<ele>103</ele>
						<time>2025-03-17T13:22:20Z</time>
					</trkpt>
					<trkpt lat="48.836320" lon="2.210390">
						<ele>92</ele>
						<time>2025-03-17T13:23:14Z</time>
					</trkpt>
					<trkpt lat="48.836860" lon="2.210980">
						<ele>87</ele>
						<time>2025-03-17T13:23:48Z</time>
					</trkpt>
					<trkpt lat="48.836770" lon="2.211440">
						<ele>87</ele>
						<time>2025-03-17T13:24:03Z</time>
					</trkpt>
					<trkpt lat="48.836750" lon="2.211670">
						<ele>86</ele>
						<time>2025-03-17T13:24:11Z</time>
					</trkpt>
					<trkpt lat="48.836790" lon="2.212140">
						<ele>85</ele>
						<time>2025-03-17T13:24:27Z</time>
					</trkpt>
					<trkpt lat="48.836780" lon="2.212330">
						<ele>85</ele>
						<time>2025-03-17T13:24:33Z</time>
					</trkpt>
					<trkpt lat="48.836540" lon="2.212720">
						<ele>85</ele>
						<time>2025-03-17T13:24:50Z</time>
					</trkpt>
					<trkpt lat="48.835130" lon="2.214590">
						<ele>89</ele>
						<time>2025-03-17T13:26:24Z</time>
					</trkpt>
					<trkpt lat="48.835220" lon="2.215420">
						<ele>83</ele>
						<time>2025-03-17T13:26:52Z</time>
					</trkpt>
					<trkpt lat="48.835340" lon="2.216190">
						<ele>75</ele>
						<time>2025-03-17T13:27:18Z</time>
					</trkpt>
					<trkpt lat="48.835410" lon="2.216940">
						<ele>67</ele>
						<time>2025-03-17T13:27:43Z</time>
					</trkpt>
					<trkpt lat="48.835330" lon="2.217060">
						<ele>67</ele>
						<time>2025-03-17T13:27:48Z</time>
					</trkpt>
					<trkpt lat="48.835230" lon="2.217120">
						<ele>67</ele>
						<time>2025-03-17T13:27:54Z</time>
					</trkpt>
					<trkpt lat="48.835210" lon="2.217250">
						<ele>67</ele>
						<time>2025-03-17T13:27:58Z</time>
					</trkpt>
					<trkpt lat="48.835090" lon="2.217470">
						<ele>66</ele>
						<time>2025-03-17T13:28:08Z</time>
					</trkpt>
					<trkpt lat="48.834870" lon="2.217600">
						<ele>68</ele>
						<time>2025-03-17T13:28:19Z</time>
					</trkpt>
					<trkpt lat="48.834750" lon="2.217590">
						<ele>70</ele>
						<time>2025-03-17T13:28:25Z</time>
					</trkpt>
					<trkpt lat="48.834470" lon="2.217390">
						<ele>76</ele>
						<time>2025-03-17T13:28:41Z</time>
					</trkpt>
					<trkpt lat="48.834260" lon="2.217350">
						<ele>80</ele>
						<time>2025-03-17T13:28:52Z</time>
					</trkpt>
					<trkpt lat="48.833800" lon="2.217420">
						<ele>85</ele>
						<time>2025-03-17T13:29:15Z</time>
					</trkpt>
					<trkpt lat="48.833740" lon="2.217380">
						<ele>87</ele>
						<time>2025-03-17T13:29:18Z</time>
					</trkpt>
					<trkpt lat="48.833620" lon="2.217390">
						<ele>88</ele>
						<time>2025-03-17T13:29:24Z</time>
					</trkpt>
					<trkpt lat="48.832800" lon="2.217580">
						<ele>96</ele>
						<time>2025-03-17T13:30:05Z</time>
					</trkpt>
					<trkpt lat="48.832530" lon="2.217620">
						<ele>99</ele>
						<time>2025-03-17T13:30:19Z</time>
					</trkpt>
					<trkpt lat="48.832140" lon="2.217730">
						<ele>96</ele>
						<time>2025-03-17T13:30:39Z</time>
					</trkpt>
					<trkpt lat="48.831200" lon="2.217900">
						<ele>96</ele>
						<time>2025-03-17T13:31:26Z</time>
					</trkpt>
					<trkpt lat="48.830960" lon="2.217990">
						<ele>97</ele>
						<time>2025-03-17T13:31:39Z</time>
					</trkpt>
					<trkpt lat="48.830920" lon="2.217980">
						<ele>97</ele>
						<time>2025-03-17T13:31:41Z</time>
					</trkpt>
					<trkpt lat="48.830130" lon="2.218120">
						<ele>94</ele>
						<time>2025-03-17T13:32:20Z</time>
					</trkpt>
					<trkpt lat="48.829660" lon="2.218170">
						<ele>93</ele>
						<time>2025-03-17T13:32:44Z</time>
					</trkpt>
					<trkpt lat="48.829730" lon="2.218330">
						<ele>91</ele>
						<time>2025-03-17T13:32:50Z</time>
					</trkpt>
					<trkpt lat="48.830020" lon="2.218440">
						<ele>89</ele>
						<time>2025-03-17T13:33:05Z</time>
					</trkpt>
					<trkpt lat="48.830630" lon="2.218390">
						<ele>90</ele>
						<time>2025-03-17T13:33:36Z</time>
					</trkpt>
					<trkpt lat="48.831080" lon="2.218540">
						<ele>86</ele>
						<time>2025-03-17T13:33:59Z</time>
					</trkpt>
					<trkpt lat="48.831320" lon="2.218670">
						<ele>82</ele>
						<time>2025-03-17T13:34:12Z</time>
					</trkpt>
					<trkpt lat="48.831610" lon="2.218720">
						<ele>80</ele>
						<time>2025-03-17T13:34:26Z</time>
					</trkpt>
					<trkpt lat="48.831770" lon="2.218700">
						<ele>80</ele>
						<time>2025-03-17T13:34:34Z</time>
					</trkpt>
					<trkpt lat="48.832030" lon="2.218620">
						<ele>81</ele>
						<time>2025-03-17T13:34:48Z</time>
					</trkpt>
					<trkpt lat="48.832670" lon="2.218290">
						<ele>85</ele>
						<time>2025-03-17T13:35:21Z</time>
					</trkpt>
					<trkpt lat="48.832920" lon="2.218240">
						<ele>82</ele>
						<time>2025-03-17T13:35:34Z</time>
					</trkpt>
					<trkpt lat="48.833370" lon="2.218010">
						<ele>79</ele>
						<time>2025-03-17T13:35:58Z</time>
					</trkpt>
					<trkpt lat="48.833870" lon="2.217810">
						<ele>77</ele>
						<time>2025-03-17T13:36:24Z</time>
					</trkpt>
					<trkpt lat="48.834290" lon="2.217790">
						<ele>73</ele>
						<time>2025-03-17T13:36:45Z</time>
					</trkpt>
					<trkpt lat="48.834580" lon="2.217810">
						<ele>69</ele>
						<time>2025-03-17T13:36:59Z</time>
					</trkpt>
					<trkpt lat="48.834550" lon="2.217920">
						<ele>67</ele>
						<time>2025-03-17T13:37:03Z</time>
					</trkpt>
					<trkpt lat="48.834390" lon="2.218040">
						<ele>67</ele>
						<time>2025-03-17T13:37:12Z</time>
					</trkpt>
					<trkpt lat="48.834420" lon="2.218130">
						<ele>65</ele>
						<time>2025-03-17T13:37:15Z</time>
					</trkpt>
					<trkpt lat="48.834610" lon="2.218030">
						<ele>65</ele>
						<time>2025-03-17T13:37:26Z</time>
					</trkpt>
					<trkpt lat="48.834820" lon="2.217990">
						<ele>63</ele>
						<time>2025-03-17T13:37:36Z</time>
					</trkpt>
					<trkpt lat="48.835070" lon="2.218190">
						<ele>59</ele>
						<time>2025-03-17T13:37:50Z</time>
					</trkpt>
					<trkpt lat="48.835050" lon="2.218480">
						<ele>55</ele>
						<time>2025-03-17T13:38:00Z</time>
					</trkpt>
					<trkpt lat="48.834030" lon="2.219390">
						<ele>48</ele>
						<time>2025-03-17T13:38:59Z</time>
					</trkpt>
					<trkpt lat="48.832890" lon="2.220310">
						<ele>43</ele>
						<time>2025-03-17T13:40:04Z</time>
					</trkpt>
					<trkpt lat="48.832770" lon="2.220460">
						<ele>41</ele>
						<time>2025-03-17T13:40:11Z</time>
					</trkpt>
					<trkpt lat="48.832570" lon="2.220630">
						<ele>39</ele>
						<time>2025-03-17T13:40:23Z</time>
					</trkpt>
					<trkpt lat="48.832520" lon="2.220710">
						<ele>38</ele>
						<time>2025-03-17T13:40:27Z</time>
					</trkpt>
					<trkpt lat="48.832600" lon="2.220760">
						<ele>36</ele>
						<time>2025-03-17T13:40:31Z</time>
					</trkpt>
					<trkpt lat="48.832810" lon="2.220760">
						<ele>35</ele>
						<time>2025-03-17T13:40:41Z</time>
					</trkpt>
					<trkpt lat="48.832930" lon="2.221830">
						<ele>27</ele>
						<time>2025-03-17T13:41:17Z</time>
					</trkpt>
					<trkpt lat="48.831810" lon="2.221940">
						<ele>27</ele>
						<time>2025-03-17T13:42:13Z</time>
					</trkpt>
					<trkpt lat="48.829340" lon="2.223310">
						<ele>32</ele>
						<time>2025-03-17T13:44:25Z</time>
					</trkpt>
					<trkpt lat="48.829040" lon="2.223550">
						<ele>33</ele>
						<time>2025-03-17T13:44:42Z</time>
					</trkpt>
					<trkpt lat="48.828880" lon="2.223630">
						<ele>33</ele>
						<time>2025-03-17T13:44:50Z</time>
					</trkpt>
					<trkpt lat="48.828810" lon="2.223630">
						<ele>33</ele>
						<time>2025-03-17T13:44:54Z</time>
					</trkpt>
					<trkpt lat="48.828540" lon="2.223800">
						<ele>33</ele>
						<time>2025-03-17T13:45:08Z</time>
					</trkpt>
					<trkpt lat="48.828530" lon="2.223900">
						<ele>33</ele>
						<time>2025-03-17T13:45:12Z</time>
					</trkpt>
					<trkpt lat="48.828460" lon="2.224100">
						<ele>32</ele>
						<time>2025-03-17T13:45:19Z</time>
					</trkpt>
					<trkpt lat="48.828340" lon="2.224170">
						<ele>32</ele>
						<time>2025-03-17T13:45:26Z</time>
					</trkpt>
					<trkpt lat="48.828140" lon="2.224180">
						<ele>33</ele>
						<time>2025-03-17T13:45:36Z</time>
					</trkpt>
					<trkpt lat="48.828070" lon="2.224250">
						<ele>33</ele>
						<time>2025-03-17T13:45:40Z</time>
					</trkpt>
					<trkpt lat="48.827990" lon="2.224940">
						<ele>32</ele>
						<time>2025-03-17T13:46:03Z</time>
					</trkpt>
					<trkpt lat="48.828040" lon="2.225150">
						<ele>31</ele>
						<time>2025-03-17T13:46:10Z</time>
					</trkpt>
					<trkpt lat="48.828240" lon="2.225650">
						<ele>28</ele>
						<time>2025-03-17T13:46:30Z</time>
					</trkpt>
					<trkpt lat="48.828400" lon="2.225570">
						<ele>28</ele>
						<time>2025-03-17T13:46:38Z</time>
					</trkpt>
					<trkpt lat="48.828410" lon="2.225710">
						<ele>28</ele>
						<time>2025-03-17T13:46:43Z</time>
					</trkpt>
					<trkpt lat="48.827870" lon="2.225860">
						<ele>29</ele>
						<time>2025-03-17T13:47:10Z</time>
					</trkpt>
					<trkpt lat="48.827400" lon="2.226190">
						<ele>29</ele>
						<time>2025-03-17T13:47:36Z</time>
					</trkpt>
					<trkpt lat="48.826370" lon="2.227150">
						<ele>29</ele>
						<time>2025-03-17T13:48:36Z</time>
					</trkpt>
					<trkpt lat="48.824280" lon="2.229410">
						<ele>31</ele>
						<time>2025-03-17T13:50:45Z</time>
					</trkpt>
					<trkpt lat="48.823710" lon="2.230180">
						<ele>30</ele>
						<time>2025-03-17T13:51:23Z</time>
					</trkpt>
					<trkpt lat="48.822510" lon="2.232250">
						<ele>31</ele>
						<time>2025-03-17T13:52:54Z</time>
					</trkpt>
					<trkpt lat="48.822400" lon="2.232390">
						<ele>31</ele>
						<time>2025-03-17T13:53:01Z</time>
					</trkpt>
					<trkpt lat="48.822250" lon="2.232740">
						<ele>32</ele>
						<time>2025-03-17T13:53:15Z</time>
					</trkpt>
					<trkpt lat="48.822040" lon="2.233110">
						<ele>33</ele>
						<time>2025-03-17T13:53:31Z</time>
					</trkpt>
					<trkpt lat="48.821620" lon="2.234200">
						<ele>33</ele>
						<time>2025-03-17T13:54:13Z</time>
					</trkpt>
					<trkpt lat="48.820530" lon="2.238420">
						<ele>30</ele>
						<time>2025-03-17T13:56:42Z</time>
					</trkpt>
					<trkpt lat="48.820260" lon="2.240260">
						<ele>31</ele>
						<time>2025-03-17T13:57:44Z</time>
					</trkpt>
					<trkpt lat="48.820230" lon="2.240860">
						<ele>31</ele>
						<time>2025-03-17T13:58:04Z</time>
					</trkpt>
					<trkpt lat="48.820310" lon="2.242790">
						<ele>29</ele>
						<time>2025-03-17T13:59:08Z</time>
					</trkpt>
					<trkpt lat="48.820180" lon="2.243020">
						<ele>30</ele>
						<time>2025-03-17T13:59:18Z</time>
					</trkpt>
					<trkpt lat="48.820150" lon="2.243580">
						<ele>31</ele>
						<time>2025-03-17T13:59:36Z</time>
					</trkpt>
					<trkpt lat="48.820310" lon="2.243960">
						<ele>32</ele>
						<time>2025-03-17T13:59:51Z</time>
					</trkpt>
					<trkpt lat="48.820410" lon="2.245000">
						<ele>35</ele>
						<time>2025-03-17T14:00:26Z</time>
					</trkpt>
					<trkpt lat="48.820660" lon="2.246230">
						<ele>31</ele>
						<time>2025-03-17T14:01:08Z</time>
					</trkpt>
					<trkpt lat="48.820790" lon="2.246700">
						<ele>28</ele>
						<time>2025-03-17T14:01:25Z</time>
					</trkpt>
					<trkpt lat="48.820740" lon="2.246960">
						<ele>29</ele>
						<time>2025-03-17T14:01:34Z</time>
					</trkpt>
					<trkpt lat="48.821160" lon="2.248620">
						<ele>32</ele>
						<time>2025-03-17T14:02:32Z</time>
					</trkpt>
					<trkpt lat="48.821410" lon="2.249270">
						<ele>32</ele>
						<time>2025-03-17T14:02:57Z</time>
					</trkpt>
					<trkpt lat="48.821660" lon="2.249730">
						<ele>31</ele>
						<time>2025-03-17T14:03:17Z</time>
					</trkpt>
					<trkpt lat="48.821710" lon="2.249760">
						<ele>31</ele>
						<time>2025-03-17T14:03:19Z</time>
					</trkpt>
					<trkpt lat="48.821790" lon="2.249940">
						<ele>31</ele>
						<time>2025-03-17T14:03:27Z</time>
					</trkpt>
					<trkpt lat="48.821840" lon="2.249960">
						<ele>31</ele>
						<time>2025-03-17T14:03:29Z</time>
					</trkpt>
					<trkpt lat="48.822190" lon="2.249780">
						<ele>33</ele>
						<time>2025-03-17T14:03:48Z</time>
					</trkpt>
					<trkpt lat="48.822320" lon="2.249700">
						<ele>33</ele>
						<time>2025-03-17T14:03:55Z</time>
					</trkpt>
					<trkpt lat="48.822330" lon="2.249670">
						<ele>33</ele>
						<time>2025-03-17T14:03:56Z</time>
					</trkpt>
					<trkpt lat="48.822300" lon="2.249640">
						<ele>33</ele>
						<time>2025-03-17T14:03:58Z</time>
					</trkpt>
					<trkpt lat="48.822240" lon="2.249660">
						<ele>33</ele>
						<time>2025-03-17T14:04:01Z</time>
					</trkpt>
					<trkpt lat="48.822220" lon="2.249620">
						<ele>33</ele>
						<time>2025-03-17T14:04:02Z</time>
					</trkpt>
					<trkpt lat="48.822190" lon="2.249620">
						<ele>33</ele>
						<time>2025-03-17T14:04:04Z</time>
					</trkpt>
					<trkpt lat="48.822380" lon="2.250310">
						<ele>33</ele>
						<time>2025-03-17T14:04:28Z</time>
					</trkpt>
					<trkpt lat="48.822400" lon="2.250310">
						<ele>33</ele>
						<time>2025-03-17T14:04:29Z</time>
					</trkpt>
					<trkpt lat="48.822370" lon="2.250210">
						<ele>33</ele>
						<time>2025-03-17T14:04:33Z</time>
					</trkpt>
					<trkpt lat="48.822430" lon="2.250370">
						<ele>33</ele>
						<time>2025-03-17T14:04:39Z</time>
					</trkpt>
					<trkpt lat="48.822500" lon="2.250430">
						<ele>33</ele>
						<time>2025-03-17T14:04:43Z</time>
					</trkpt>
					<trkpt lat="48.822570" lon="2.250600">
						<ele>33</ele>
						<time>2025-03-17T14:04:50Z</time>
					</trkpt>
					<trkpt lat="48.822980" lon="2.251810">
						<ele>30</ele>
						<time>2025-03-17T14:05:35Z</time>
					</trkpt>
					<trkpt lat="48.823070" lon="2.251870">
						<ele>30</ele>
						<time>2025-03-17T14:05:40Z</time>
					</trkpt>
					<trkpt lat="48.823130" lon="2.251640">
						<ele>30</ele>
						<time>2025-03-17T14:05:48Z</time>
					</trkpt>
					<trkpt lat="48.823210" lon="2.251580">
						<ele>30</ele>
						<time>2025-03-17T14:05:52Z</time>
					</trkpt>
					<trkpt lat="48.823380" lon="2.251220">
						<ele>32</ele>
						<time>2025-03-17T14:06:07Z</time>
					</trkpt>
					<trkpt lat="48.823500" lon="2.251090">
						<ele>32</ele>
						<time>2025-03-17T14:06:14Z</time>
					</trkpt>
					<trkpt lat="48.824160" lon="2.250960">
						<ele>33</ele>
						<time>2025-03-17T14:06:47Z</time>
					</trkpt>
					<trkpt lat="48.824590" lon="2.250840">
						<ele>32</ele>
						<time>2025-03-17T14:07:09Z</time>
					</trkpt>
					<trkpt lat="48.824780" lon="2.251200">
						<ele>31</ele>
						<time>2025-03-17T14:07:25Z</time>
					</trkpt>
					<trkpt lat="48.824830" lon="2.251360">
						<ele>31</ele>
						<time>2025-03-17T14:07:30Z</time>
					</trkpt>
					<trkpt lat="48.824760" lon="2.251980">
						<ele>31</ele>
						<time>2025-03-17T14:07:51Z</time>
					</trkpt>
					<trkpt lat="48.824830" lon="2.252200">
						<ele>31</ele>
						<time>2025-03-17T14:07:59Z</time>
					</trkpt>
					<trkpt lat="48.825080" lon="2.252520">
						<ele>32</ele>
						<time>2025-03-17T14:08:15Z</time>
					</trkpt>
					<trkpt lat="48.825250" lon="2.252590">
						<ele>29</ele>
						<time>2025-03-17T14:08:24Z</time>
					</trkpt>
					<trkpt lat="48.825380" lon="2.252780">
						<ele>27</ele>
						<time>2025-03-17T14:08:33Z</time>
					</trkpt>
					<trkpt lat="48.825520" lon="2.252870">
						<ele>25</ele>
						<time>2025-03-17T14:08:41Z</time>
					</trkpt>
					<trkpt lat="48.825720" lon="2.253230">
						<ele>21</ele>
						<time>2025-03-17T14:08:56Z</time>
					</trkpt>
					<trkpt lat="48.825900" lon="2.253450">
						<ele>22</ele>
						<time>2025-03-17T14:09:08Z</time>
					</trkpt>
					<trkpt lat="48.826130" lon="2.253650">
						<ele>26</ele>
						<time>2025-03-17T14:09:21Z</time>
					</trkpt>
					<trkpt lat="48.826580" lon="2.254280">
						<ele>29</ele>
						<time>2025-03-17T14:09:52Z</time>
					</trkpt>
					<trkpt lat="48.826900" lon="2.254890">
						<ele>34</ele>
						<time>2025-03-17T14:10:18Z</time>
					</trkpt>
					<trkpt lat="48.827270" lon="2.255370">
						<ele>35</ele>
						<time>2025-03-17T14:10:42Z</time>
					</trkpt>
					<trkpt lat="48.827390" lon="2.255410">
						<ele>35</ele>
						<time>2025-03-17T14:10:48Z</time>
					</trkpt>
					<trkpt lat="48.827510" lon="2.255590">
						<ele>35</ele>
						<time>2025-03-17T14:10:57Z</time>
					</trkpt>
					<trkpt lat="48.827550" lon="2.255740">
						<ele>35</ele>
						<time>2025-03-17T14:11:02Z</time>
					</trkpt>
					<trkpt lat="48.827700" lon="2.255810">
						<ele>34</ele>
						<time>2025-03-17T14:11:10Z</time>
					</trkpt>
					<trkpt lat="48.827820" lon="2.255980">
						<ele>33</ele>
						<time>2025-03-17T14:11:18Z</time>
					</trkpt>
					<trkpt lat="48.827880" lon="2.256180">
						<ele>33</ele>
						<time>2025-03-17T14:11:25Z</time>
					</trkpt>
					<trkpt lat="48.828020" lon="2.256230">
						<ele>32</ele>
						<time>2025-03-17T14:11:32Z</time>
					</trkpt>
					<trkpt lat="48.828110" lon="2.256310">
						<ele>31</ele>
						<time>2025-03-17T14:11:38Z</time>
					</trkpt>
					<trkpt lat="48.828270" lon="2.256530">
						<ele>30</ele>
						<time>2025-03-17T14:11:48Z</time>
					</trkpt>
					<trkpt lat="48.828400" lon="2.256850">
						<ele>30</ele>
						<time>2025-03-17T14:12:01Z</time>
					</trkpt>
					<trkpt lat="48.828660" lon="2.257090">
						<ele>32</ele>
						<time>2025-03-17T14:12:16Z</time>
					</trkpt>
					<trkpt lat="48.828760" lon="2.257270">
						<ele>33</ele>
						<time>2025-03-17T14:12:24Z</time>
					</trkpt>
					<trkpt lat="48.828800" lon="2.257660">
						<ele>35</ele>
						<time>2025-03-17T14:12:37Z</time>
					</trkpt>
					<trkpt lat="48.828840" lon="2.257770">
						<ele>36</ele>
						<time>2025-03-17T14:12:41Z</time>
					</trkpt>
					<trkpt lat="48.828980" lon="2.257870">
						<ele>36</ele>
						<time>2025-03-17T14:12:49Z</time>
					</trkpt>
					<trkpt lat="48.829100" lon="2.257910">
						<ele>36</ele>
						<time>2025-03-17T14:12:55Z</time>
					</trkpt>
					<trkpt lat="48.829650" lon="2.258720">
						<ele>33</ele>
						<time>2025-03-17T14:13:33Z</time>
					</trkpt>
					<trkpt lat="48.829860" lon="2.259140">
						<ele>30</ele>
						<time>2025-03-17T14:13:50Z</time>
					</trkpt>
					<trkpt lat="48.829940" lon="2.259360">
						<ele>28</ele>
						<time>2025-03-17T14:13:59Z</time>
					</trkpt>
					<trkpt lat="48.829940" lon="2.259580">
						<ele>27</ele>
						<time>2025-03-17T14:14:06Z</time>
					</trkpt>
					<trkpt lat="48.830060" lon="2.259700">
						<ele>26</ele>
						<time>2025-03-17T14:14:13Z</time>
					</trkpt>
					<trkpt lat="48.829680" lon="2.260650">
						<ele>27</ele>
						<time>2025-03-17T14:14:50Z</time>
					</trkpt>
					<trkpt lat="48.829700" lon="2.260700">
						<ele>27</ele>
						<time>2025-03-17T14:14:52Z</time>
					</trkpt>
					<trkpt lat="48.829860" lon="2.260750">
						<ele>26</ele>
						<time>2025-03-17T14:15:00Z</time>
					</trkpt>
					<trkpt lat="48.830230" lon="2.260980">
						<ele>28</ele>
						<time>2025-03-17T14:15:20Z</time>
					</trkpt>
					<trkpt lat="48.830400" lon="2.261050">
						<ele>30</ele>
						<time>2025-03-17T14:15:29Z</time>
					</trkpt>
					<trkpt lat="48.830830" lon="2.261370">
						<ele>32</ele>
						<time>2025-03-17T14:15:53Z</time>
					</trkpt>
					<trkpt lat="48.831050" lon="2.261570">
						<ele>32</ele>
						<time>2025-03-17T14:16:06Z</time>
					</trkpt>
					<trkpt lat="48.831220" lon="2.261760">
						<ele>31</ele>
						<time>2025-03-17T14:16:16Z</time>
					</trkpt>
					<trkpt lat="48.831570" lon="2.262230">
						<ele>32</ele>
						<time>2025-03-17T14:16:39Z</time>
					</trkpt>
					<trkpt lat="48.833160" lon="2.263780">
						<ele>29</ele>
						<time>2025-03-17T14:18:14Z</time>
					</trkpt>
					<trkpt lat="48.833400" lon="2.264050">
						<ele>30</ele>
						<time>2025-03-17T14:18:29Z</time>
					</trkpt>
					<trkpt lat="48.834260" lon="2.264890">
						<ele>31</ele>
						<time>2025-03-17T14:19:20Z</time>
					</trkpt>
					<trkpt lat="48.834560" lon="2.265280">
						<ele>31</ele>
						<time>2025-03-17T14:19:40Z</time>
					</trkpt>
					<trkpt lat="48.834650" lon="2.265490">
						<ele>31</ele>
						<time>2025-03-17T14:19:48Z</time>
					</trkpt>
					<trkpt lat="48.834760" lon="2.265590">
						<ele>31</ele>
						<time>2025-03-17T14:19:55Z</time>
					</trkpt>
					<trkpt lat="48.834850" lon="2.265720">
						<ele>31</ele>
						<time>2025-03-17T14:20:01Z</time>
					</trkpt>
					<trkpt lat="48.835030" lon="2.265810">
						<ele>30</ele>
						<time>2025-03-17T14:20:10Z</time>
					</trkpt>
					<trkpt lat="48.835200" lon="2.265990">
						<ele>31</ele>
						<time>2025-03-17T14:20:21Z</time>
					</trkpt>
					<trkpt lat="48.835640" lon="2.266380">
						<ele>32</ele>
						<time>2025-03-17T14:20:46Z</time>
					</trkpt>
					<trkpt lat="48.835940" lon="2.266760">
						<ele>31</ele>
						<time>2025-03-17T14:21:06Z</time>
					</trkpt>
					<trkpt lat="48.837450" lon="2.268280">
						<ele>28</ele>
						<time>2025-03-17T14:22:36Z</time>
					</trkpt>
					<trkpt lat="48.837870" lon="2.268590">
						<ele>28</ele>
						<time>2025-03-17T14:23:00Z</time>
					</trkpt>
					<trkpt lat="48.838040" lon="2.268690">
						<ele>28</ele>
						<time>2025-03-17T14:23:09Z</time>
					</trkpt>
					<trkpt lat="48.838080" lon="2.268680">
						<ele>28</ele>
						<time>2025-03-17T14:23:11Z</time>
					</trkpt>
					<trkpt lat="48.838150" lon="2.268720">
						<ele>28</ele>
						<time>2025-03-17T14:23:15Z</time>
					</trkpt>
					<trkpt lat="48.838340" lon="2.268950">
						<ele>28</ele>
						<time>2025-03-17T14:23:27Z</time>
					</trkpt>
					<trkpt lat="48.838440" lon="2.268990">
						<ele>28</ele>
						<time>2025-03-17T14:23:32Z</time>
					</trkpt>
					<trkpt lat="48.838470" lon="2.269040">
						<ele>28</ele>
						<time>2025-03-17T14:23:34Z</time>
					</trkpt>
					<trkpt lat="48.838520" lon="2.269060">
						<ele>28</ele>
						<time>2025-03-17T14:23:37Z</time>
					</trkpt>
					<trkpt lat="48.839200" lon="2.269730">
						<ele>32</ele>
						<time>2025-03-17T14:24:17Z</time>
					</trkpt>
					<trkpt lat="48.839890" lon="2.270320">
						<ele>34</ele>
						<time>2025-03-17T14:24:57Z</time>
					</trkpt>
					<trkpt lat="48.840230" lon="2.270670">
						<ele>32</ele>
						<time>2025-03-17T14:25:17Z</time>
					</trkpt>
					<trkpt lat="48.840400" lon="2.271060">
						<ele>30</ele>
						<time>2025-03-17T14:25:33Z</time>
					</trkpt>
					<trkpt lat="48.840460" lon="2.271130">
						<ele>30</ele>
						<time>2025-03-17T14:25:37Z</time>
					</trkpt>
					<trkpt lat="48.841190" lon="2.271820">
						<ele>31</ele>
						<time>2025-03-17T14:26:20Z</time>
					</trkpt>
					<trkpt lat="48.841320" lon="2.271790">
						<ele>31</ele>
						<time>2025-03-17T14:26:26Z</time>
					</trkpt>
					<trkpt lat="48.841330" lon="2.271820">
						<ele>31</ele>
						<time>2025-03-17T14:26:27Z</time>
					</trkpt>
					<trkpt lat="48.841460" lon="2.271840">
						<ele>31</ele>
						<time>2025-03-17T14:26:34Z</time>
					</trkpt>
					<trkpt lat="48.841920" lon="2.272080">
						<ele>33</ele>
						<time>2025-03-17T14:26:58Z</time>
					</trkpt>
					<trkpt lat="48.842400" lon="2.272590">
						<ele>33</ele>
						<time>2025-03-17T14:27:28Z</time>
					</trkpt>
					<trkpt lat="48.842480" lon="2.272970">
						<ele>31</ele>
						<time>2025-03-17T14:27:41Z</time>
					</trkpt>
					<trkpt lat="48.843210" lon="2.273620">
						<ele>29</ele>
						<time>2025-03-17T14:28:23Z</time>
					</trkpt>
					<trkpt lat="48.843600" lon="2.274020">
						<ele>30</ele>
						<time>2025-03-17T14:28:47Z</time>
					</trkpt>
					<trkpt lat="48.845390" lon="2.275670">
						<ele>30</ele>
						<time>2025-03-17T14:30:31Z</time>
					</trkpt>
					<trkpt lat="48.845580" lon="2.275750">
						<ele>30</ele>
						<time>2025-03-17T14:30:41Z</time>
					</trkpt>
					<trkpt lat="48.846320" lon="2.276570">
						<ele>30</ele>
						<time>2025-03-17T14:31:27Z</time>
					</trkpt>
					<trkpt lat="48.847040" lon="2.277520">
						<ele>27</ele>
						<time>2025-03-17T14:32:15Z</time>
					</trkpt>
					<trkpt lat="48.847150" lon="2.277850">
						<ele>26</ele>
						<time>2025-03-17T14:32:27Z</time>
					</trkpt>
					<trkpt lat="48.847250" lon="2.278010">
						<ele>25</ele>
						<time>2025-03-17T14:32:34Z</time>
					</trkpt>
					<trkpt lat="48.847810" lon="2.278720">
						<ele>28</ele>
						<time>2025-03-17T14:33:11Z</time>
					</trkpt>
					<trkpt lat="48.847920" lon="2.278930">
						<ele>29</ele>
						<time>2025-03-17T14:33:20Z</time>
					</trkpt>
					<trkpt lat="48.848330" lon="2.279520">
						<ele>32</ele>
						<time>2025-03-17T14:33:48Z</time>
					</trkpt>
					<trkpt lat="48.848570" lon="2.279920">
						<ele>35</ele>
						<time>2025-03-17T14:34:06Z</time>
					</trkpt>
					<trkpt lat="48.848960" lon="2.280460">
						<ele>34</ele>
						<time>2025-03-17T14:34:32Z</time>
					</trkpt>
					<trkpt lat="48.849200" lon="2.280540">
						<ele>32</ele>
						<time>2025-03-17T14:34:44Z</time>
					</trkpt>
					<trkpt lat="48.849400" lon="2.280860">
						<ele>30</ele>
						<time>2025-03-17T14:34:59Z</time>
					</trkpt>
					<trkpt lat="48.849530" lon="2.280900">
						<ele>29</ele>
						<time>2025-03-17T14:35:05Z</time>
					</trkpt>
					<trkpt lat="48.849820" lon="2.281320">
						<ele>28</ele>
						<time>2025-03-17T14:35:26Z</time>
					</trkpt>
					<trkpt lat="48.849940" lon="2.281660">
						<ele>28</ele>
						<time>2025-03-17T14:35:38Z</time>
					</trkpt>
					<trkpt lat="48.850290" lon="2.282110">
						<ele>30</ele>
						<time>2025-03-17T14:36:01Z</time>
					</trkpt>
					<trkpt lat="48.850310" lon="2.282330">
						<ele>30</ele>
						<time>2025-03-17T14:36:08Z</time>
					</trkpt>
					<trkpt lat="48.849680" lon="2.281400">
						<ele>29</ele>
						<time>2025-03-17T14:36:52Z</time>
					</trkpt>
					<trkpt lat="48.850090" lon="2.280640">
						<ele>27</ele>
						<time>2025-03-17T14:37:25Z</time>
					</trkpt>
					<trkpt lat="48.850350" lon="2.280250">
						<ele>29</ele>
						<time>2025-03-17T14:37:43Z</time>
					</trkpt>
					<trkpt lat="48.850370" lon="2.280240">
						<ele>29</ele>
						<time>2025-03-17T14:37:44Z</time>
					</trkpt>
					<trkpt lat="48.850430" lon="2.280290">
						<ele>29</ele>
						<time>2025-03-17T14:37:48Z</time>
					</trkpt>
					<trkpt lat="48.850570" lon="2.280530">
						<ele>29</ele>
						<time>2025-03-17T14:37:58Z</time>
					</trkpt>
					<trkpt lat="48.850690" lon="2.280670">
						<ele>30</ele>
						<time>2025-03-17T14:38:06Z</time>
					</trkpt>
					<trkpt lat="48.851220" lon="2.281460">
						<ele>32</ele>
						<time>2025-03-17T14:38:43Z</time>
					</trkpt>
					<trkpt lat="48.851430" lon="2.281720">
						<ele>32</ele>
						<time>2025-03-17T14:38:56Z</time>
					</trkpt>
					<trkpt lat="48.852140" lon="2.282770">
						<ele>28</ele>
						<time>2025-03-17T14:39:46Z</time>
					</trkpt>
					<trkpt lat="48.852290" lon="2.283030">
						<ele>28</ele>
						<time>2025-03-17T14:39:57Z</time>
					</trkpt>
					<trkpt lat="48.852870" lon="2.283780">
						<ele>27</ele>
						<time>2025-03-17T14:40:35Z</time>
					</trkpt>
					<trkpt lat="48.853700" lon="2.284990">
						<ele>32</ele>
						<time>2025-03-17T14:41:33Z</time>
					</trkpt>
					<trkpt lat="48.854000" lon="2.285380">
						<ele>34</ele>
						<time>2025-03-17T14:41:53Z</time>
					</trkpt>
					<trkpt lat="48.854700" lon="2.286420">
						<ele>31</ele>
						<time>2025-03-17T14:42:42Z</time>
					</trkpt>
					<trkpt lat="48.855040" lon="2.286850">
						<ele>31</ele>
						<time>2025-03-17T14:43:04Z</time>
					</trkpt>
					<trkpt lat="48.855610" lon="2.287680">
						<ele>33</ele>
						<time>2025-03-17T14:43:43Z</time>
					</trkpt>
					<trkpt lat="48.854890" lon="2.288430">
						<ele>37</ele>
						<time>2025-03-17T14:44:27Z</time>
					</trkpt>
					<trkpt lat="48.854960" lon="2.288560">
						<ele>37</ele>
						<time>2025-03-17T14:44:33Z</time>
					</trkpt>
					<trkpt lat="48.855270" lon="2.288870">
						<ele>35</ele>
						<time>2025-03-17T14:44:51Z</time>
					</trkpt>
					<trkpt lat="48.855640" lon="2.289100">
						<ele>30</ele>
						<time>2025-03-17T14:45:11Z</time>
					</trkpt>
					<trkpt lat="48.856760" lon="2.289530">
						<ele>36</ele>
						<time>2025-03-17T14:46:09Z</time>
					</trkpt>
					<trkpt lat="48.857190" lon="2.289800">
						<ele>33</ele>
						<time>2025-03-17T14:46:32Z</time>
					</trkpt>
					<trkpt lat="48.857610" lon="2.290180">
						<ele>31</ele>
						<time>2025-03-17T14:46:57Z</time>
					</trkpt>
					<trkpt lat="48.858300" lon="2.291010">
						<ele>29</ele>
						<time>2025-03-17T14:47:41Z</time>
					</trkpt>
					<trkpt lat="48.858800" lon="2.291670">
						<ele>29</ele>
						<time>2025-03-17T14:48:14Z</time>
					</trkpt>
					<trkpt lat="48.858950" lon="2.291970">
						<ele>31</ele>
						<time>2025-03-17T14:48:26Z</time>
					</trkpt>
					<trkpt lat="48.858960" lon="2.292380">
						<ele>33</ele>
						<time>2025-03-17T14:48:40Z</time>
					</trkpt>
					<trkpt lat="48.859100" lon="2.292600">
						<ele>33</ele>
						<time>2025-03-17T14:48:50Z</time>
					</trkpt>
					<trkpt lat="48.859150" lon="2.292910">
						<ele>36</ele>
						<time>2025-03-17T14:49:00Z</time>
					</trkpt>
					<trkpt lat="48.859290" lon="2.292850">
						<ele>34</ele>
						<time>2025-03-17T14:49:08Z</time>
					</trkpt>
					<trkpt lat="48.859710" lon="2.292190">
						<ele>28</ele>
						<time>2025-03-17T14:49:38Z</time>
					</trkpt>
					</trkseg>
				</trk>
			</gpx>